{"entries":[{"postal_code":"35003","place":"Las Palmas De Gran Canaria","province":"Las Palmas","location":"Las Palmas de Gran Canaria"},{"postal_code":"35002","place":"Las Palmas De Gran Canaria","province":"Las Palmas","location":"Las Palmas de Gran Canaria"},{"postal_code":"35007","place":"Las Palmas De Gran Canaria","province":"Las Palmas","location":"Las Palmas de Gran Canaria"},{"postal_code":"35008","place":"Las Palmas De Gran Canaria","province":"Las Palmas","location":"Las Palmas de Gran Canaria"},{"postal_code":"35013","place":"Las Palmas De Gran Canaria","province":"Las Palmas","location":"Las Palmas de Gran Canaria"},{"postal_code":"35016","place":"Las Palmas De Gran Canaria","province":"Las Palmas","location":"Las Palmas de Gran Canaria"},{"postal_code":"35017","place":"Pico Viento","province":"Las Palmas","location":"Las Palmas de Gran Canaria"},{"postal_code":"35012","place":"Las Palmas De Gran Canaria","province":"Las Palmas","location":"Las Palmas de Gran Canaria"},{"postal_code":"35017","place":"Monte Luz","province":"Las Palmas","location":"Las Palmas de Gran Canaria"},{"postal_code":"35017","place":"Siete Puertas","province":"Las Palmas","location":"Las Palmas de Gran Canaria"},{"postal_code":"35017","place":"Dragonal Alto","province":"Las Palmas","location":"Las Palmas de Gran Canaria"},{"postal_code":"35017","place":"La Calzada","province":"Las Palmas","location":"Las Palmas de Gran Canaria"},{"postal_code":"35018","place":"Cortijo, El (Tamaraceite)","province":"Las Palmas","location":"Las Palmas de Gran Canaria"},{"postal_code":"35018","place":"Piletas","province":"Las Palmas","location":"Las Palmas de Gran Canaria"},{"postal_code":"35018","place":"La Suerte","province":"Las Palmas","location":"Las Palmas de Gran Canaria"},{"postal_code":"35018","place":"Almatriche Alto","province":"Las Palmas","location":"Las Palmas de Gran Canaria"},{"postal_code":"35018","place":"Las Mesas Bajas","province":"Las Palmas","location":"Las Palmas de Gran Canaria"},{"postal_code":"35018","place":"Hoya Andrea","province":"Las Palmas","location":"Las Palmas de Gran Canaria"},{"postal_code":"35018","place":"La Milagrosa","province":"Las Palmas","location":"Las Palmas de Gran Canaria"},{"postal_code":"35080","place":"Las Palmas De Gran Canaria","province":"Las Palmas"},{"postal_code":"35100","place":"Playa Del Ingles","province":"Las Palmas","location":"San Bartolom� de Tirajana"},{"postal_code":"35018","place":"Las Mesas Altas","province":"Las Palmas","location":"Las Palmas de Gran Canaria"},{"postal_code":"35100","place":"Playa Del Aguila","province":"Las Palmas","location":"San Bartolom� de Tirajana"},{"postal_code":"35100","place":"Maspalomas","province":"Las Palmas","location":"San Bartolom� de Tirajana"},{"postal_code":"35100","place":"Bahia Feliz (Urbanizacion)","province":"Las Palmas","location":"San Bartolom� de Tirajana"},{"postal_code":"35100","place":"Costa Meloneras (Urbanizacion)","province":"Las Palmas","location":"San Bartolom� de Tirajana"},{"postal_code":"35001","place":"Las Palmas De Gran Canaria","province":"Las Palmas","location":"Las Palmas de Gran Canaria"},{"postal_code":"35004","place":"Las Palmas De Gran Canaria","province":"Las Palmas","location":"Las Palmas de Gran Canaria"},{"postal_code":"35005","place":"Las Palmas De Gran Canaria","province":"Las Palmas","location":"Las Palmas de Gran Canaria"},{"postal_code":"35006","place":"Las Palmas De Gran Canaria","province":"Las Palmas","location":"Las Palmas de Gran Canaria"},{"postal_code":"35010","place":"Las Palmas De Gran Canaria","province":"Las Palmas","location":"Las Palmas de Gran Canaria"},{"postal_code":"35009","place":"Las Palmas De Gran Canaria","province":"Las Palmas","location":"Las Palmas de Gran Canaria"},{"postal_code":"35011","place":"Las Palmas De Gran Canaria","province":"Las Palmas","location":"Las Palmas de Gran Canaria"},{"postal_code":"35015","place":"Las Palmas De Gran Canaria","province":"Las Palmas","location":"Las Palmas de Gran Canaria"},{"postal_code":"35015","place":"La Matula","province":"Las Palmas","location":"Las Palmas de Gran Canaria"},{"postal_code":"35014","place":"Las Palmas De Gran Canaria","province":"Las Palmas","location":"Las Palmas de Gran Canaria"},{"postal_code":"35017","place":"Tafira Baja","province":"Las Palmas","location":"Las Palmas de Gran Canaria"},{"postal_code":"35017","place":"El Sabinal","province":"Las Palmas","location":"Las Palmas de Gran Canaria"},{"postal_code":"35017","place":"Los Hoyos (Las Palmas De G.C.)","province":"Las Palmas","location":"Las Palmas de Gran Canaria"},{"postal_code":"35017","place":"Llanos De Maria Ribera","province":"Las Palmas","location":"Las Palmas de Gran Canaria"},{"postal_code":"35017","place":"Monta�eta, La (Las Palmas)","province":"Las Palmas","location":"Las Palmas de Gran Canaria"},{"postal_code":"35017","place":"Lomo Blanco (Las Palmas)","province":"Las Palmas","location":"Las Palmas de Gran Canaria"},{"postal_code":"35017","place":"Las Palmas De Gran Canaria","province":"Las Palmas","location":"Las Palmas de Gran Canaria"},{"postal_code":"35017","place":"Dragonal Bajo","province":"Las Palmas","location":"Las Palmas de Gran Canaria"},{"postal_code":"35018","place":"Majadillas, Las (Las Palmas De G.C.)","province":"Las Palmas","location":"Las Palmas de Gran Canaria"},{"postal_code":"35018","place":"San Lorenzo","province":"Las Palmas","location":"Las Palmas de Gran Canaria"},{"postal_code":"35018","place":"Frailes, Lomo De Los","province":"Las Palmas","location":"Las Palmas de Gran Canaria"},{"postal_code":"35018","place":"Tamaraceite","province":"Las Palmas","location":"Las Palmas de Gran Canaria"},{"postal_code":"35018","place":"El Pintor","province":"Las Palmas","location":"Las Palmas de Gran Canaria"},{"postal_code":"35018","place":"Almatriche Bajo","province":"Las Palmas","location":"Las Palmas de Gran Canaria"},{"postal_code":"35018","place":"El Sardo","province":"Las Palmas","location":"Las Palmas de Gran Canaria"},{"postal_code":"35018","place":"Las Palmas De Gran Canaria","province":"Las Palmas","location":"Las Palmas de Gran Canaria"},{"postal_code":"35018","place":"Las Perreras","province":"Las Palmas","location":"Las Palmas de Gran Canaria"},{"postal_code":"35018","place":"La Galera","province":"Las Palmas","location":"Las Palmas de Gran Canaria"},{"postal_code":"35070","place":"Las Palmas De Gran Canaria","province":"Las Palmas"},{"postal_code":"35019","place":"Las Palmas De Gran Canaria","province":"Las Palmas","location":"Las Palmas de Gran Canaria"},{"postal_code":"35071","place":"Las Palmas De Gran Canaria","province":"Las Palmas"},{"postal_code":"35100","place":"Las Meloneras","province":"Las Palmas","location":"San Bartolom� de Tirajana"},{"postal_code":"35100","place":"Sonneland (Urbanizacion)","province":"Las Palmas","location":"San Bartolom� de Tirajana"},{"postal_code":"35100","place":"Campo Internacional","province":"Las Palmas","location":"San Bartolom� de Tirajana"},{"postal_code":"35100","place":"San Agustin","province":"Las Palmas","location":"San Bartolom� de Tirajana"},{"postal_code":"35100","place":"San Fernando (Maspalomas)","province":"Las Palmas","location":"San Bartolom� de Tirajana"},{"postal_code":"35100","place":"Ca�on Del Aguila","province":"Las Palmas","location":"San Bartolom� de Tirajana"},{"postal_code":"35106","place":"Pasito Blanco","province":"Las Palmas","location":"San Bartolom� de Tirajana"},{"postal_code":"35106","place":"Pedrazo Bajo","province":"Las Palmas","location":"San Bartolom� de Tirajana"},{"postal_code":"35106","place":"Pedrazo Alto","province":"Las Palmas","location":"San Bartolom� de Tirajana"},{"postal_code":"35107","place":"Agadir","province":"Las Palmas","location":"San Bartolom� de Tirajana"},{"postal_code":"35106","place":"El Llanillo","province":"Las Palmas","location":"San Bartolom� de Tirajana"},{"postal_code":"35107","place":"Juan Grande","province":"Las Palmas","location":"San Bartolom� de Tirajana"},{"postal_code":"35106","place":"Monta�a De La Arena","province":"Las Palmas","location":"San Bartolom� de Tirajana"},{"postal_code":"35107","place":"Matorral, El (San Bartolome De Tirajana)","province":"Las Palmas","location":"San Bartolom� de Tirajana"},{"postal_code":"35107","place":"Lomo Del Moral","province":"Las Palmas","location":"San Bartolom� de Tirajana"},{"postal_code":"35106","place":"El Salobre","province":"Las Palmas","location":"San Bartolom� de Tirajana"},{"postal_code":"35106","place":"Monta�a Blanca (Maspalomas)","province":"Las Palmas","location":"San Bartolom� de Tirajana"},{"postal_code":"35109","place":"Ayagaures","province":"Las Palmas","location":"San Bartolom� de Tirajana"},{"postal_code":"35109","place":"Tablero, El (Maspalomas)","province":"Las Palmas","location":"San Bartolom� de Tirajana"},{"postal_code":"35110","place":"Barranquillo De Sardina","province":"Las Palmas","location":"Santa Luc�a de Tirajana"},{"postal_code":"35110","place":"Llanos, Los (Santa Lucia De Tirajana)","province":"Las Palmas","location":"Santa Luc�a de Tirajana"},{"postal_code":"35108","place":"Los Hortigones","province":"Las Palmas","location":"San Bartolom� de Tirajana"},{"postal_code":"35109","place":"Lomo Gordo","province":"Las Palmas","location":"San Bartolom� de Tirajana"},{"postal_code":"35110","place":"Hoya Pavon","province":"Las Palmas","location":"Santa Luc�a de Tirajana"},{"postal_code":"35108","place":"Los Caserones De Fataga","province":"Las Palmas","location":"San Bartolom� de Tirajana"},{"postal_code":"35109","place":"Monta�a La Data","province":"Las Palmas","location":"San Bartolom� de Tirajana"},{"postal_code":"35110","place":"Vecindario","province":"Las Palmas","location":"Santa Luc�a de Tirajana"},{"postal_code":"35110","place":"La Cerruda","province":"Las Palmas","location":"Santa Luc�a de Tirajana"},{"postal_code":"35107","place":"Tarajalillo (Juan Grande)","province":"Las Palmas","location":"San Bartolom� de Tirajana"},{"postal_code":"35118","place":"Cruce De Arinaga","province":"Las Palmas","location":"Ag�imes"},{"postal_code":"35107","place":"Rodeos, Los (San Bartolome De Tirajana)","province":"Las Palmas","location":"San Bartolom� de Tirajana"},{"postal_code":"35106","place":"Lomo De Pedro Afonso","province":"Las Palmas","location":"San Bartolom� de Tirajana"},{"postal_code":"35119","place":"Pozo Izquierdo","province":"Las Palmas","location":"San Bartolom� de Tirajana"},{"postal_code":"35110","place":"Balos","province":"Las Palmas","location":"Santa Luc�a de Tirajana"},{"postal_code":"35107","place":"Berriel","province":"Las Palmas","location":"San Bartolom� de Tirajana"},{"postal_code":"35106","place":"Calderin","province":"Las Palmas","location":"San Bartolom� de Tirajana"},{"postal_code":"35110","place":"La Blanca","province":"Las Palmas","location":"Santa Luc�a de Tirajana"},{"postal_code":"35118","place":"Pie De La Cuesta (Ag�imes)","province":"Las Palmas","location":"Ag�imes"},{"postal_code":"35120","place":"Cornisa Del Suroeste","province":"Las Palmas","location":"Mog�n"},{"postal_code":"35108","place":"Arteara","province":"Las Palmas","location":"San Bartolom� de Tirajana"},{"postal_code":"35110","place":"Casa Pastores","province":"Las Palmas","location":"Santa Luc�a de Tirajana"},{"postal_code":"35128","place":"Pe�ones, Los (Mogan)","province":"Las Palmas","location":"San Bartolom� de Tirajana"},{"postal_code":"35118","place":"Rosas, Las (Ag�imes)","province":"Las Palmas","location":"Ag�imes"},{"postal_code":"35109","place":"Lomo De Perera","province":"Las Palmas","location":"San Bartolom� de Tirajana"},{"postal_code":"35109","place":"Monte Leon (Urbanizacion)","province":"Las Palmas","location":"San Bartolom� de Tirajana"},{"postal_code":"35128","place":"El Caidero","province":"Las Palmas","location":"San Bartolom� de Tirajana"},{"postal_code":"35107","place":"Castillo Del Romeral","province":"Las Palmas","location":"San Bartolom� de Tirajana"},{"postal_code":"35138","place":"Playa De Tauro","province":"Las Palmas","location":"Mog�n"},{"postal_code":"35110","place":"Canario, El (Vecindario)","province":"Las Palmas","location":"Santa Luc�a de Tirajana"},{"postal_code":"35128","place":"Huesa Bermeja","province":"Las Palmas","location":"San Bartolom� de Tirajana"},{"postal_code":"35110","place":"La Vereda","province":"Las Palmas","location":"Santa Luc�a de Tirajana"},{"postal_code":"35107","place":"Las Salinas Del Matorral","province":"Las Palmas","location":"San Bartolom� de Tirajana"},{"postal_code":"35110","place":"El Doctoral","province":"Las Palmas","location":"Santa Luc�a de Tirajana"},{"postal_code":"35129","place":"Los Canarios","province":"Las Palmas","location":"Mog�n"},{"postal_code":"35130","place":"Playa De Amadores","province":"Las Palmas","location":"Mog�n"},{"postal_code":"35128","place":"Lomo Galeon","province":"Las Palmas","location":"San Bartolom� de Tirajana"},{"postal_code":"35120","place":"Arguineguin","province":"Las Palmas","location":"Mog�n"},{"postal_code":"35107","place":"Florida, La (San Bartolome De Tirajana)","province":"Las Palmas","location":"San Bartolom� de Tirajana"},{"postal_code":"35120","place":"Charca, La (Arguineguin)","province":"Las Palmas","location":"Mog�n"},{"postal_code":"35119","place":"Aldea Blanca","province":"Las Palmas","location":"San Bartolom� de Tirajana"},{"postal_code":"35118","place":"Monta�a De San Francisco","province":"Las Palmas","location":"Ag�imes"},{"postal_code":"35110","place":"San Pedro Martir","province":"Las Palmas","location":"Santa Luc�a de Tirajana"},{"postal_code":"35107","place":"El Morrete","province":"Las Palmas","location":"San Bartolom� de Tirajana"},{"postal_code":"35128","place":"El Pajar","province":"Las Palmas","location":"San Bartolom� de Tirajana"},{"postal_code":"35108","place":"Fataga","province":"Las Palmas","location":"San Bartolom� de Tirajana"},{"postal_code":"35108","place":"Cercados, Los (San Bartolome Tirajana)","province":"Las Palmas","location":"San Bartolom� de Tirajana"},{"postal_code":"35138","place":"Mogan, De (Playa)","province":"Las Palmas","location":"Mog�n"},{"postal_code":"35128","place":"Barranquillo Andres","province":"Las Palmas","location":"San Bartolom� de Tirajana"},{"postal_code":"35129","place":"Caideros, Los (Urbanizacion)","province":"Las Palmas","location":"Mog�n"},{"postal_code":"35130","place":"Chaparral, El (Puerto Rico)","province":"Las Palmas","location":"Mog�n"},{"postal_code":"35128","place":"Las Filipinas","province":"Las Palmas","location":"San Bartolom� de Tirajana"},{"postal_code":"35109","place":"Las Tederas","province":"Las Palmas","location":"San Bartolom� de Tirajana"},{"postal_code":"35109","place":"Palmitos, Los (Maspalomas)","province":"Las Palmas","location":"San Bartolom� de Tirajana"},{"postal_code":"35128","place":"Santa Agueda","province":"Las Palmas","location":"San Bartolom� de Tirajana"},{"postal_code":"35128","place":"El Horno","province":"Las Palmas","location":"San Bartolom� de Tirajana"},{"postal_code":"35109","place":"Palmitos Park","province":"Las Palmas","location":"San Bartolom� de Tirajana"},{"postal_code":"35109","place":"Media Fanega","province":"Las Palmas","location":"San Bartolom� de Tirajana"},{"postal_code":"35110","place":"Orilla Baja","province":"Las Palmas","location":"Santa Luc�a de Tirajana"},{"postal_code":"35129","place":"Barranco Balito","province":"Las Palmas","location":"Mog�n"},{"postal_code":"35109","place":"La Mimbre","province":"Las Palmas","location":"San Bartolom� de Tirajana"},{"postal_code":"35110","place":"Sardina Del Sur (Vecindario)","province":"Las Palmas","location":"Santa Luc�a de Tirajana"},{"postal_code":"35130","place":"Puerto Rico","province":"Las Palmas","location":"Mog�n"},{"postal_code":"35110","place":"La Paredilla","province":"Las Palmas","location":"Santa Luc�a de Tirajana"},{"postal_code":"35110","place":"La Union","province":"Las Palmas","location":"Santa Luc�a de Tirajana"},{"postal_code":"35110","place":"Cruce De Sardina Del Sur","province":"Las Palmas","location":"Santa Luc�a de Tirajana"},{"postal_code":"35138","place":"Taurito","province":"Las Palmas","location":"Mog�n"},{"postal_code":"35110","place":"San Rafael","province":"Las Palmas","location":"Santa Luc�a de Tirajana"},{"postal_code":"35110","place":"Camino La Madera","province":"Las Palmas","location":"Santa Luc�a de Tirajana"},{"postal_code":"35118","place":"Goleta, La (Aguimes)","province":"Las Palmas","location":"Ag�imes"},{"postal_code":"35118","place":"Arinaga","province":"Las Palmas","location":"Ag�imes"},{"postal_code":"35119","place":"Casa Santa","province":"Las Palmas","location":"San Bartolom� de Tirajana"},{"postal_code":"35118","place":"Poligono Industrial De Arinaga","province":"Las Palmas","location":"Ag�imes"},{"postal_code":"35119","place":"Barranquillo (Santa Lucia De Tirajana)","province":"Las Palmas","location":"San Bartolom� de Tirajana"},{"postal_code":"35120","place":"Cornisa, La (Urbanizacion)","province":"Las Palmas","location":"Mog�n"},{"postal_code":"35128","place":"Soria","province":"Las Palmas","location":"San Bartolom� de Tirajana"},{"postal_code":"35128","place":"Chira","province":"Las Palmas","location":"San Bartolom� de Tirajana"},{"postal_code":"35128","place":"El Vento","province":"Las Palmas","location":"San Bartolom� de Tirajana"},{"postal_code":"35128","place":"Cercados De Espino","province":"Las Palmas","location":"San Bartolom� de Tirajana"},{"postal_code":"35128","place":"Crucitas, Las (San Bartolome De Tirajana)","province":"Las Palmas","location":"San Bartolom� de Tirajana"},{"postal_code":"35129","place":"Patalavaca","province":"Las Palmas","location":"Mog�n"},{"postal_code":"35129","place":"Aquamarina","province":"Las Palmas","location":"Mog�n"},{"postal_code":"35129","place":"Balito","province":"Las Palmas","location":"Mog�n"},{"postal_code":"35130","place":"El Motor Grande","province":"Las Palmas","location":"Mog�n"},{"postal_code":"35129","place":"Barranco De La Verga","province":"Las Palmas","location":"Mog�n"},{"postal_code":"35130","place":"Cortadores De Puerto Rico","province":"Las Palmas","location":"Mog�n"},{"postal_code":"35138","place":"Platero, El (Urbanizacion)","province":"Las Palmas","location":"Mog�n"},{"postal_code":"35149","place":"Pasitos, Los (Mogan)","province":"Las Palmas","location":"Mog�n"},{"postal_code":"35149","place":"Casas Blancas (Mogan)","province":"Las Palmas","location":"Mog�n"},{"postal_code":"35149","place":"Hornillo, El (Mogan)","province":"Las Palmas","location":"Mog�n"},{"postal_code":"35149","place":"Tabaibales","province":"Las Palmas","location":"Mog�n"},{"postal_code":"35211","place":"La Colomba","province":"Las Palmas","location":"Telde"},{"postal_code":"35149","place":"La Umbridilla","province":"Las Palmas","location":"Mog�n"},{"postal_code":"35149","place":"Casas De Veneguera","province":"Las Palmas","location":"Mog�n"},{"postal_code":"35149","place":"Llanos, Los (Mogan)","province":"Las Palmas","location":"Mog�n"},{"postal_code":"35200","place":"San Francisco","province":"Las Palmas","location":"Telde"},{"postal_code":"35139","place":"Lomo Quiebre","province":"Las Palmas","location":"Mog�n"},{"postal_code":"35210","place":"Tara","province":"Las Palmas","location":"Telde"},{"postal_code":"35140","place":"Mogan (Capital Municipal)","province":"Las Palmas","location":"Mog�n"},{"postal_code":"35149","place":"La Humbridilla","province":"Las Palmas","location":"Mog�n"},{"postal_code":"35210","place":"San Jose De Las Longueras","province":"Las Palmas","location":"Telde"},{"postal_code":"35149","place":"Cercado, El (Mogan)","province":"Las Palmas","location":"Mog�n"},{"postal_code":"35140","place":"Los Navarros","province":"Las Palmas","location":"Mog�n"},{"postal_code":"35200","place":"Telde","province":"Las Palmas","location":"Telde"},{"postal_code":"35211","place":"Valle De Los Nueve","province":"Las Palmas","location":"Telde"},{"postal_code":"35212","place":"Marpeque�a","province":"Las Palmas","location":"Telde"},{"postal_code":"35149","place":"Pie De La Cuesta (Mogan)","province":"Las Palmas","location":"Mog�n"},{"postal_code":"35149","place":"Horno De Teja","province":"Las Palmas","location":"Mog�n"},{"postal_code":"35210","place":"Lomo De La Herradura","province":"Las Palmas","location":"Telde"},{"postal_code":"35211","place":"Lomo-Bristol","province":"Las Palmas","location":"Telde"},{"postal_code":"35149","place":"Los Almacigos","province":"Las Palmas","location":"Mog�n"},{"postal_code":"35213","place":"La Primavera","province":"Las Palmas","location":"Telde"},{"postal_code":"35210","place":"Monta�a De Las Palmas","province":"Las Palmas","location":"Telde"},{"postal_code":"35212","place":"Telde","province":"Las Palmas","location":"Telde"},{"postal_code":"35215","place":"El Calero","province":"Las Palmas","location":"Telde"},{"postal_code":"35211","place":"Arenales, Los (Telde)","province":"Las Palmas","location":"Telde"},{"postal_code":"35213","place":"Majadilla, La (Telde)","province":"Las Palmas","location":"Telde"},{"postal_code":"35215","place":"Jerez (Telde)","province":"Las Palmas","location":"Telde"},{"postal_code":"35214","place":"Playa De Melenara","province":"Las Palmas","location":"Telde"},{"postal_code":"35149","place":"Playa De Veneguera","province":"Las Palmas","location":"Mog�n"},{"postal_code":"35214","place":"Telde","province":"Las Palmas","location":"Telde"},{"postal_code":"35216","place":"Vegas, Las (Valsequillo)","province":"Las Palmas","location":"Valsequillo de Gran Canaria"},{"postal_code":"35149","place":"Casillas, Las (Mogan)","province":"Las Palmas","location":"Mog�n"},{"postal_code":"35212","place":"San Borondon","province":"Las Palmas","location":"Telde"},{"postal_code":"35217","place":"Casas, Las (Valsequillo)","province":"Las Palmas","location":"Valsequillo de Gran Canaria"},{"postal_code":"35215","place":"Las Medianias","province":"Las Palmas","location":"Telde"},{"postal_code":"35213","place":"San Antonio","province":"Las Palmas","location":"Telde"},{"postal_code":"35149","place":"Molino De Viento (Mogan)","province":"Las Palmas","location":"Mog�n"},{"postal_code":"35214","place":"Casas Nuevas","province":"Las Palmas","location":"Telde"},{"postal_code":"35213","place":"Las Remudas","province":"Las Palmas","location":"Telde"},{"postal_code":"35213","place":"Telde","province":"Las Palmas","location":"Telde"},{"postal_code":"35216","place":"La Era De La Mota","province":"Las Palmas","location":"Valsequillo de Gran Canaria"},{"postal_code":"35214","place":"Salinetas","province":"Las Palmas","location":"Telde"},{"postal_code":"35215","place":"Frailes, Lomo Los (Telde)","province":"Las Palmas","location":"Telde"},{"postal_code":"35214","place":"Playa Del Hombre","province":"Las Palmas","location":"Telde"},{"postal_code":"35217","place":"Roque, El (Valsequillo)","province":"Las Palmas","location":"Valsequillo de Gran Canaria"},{"postal_code":"35216","place":"El Monta�on","province":"Las Palmas","location":"Valsequillo de Gran Canaria"},{"postal_code":"35149","place":"Las Burrillas","province":"Las Palmas","location":"Mog�n"},{"postal_code":"35216","place":"Casillas, Las (Valsequillo)","province":"Las Palmas","location":"Valsequillo de Gran Canaria"},{"postal_code":"35200","place":"San Juan (Telde)","province":"Las Palmas","location":"Telde"},{"postal_code":"35217","place":"Las Chozas","province":"Las Palmas","location":"Valsequillo de Gran Canaria"},{"postal_code":"35149","place":"La Rosilla","province":"Las Palmas","location":"Mog�n"},{"postal_code":"35200","place":"San Gregorio (Telde)","province":"Las Palmas","location":"Telde"},{"postal_code":"35217","place":"Luis Verde","province":"Las Palmas","location":"Valsequillo de Gran Canaria"},{"postal_code":"35215","place":"Lomo Cementerio","province":"Las Palmas","location":"Telde"},{"postal_code":"35210","place":"Balcon De Telde","province":"Las Palmas","location":"Telde"},{"postal_code":"35215","place":"Telde","province":"Las Palmas","location":"Telde"},{"postal_code":"35215","place":"Jerez","province":"Las Palmas","location":"Telde"},{"postal_code":"35215","place":"Piletillas","province":"Las Palmas","location":"Telde"},{"postal_code":"35216","place":"Tenteniguada","province":"Las Palmas","location":"Valsequillo de Gran Canaria"},{"postal_code":"35211","place":"Telde","province":"Las Palmas","location":"Telde"},{"postal_code":"35211","place":"Cazadores","province":"Las Palmas","location":"Telde"},{"postal_code":"35216","place":"Colmenar De Arriba","province":"Las Palmas","location":"Valsequillo de Gran Canaria"},{"postal_code":"35217","place":"San Roque (Valsequillo)","province":"Las Palmas","location":"Valsequillo de Gran Canaria"},{"postal_code":"35210","place":"Telde","province":"Las Palmas","location":"Telde"},{"postal_code":"35214","place":"Melenara","province":"Las Palmas","location":"Telde"},{"postal_code":"35213","place":"La Pardilla","province":"Las Palmas","location":"Telde"},{"postal_code":"35212","place":"La Garita","province":"Las Palmas","location":"Telde"},{"postal_code":"35214","place":"Playa De Salinetas","province":"Las Palmas","location":"Telde"},{"postal_code":"35215","place":"Cuatro Puertas","province":"Las Palmas","location":"Telde"},{"postal_code":"35216","place":"El Helechal","province":"Las Palmas","location":"Valsequillo de Gran Canaria"},{"postal_code":"35217","place":"Pinos, Los (Valsequillo)","province":"Las Palmas","location":"Valsequillo de Gran Canaria"},{"postal_code":"35211","place":"Tecen (Telde)","province":"Las Palmas","location":"Telde"},{"postal_code":"35217","place":"Llanos Del Conde","province":"Las Palmas","location":"Valsequillo de Gran Canaria"},{"postal_code":"35216","place":"Colmenar De Abajo","province":"Las Palmas","location":"Valsequillo de Gran Canaria"},{"postal_code":"35215","place":"El Caracol","province":"Las Palmas","location":"Telde"},{"postal_code":"35211","place":"Lomo-Magullo","province":"Las Palmas","location":"Telde"},{"postal_code":"35217","place":"Valle De San Roque","province":"Las Palmas","location":"Valsequillo de Gran Canaria"},{"postal_code":"35216","place":"Rincon, El (Tenteniguada)","province":"Las Palmas","location":"Valsequillo de Gran Canaria"},{"postal_code":"35217","place":"Cuevas Negras","province":"Las Palmas","location":"Valsequillo de Gran Canaria"},{"postal_code":"35212","place":"La Estrella","province":"Las Palmas","location":"Telde"},{"postal_code":"35216","place":"El Troncon","province":"Las Palmas","location":"Valsequillo de Gran Canaria"},{"postal_code":"35216","place":"Casas Blancas (Valsequillo)","province":"Las Palmas","location":"Valsequillo de Gran Canaria"},{"postal_code":"35213","place":"San Isidro (Telde)","province":"Las Palmas","location":"Telde"},{"postal_code":"35217","place":"Majuelo","province":"Las Palmas","location":"Valsequillo de Gran Canaria"},{"postal_code":"35214","place":"Taliarte","province":"Las Palmas","location":"Telde"},{"postal_code":"35217","place":"Valsequillo (Capital Municipal)","province":"Las Palmas","location":"Valsequillo de Gran Canaria"},{"postal_code":"35214","place":"Playa De Las Clavellinas","province":"Las Palmas","location":"Telde"},{"postal_code":"35217","place":"Lomitos De Correa","province":"Las Palmas","location":"Valsequillo de Gran Canaria"},{"postal_code":"35215","place":"Lomo Sala","province":"Las Palmas","location":"Telde"},{"postal_code":"35215","place":"La Vi�a","province":"Las Palmas","location":"Telde"},{"postal_code":"35215","place":"Las Huesas","province":"Las Palmas","location":"Telde"},{"postal_code":"35216","place":"La Suertecilla","province":"Las Palmas","location":"Valsequillo de Gran Canaria"},{"postal_code":"35216","place":"Pedregal, El (Valsequillo) (Urbanizacion)","province":"Las Palmas","location":"Valsequillo de Gran Canaria"},{"postal_code":"35216","place":"El Almendrillo","province":"Las Palmas","location":"Valsequillo de Gran Canaria"},{"postal_code":"35217","place":"Tecen De Valsequillo","province":"Las Palmas","location":"Valsequillo de Gran Canaria"},{"postal_code":"35217","place":"Mirabala","province":"Las Palmas","location":"Valsequillo de Gran Canaria"},{"postal_code":"35217","place":"Almendros, Los (Urbanizacion)","province":"Las Palmas","location":"Valsequillo de Gran Canaria"},{"postal_code":"35218","place":"Solana, La (Telde)","province":"Las Palmas","location":"Telde"},{"postal_code":"35217","place":"Los Juagarzos","province":"Las Palmas","location":"Valsequillo de Gran Canaria"},{"postal_code":"35218","place":"Goteras, Las (Telde)","province":"Las Palmas","location":"Telde"},{"postal_code":"35218","place":"Garcia Ruiz","province":"Las Palmas","location":"Telde"},{"postal_code":"35218","place":"Palmital, El (Telde)","province":"Las Palmas","location":"Telde"},{"postal_code":"35217","place":"La Cantera","province":"Las Palmas","location":"Valsequillo de Gran Canaria"},{"postal_code":"35219","place":"Telde","province":"Las Palmas","location":"Telde"},{"postal_code":"35219","place":"El Goro","province":"Las Palmas","location":"Telde"},{"postal_code":"35250","place":"Las Mejias","province":"Las Palmas","location":"Ingenio"},{"postal_code":"35250","place":"Sequero, El (Ingenio)","province":"Las Palmas","location":"Ingenio"},{"postal_code":"35217","place":"La Barrera","province":"Las Palmas","location":"Valsequillo de Gran Canaria"},{"postal_code":"35220","place":"Valle De Jinamar","province":"Las Palmas","location":"Las Palmas de Gran Canaria"},{"postal_code":"35219","place":"Ojos De Garza","province":"Las Palmas","location":"Telde"},{"postal_code":"35220","place":"Telde","province":"Las Palmas","location":"Las Palmas de Gran Canaria"},{"postal_code":"35217","place":"Los Llanetes","province":"Las Palmas","location":"Valsequillo de Gran Canaria"},{"postal_code":"35218","place":"Cendro","province":"Las Palmas","location":"Telde"},{"postal_code":"35259","place":"Aguatona El Nuevo","province":"Las Palmas","location":"Ingenio"},{"postal_code":"35219","place":"Poligo Industrial El Goro","province":"Las Palmas","location":"Telde"},{"postal_code":"35259","place":"Roque, El (Ingenio)","province":"Las Palmas","location":"Ingenio"},{"postal_code":"35229","place":"Llanos De Cuatro Caminos","province":"Las Palmas","location":"Las Palmas de Gran Canaria"},{"postal_code":"35220","place":"Cruz De La Gallina","province":"Las Palmas","location":"Las Palmas de Gran Canaria"},{"postal_code":"35229","place":"Mercalaspalmas","province":"Las Palmas","location":"Las Palmas de Gran Canaria"},{"postal_code":"35230","place":"Base Aerea De Gando","province":"Las Palmas"},{"postal_code":"35259","place":"Las Puntillas","province":"Las Palmas","location":"Ingenio"},{"postal_code":"35269","place":"Las Rosas Viejas","province":"Las Palmas","location":"Ag�imes"},{"postal_code":"35259","place":"La Pasadilla","province":"Las Palmas","location":"Ingenio"},{"postal_code":"35280","place":"El Sitio De Arriba","province":"Las Palmas","location":"San Bartolom� de Tirajana"},{"postal_code":"35218","place":"Caserones Altos","province":"Las Palmas","location":"Telde"},{"postal_code":"35270","place":"Temisas","province":"Las Palmas","location":"Ag�imes"},{"postal_code":"35218","place":"Hoya Aguedita","province":"Las Palmas","location":"Telde"},{"postal_code":"35280","place":"Taidia","province":"Las Palmas","location":"San Bartolom� de Tirajana"},{"postal_code":"35280","place":"Ciudad De Lima","province":"Las Palmas","location":"San Bartolom� de Tirajana"},{"postal_code":"35218","place":"Telde","province":"Las Palmas","location":"Telde"},{"postal_code":"35260","place":"Cueva Bermeja","province":"Las Palmas","location":"Ag�imes"},{"postal_code":"35269","place":"El Eden","province":"Las Palmas","location":"Ag�imes"},{"postal_code":"35269","place":"Monta�a De Los Velez","province":"Las Palmas","location":"Ag�imes"},{"postal_code":"35290","place":"Tunte","province":"Las Palmas","location":"San Bartolom� de Tirajana"},{"postal_code":"35218","place":"Valle De Casares","province":"Las Palmas","location":"Telde"},{"postal_code":"35219","place":"Playa De Tufia","province":"Las Palmas","location":"Telde"},{"postal_code":"35280","place":"El Sitio De Abajo","province":"Las Palmas","location":"San Bartolom� de Tirajana"},{"postal_code":"35280","place":"El Mundillo","province":"Las Palmas","location":"San Bartolom� de Tirajana"},{"postal_code":"35280","place":"Lomito De Taidia","province":"Las Palmas","location":"San Bartolom� de Tirajana"},{"postal_code":"35220","place":"Lomo Blanco (Jinamar)","province":"Las Palmas","location":"Las Palmas de Gran Canaria"},{"postal_code":"35299","place":"El Canalizo","province":"Las Palmas","location":"San Bartolom� de Tirajana"},{"postal_code":"35280","place":"Rosiana","province":"Las Palmas","location":"San Bartolom� de Tirajana"},{"postal_code":"35218","place":"Caserones Bajos","province":"Las Palmas","location":"Telde"},{"postal_code":"35229","place":"Marzagan","province":"Las Palmas","location":"Las Palmas de Gran Canaria"},{"postal_code":"35299","place":"La Plata","province":"Las Palmas","location":"San Bartolom� de Tirajana"},{"postal_code":"35280","place":"La Sorrueda","province":"Las Palmas","location":"San Bartolom� de Tirajana"},{"postal_code":"35299","place":"Hoya De Tunte","province":"Las Palmas","location":"San Bartolom� de Tirajana"},{"postal_code":"35220","place":"La Matanza","province":"Las Palmas","location":"Las Palmas de Gran Canaria"},{"postal_code":"35269","place":"La Banda","province":"Las Palmas","location":"Ag�imes"},{"postal_code":"35259","place":"Los Moriscos","province":"Las Palmas","location":"Ingenio"},{"postal_code":"35259","place":"Las Majoreras","province":"Las Palmas","location":"Ingenio"},{"postal_code":"35219","place":"Gando","province":"Las Palmas","location":"Telde"},{"postal_code":"35299","place":"Lomo De La Palma","province":"Las Palmas","location":"San Bartolom� de Tirajana"},{"postal_code":"35269","place":"Palmillas, Las (Aguimes)","province":"Las Palmas","location":"Ag�imes"},{"postal_code":"35240","place":"Carrizal, El (Ingenio)","province":"Las Palmas","location":"Ingenio"},{"postal_code":"35250","place":"Lomo Del Hospital","province":"Las Palmas","location":"Ingenio"},{"postal_code":"35218","place":"La Higuera Canaria","province":"Las Palmas","location":"Telde"},{"postal_code":"35280","place":"Los Sitios","province":"Las Palmas","location":"San Bartolom� de Tirajana"},{"postal_code":"35280","place":"Casas Blancas (San Bartolome De Tirajana)","province":"Las Palmas","location":"San Bartolom� de Tirajana"},{"postal_code":"35299","place":"Cercados De Ara�a","province":"Las Palmas","location":"San Bartolom� de Tirajana"},{"postal_code":"35219","place":"Playa Ojos De Garza","province":"Las Palmas","location":"Telde"},{"postal_code":"35280","place":"El Parralillo","province":"Las Palmas","location":"San Bartolom� de Tirajana"},{"postal_code":"35219","place":"Poligono Salinetas","province":"Las Palmas","location":"Telde"},{"postal_code":"35290","place":"San Bartolome De Tirajana (Capital Municipal)","province":"Las Palmas","location":"San Bartolom� de Tirajana"},{"postal_code":"35280","place":"Valle, El (Santa Lucia De Tirajana)","province":"Las Palmas","location":"San Bartolom� de Tirajana"},{"postal_code":"35220","place":"Hornos Del Rey","province":"Las Palmas","location":"Las Palmas de Gran Canaria"},{"postal_code":"35220","place":"Parque Empresarial Jinamar","province":"Las Palmas","location":"Las Palmas de Gran Canaria"},{"postal_code":"35299","place":"Perera","province":"Las Palmas","location":"San Bartolom� de Tirajana"},{"postal_code":"35229","place":"Las Palmas De Gran Canaria","province":"Las Palmas","location":"Las Palmas de Gran Canaria"},{"postal_code":"35220","place":"Las Palmas De Gran Canaria","province":"Las Palmas","location":"Las Palmas de Gran Canaria"},{"postal_code":"35230","place":"Aeropuerto De Gran Canaria","province":"Las Palmas"},{"postal_code":"35229","place":"Santa Margarita (Urbanizacion)","province":"Las Palmas","location":"Las Palmas de Gran Canaria"},{"postal_code":"35250","place":"El Carrion","province":"Las Palmas","location":"Ingenio"},{"postal_code":"35240","place":"El Burrero","province":"Las Palmas","location":"Ingenio"},{"postal_code":"35250","place":"Ingenio (Capital Municipal)","province":"Las Palmas","location":"Ingenio"},{"postal_code":"35259","place":"Aguatona El Viejo","province":"Las Palmas","location":"Ingenio"},{"postal_code":"35259","place":"Marfu","province":"Las Palmas","location":"Ingenio"},{"postal_code":"35259","place":"Mondragon","province":"Las Palmas","location":"Ingenio"},{"postal_code":"35260","place":"Aguimes (Capital Municipal)","province":"Las Palmas","location":"Ag�imes"},{"postal_code":"35260","place":"Barranco De Guayadeque","province":"Las Palmas","location":"Ag�imes"},{"postal_code":"35269","place":"Oasis","province":"Las Palmas","location":"Ag�imes"},{"postal_code":"35269","place":"Llano Blanco","province":"Las Palmas","location":"Ag�imes"},{"postal_code":"35280","place":"Risco Blanco","province":"Las Palmas","location":"San Bartolom� de Tirajana"},{"postal_code":"35269","place":"Vargas","province":"Las Palmas","location":"Ag�imes"},{"postal_code":"35280","place":"Monta�a De Rosiana","province":"Las Palmas","location":"San Bartolom� de Tirajana"},{"postal_code":"35280","place":"Monta�a, La (San Bartolome De Tirajana)","province":"Las Palmas","location":"San Bartolom� de Tirajana"},{"postal_code":"35280","place":"Ingenio, El (Santa Lucia De Tirajana)","province":"Las Palmas","location":"San Bartolom� de Tirajana"},{"postal_code":"35280","place":"Santa Lucia De Tirajana (Capital Municipal)","province":"Las Palmas","location":"San Bartolom� de Tirajana"},{"postal_code":"35280","place":"Parral Grande","province":"Las Palmas","location":"San Bartolom� de Tirajana"},{"postal_code":"35280","place":"Trejo","province":"Las Palmas","location":"San Bartolom� de Tirajana"},{"postal_code":"35280","place":"El Morisco","province":"Las Palmas","location":"San Bartolom� de Tirajana"},{"postal_code":"35299","place":"Hoya Grande","province":"Las Palmas","location":"San Bartolom� de Tirajana"},{"postal_code":"35280","place":"Las Lagunas","province":"Las Palmas","location":"San Bartolom� de Tirajana"},{"postal_code":"35299","place":"Agualatente","province":"Las Palmas","location":"San Bartolom� de Tirajana"},{"postal_code":"35299","place":"Culata, La (S.B.Tirajana)","province":"Las Palmas","location":"San Bartolom� de Tirajana"},{"postal_code":"35299","place":"Hoya Garcia","province":"Las Palmas","location":"San Bartolom� de Tirajana"},{"postal_code":"35300","place":"Los Veroles","province":"Las Palmas","location":"Santa Br�gida"},{"postal_code":"35300","place":"Santa Brigida (Capital Municipal)","province":"Las Palmas","location":"Santa Br�gida"},{"postal_code":"35300","place":"San Jose De Las Vegas","province":"Las Palmas","location":"Santa Br�gida"},{"postal_code":"35300","place":"Satautejo","province":"Las Palmas","location":"Santa Br�gida"},{"postal_code":"35300","place":"El Casta�o Bajo","province":"Las Palmas","location":"Santa Br�gida"},{"postal_code":"35300","place":"El Casta�o Alto","province":"Las Palmas","location":"Santa Br�gida"},{"postal_code":"35307","place":"Bandama (Urbanizacion)","province":"Las Palmas","location":"Santa Br�gida"},{"postal_code":"35309","place":"Pino Santo Bajo","province":"Las Palmas","location":"Santa Br�gida"},{"postal_code":"35300","place":"Cruce De La Atalaya (Santa Brigida)","province":"Las Palmas","location":"Santa Br�gida"},{"postal_code":"35307","place":"Las Cordilleras","province":"Las Palmas","location":"Santa Br�gida"},{"postal_code":"35308","place":"Silos, Los (Santa Brigida)","province":"Las Palmas","location":"Santa Br�gida"},{"postal_code":"35299","place":"Sequero, El (San Bartolome Tirajana)","province":"Las Palmas","location":"San Bartolom� de Tirajana"},{"postal_code":"35308","place":"Portada Verde","province":"Las Palmas","location":"Santa Br�gida"},{"postal_code":"35309","place":"El Santisimo","province":"Las Palmas","location":"Santa Br�gida"},{"postal_code":"35308","place":"Gran Parada","province":"Las Palmas","location":"Santa Br�gida"},{"postal_code":"35308","place":"Molino, El (Santa Brigida)","province":"Las Palmas","location":"Santa Br�gida"},{"postal_code":"35300","place":"Estanco, El (Santa Brigida)","province":"Las Palmas","location":"Santa Br�gida"},{"postal_code":"35307","place":"El Raso","province":"Las Palmas","location":"Santa Br�gida"},{"postal_code":"35308","place":"Madro�al","province":"Las Palmas","location":"Santa Br�gida"},{"postal_code":"35307","place":"Arco, El (Santa Brigida)","province":"Las Palmas","location":"Santa Br�gida"},{"postal_code":"35309","place":"Los Olivos","province":"Las Palmas","location":"Santa Br�gida"},{"postal_code":"35308","place":"Gargujo","province":"Las Palmas","location":"Santa Br�gida"},{"postal_code":"35309","place":"Cuevas Del Guanche","province":"Las Palmas","location":"Santa Br�gida"},{"postal_code":"35309","place":"Las Meleguinas","province":"Las Palmas","location":"Santa Br�gida"},{"postal_code":"35310","place":"Bebedero, El (Monte Lentiscal)","province":"Las Palmas","location":"Santa Br�gida"},{"postal_code":"35319","place":"Caldera De Bandama","province":"Las Palmas"},{"postal_code":"35310","place":"El Mocanal","province":"Las Palmas","location":"Santa Br�gida"},{"postal_code":"35300","place":"Palmeral, El (Santa Brigida)","province":"Las Palmas","location":"Santa Br�gida"},{"postal_code":"35300","place":"Plaza De Do�a Luisa","province":"Las Palmas","location":"Santa Br�gida"},{"postal_code":"35300","place":"Monta�eta, La (Santa Brigida)","province":"Las Palmas","location":"Santa Br�gida"},{"postal_code":"35310","place":"Vinco, El (Santa Brigida)","province":"Las Palmas","location":"Santa Br�gida"},{"postal_code":"35320","place":"San Mateo","province":"Las Palmas","location":"Vega de San Mateo"},{"postal_code":"35310","place":"Monte Lentiscal","province":"Las Palmas","location":"Santa Br�gida"},{"postal_code":"35310","place":"Los Toscones","province":"Las Palmas","location":"Santa Br�gida"},{"postal_code":"35319","place":"Las Arenillas","province":"Las Palmas"},{"postal_code":"35300","place":"Alternativa Uno","province":"Las Palmas","location":"Santa Br�gida"},{"postal_code":"35300","place":"Montebravo","province":"Las Palmas","location":"Santa Br�gida"},{"postal_code":"35328","place":"Ari�ez","province":"Las Palmas","location":"Vega de San Mateo"},{"postal_code":"35328","place":"Risco Prieto (San Mateo)","province":"Las Palmas","location":"Vega de San Mateo"},{"postal_code":"35307","place":"Atalaya, La (Santa Brigida)","province":"Las Palmas","location":"Santa Br�gida"},{"postal_code":"35300","place":"Cuesta De La Grama","province":"Las Palmas","location":"Santa Br�gida"},{"postal_code":"35308","place":"Gamonal Bajo","province":"Las Palmas","location":"Santa Br�gida"},{"postal_code":"35307","place":"Estanco, El (Atalaya De Santa Brigida)","province":"Las Palmas","location":"Santa Br�gida"},{"postal_code":"35310","place":"Los Alvarados","province":"Las Palmas","location":"Santa Br�gida"},{"postal_code":"35307","place":"Cuesta La Gramma","province":"Las Palmas","location":"Santa Br�gida"},{"postal_code":"35307","place":"Vinculo, El (Santa Brigida)","province":"Las Palmas","location":"Santa Br�gida"},{"postal_code":"35328","place":"San Francisco (San Mateo)","province":"Las Palmas","location":"Vega de San Mateo"},{"postal_code":"35307","place":"Goteras, Las (Santa Brigida)","province":"Las Palmas","location":"Santa Br�gida"},{"postal_code":"35308","place":"Casas, Las (Santa Brigida)","province":"Las Palmas","location":"Santa Br�gida"},{"postal_code":"35328","place":"El Portillo","province":"Las Palmas","location":"Vega de San Mateo"},{"postal_code":"35308","place":"Gamonal Alto","province":"Las Palmas","location":"Santa Br�gida"},{"postal_code":"35328","place":"Solana, La (San Mateo)","province":"Las Palmas","location":"Vega de San Mateo"},{"postal_code":"35328","place":"Las Pitas","province":"Las Palmas","location":"Vega de San Mateo"},{"postal_code":"35309","place":"Pino Santo Alto","province":"Las Palmas","location":"Santa Br�gida"},{"postal_code":"35328","place":"Corraletes","province":"Las Palmas","location":"Vega de San Mateo"},{"postal_code":"35309","place":"Las Cadenas","province":"Las Palmas","location":"Santa Br�gida"},{"postal_code":"35329","place":"Cueva Grande","province":"Las Palmas","location":"Vega de San Mateo"},{"postal_code":"35309","place":"La Angostura","province":"Las Palmas","location":"Santa Br�gida"},{"postal_code":"35310","place":"Lentiscos, Los (Urbanizacion)","province":"Las Palmas","location":"Santa Br�gida"},{"postal_code":"35307","place":"Concepcion, La (Urbanizacion)","province":"Las Palmas","location":"Santa Br�gida"},{"postal_code":"35319","place":"Monta�eta, La (Monte Lentiscal)","province":"Las Palmas"},{"postal_code":"35328","place":"Las Lagunetas","province":"Las Palmas","location":"Vega de San Mateo"},{"postal_code":"35328","place":"El Vincol","province":"Las Palmas","location":"Vega de San Mateo"},{"postal_code":"35308","place":"Lugarejo, El (Santa Brigida)","province":"Las Palmas","location":"Santa Br�gida"},{"postal_code":"35308","place":"Casillas, Las (Santa Brigida)","province":"Las Palmas","location":"Santa Br�gida"},{"postal_code":"35328","place":"Cruz Del Herrero","province":"Las Palmas","location":"Vega de San Mateo"},{"postal_code":"35328","place":"Utiaca","province":"Las Palmas","location":"Vega de San Mateo"},{"postal_code":"35308","place":"Hoya Bravo","province":"Las Palmas","location":"Santa Br�gida"},{"postal_code":"35308","place":"Las Brisas","province":"Las Palmas","location":"Santa Br�gida"},{"postal_code":"35328","place":"Corte, La (San Mateo)","province":"Las Palmas","location":"Vega de San Mateo"},{"postal_code":"35328","place":"El Piquillo","province":"Las Palmas","location":"Vega de San Mateo"},{"postal_code":"35328","place":"El Gallego","province":"Las Palmas","location":"Vega de San Mateo"},{"postal_code":"35308","place":"El Paraiso","province":"Las Palmas","location":"Santa Br�gida"},{"postal_code":"35309","place":"Lomo Espino (Santa Brigida)","province":"Las Palmas","location":"Santa Br�gida"},{"postal_code":"35309","place":"La Capellania","province":"Las Palmas","location":"Santa Br�gida"},{"postal_code":"35309","place":"El Tejar","province":"Las Palmas","location":"Santa Br�gida"},{"postal_code":"35328","place":"Galas","province":"Las Palmas","location":"Vega de San Mateo"},{"postal_code":"35309","place":"El Palmarejo","province":"Las Palmas","location":"Santa Br�gida"},{"postal_code":"35309","place":"Las Haciendas","province":"Las Palmas","location":"Santa Br�gida"},{"postal_code":"35328","place":"El Lomito","province":"Las Palmas","location":"Vega de San Mateo"},{"postal_code":"35309","place":"Lomo Los Ajos","province":"Las Palmas","location":"Santa Br�gida"},{"postal_code":"35310","place":"Reventon, El (Urbanizacion)","province":"Las Palmas","location":"Santa Br�gida"},{"postal_code":"35310","place":"El Colegio","province":"Las Palmas","location":"Santa Br�gida"},{"postal_code":"35310","place":"Cuesta El Reventon","province":"Las Palmas","location":"Santa Br�gida"},{"postal_code":"35319","place":"Bandama","province":"Las Palmas"},{"postal_code":"35310","place":"Hoya Capa","province":"Las Palmas","location":"Santa Br�gida"},{"postal_code":"35320","place":"Vega De San Mateo","province":"Las Palmas","location":"Vega de San Mateo"},{"postal_code":"35319","place":"Fuente De Los Berros","province":"Las Palmas"},{"postal_code":"35320","place":"El Solis","province":"Las Palmas","location":"Vega de San Mateo"},{"postal_code":"35328","place":"La Yedra","province":"Las Palmas","location":"Vega de San Mateo"},{"postal_code":"35328","place":"Estanco, El (San Mateo)","province":"Las Palmas","location":"Vega de San Mateo"},{"postal_code":"35328","place":"Vegas, Las (San Mateo)","province":"Las Palmas","location":"Vega de San Mateo"},{"postal_code":"35328","place":"Cruz De Tejeda","province":"Las Palmas","location":"Vega de San Mateo"},{"postal_code":"35328","place":"Pajaritos","province":"Las Palmas","location":"Vega de San Mateo"},{"postal_code":"35328","place":"La Sequera","province":"Las Palmas","location":"Vega de San Mateo"},{"postal_code":"35328","place":"Hoya De Los Ajos","province":"Las Palmas","location":"Vega de San Mateo"},{"postal_code":"35328","place":"Casa Quemada","province":"Las Palmas","location":"Vega de San Mateo"},{"postal_code":"35328","place":"La Solana","province":"Las Palmas","location":"Vega de San Mateo"},{"postal_code":"35328","place":"Lomo Carbonero","province":"Las Palmas","location":"Vega de San Mateo"},{"postal_code":"35329","place":"Los Chorros","province":"Las Palmas","location":"Vega de San Mateo"},{"postal_code":"35329","place":"Cuevas, Las (San Mateo)","province":"Las Palmas","location":"Vega de San Mateo"},{"postal_code":"35329","place":"La Higuera","province":"Las Palmas","location":"Vega de San Mateo"},{"postal_code":"35329","place":"Camaretas","province":"Las Palmas","location":"Vega de San Mateo"},{"postal_code":"35329","place":"Lechucilla","province":"Las Palmas","location":"Vega de San Mateo"},{"postal_code":"35329","place":"Calero, El (San Mateo)","province":"Las Palmas","location":"Vega de San Mateo"},{"postal_code":"35329","place":"Cruz Del Saucillo","province":"Las Palmas","location":"Vega de San Mateo"},{"postal_code":"35329","place":"Casa De La Cal","province":"Las Palmas","location":"Vega de San Mateo"},{"postal_code":"35329","place":"El Arenal","province":"Las Palmas","location":"Vega de San Mateo"},{"postal_code":"35329","place":"La Bodeguilla","province":"Las Palmas","location":"Vega de San Mateo"},{"postal_code":"35329","place":"Lomo Caballo","province":"Las Palmas","location":"Vega de San Mateo"},{"postal_code":"35330","place":"Hoyo, El (Teror)","province":"Las Palmas","location":"Teror"},{"postal_code":"35329","place":"La Lechuza","province":"Las Palmas","location":"Vega de San Mateo"},{"postal_code":"35329","place":"Hornillo, El (San Mateo)","province":"Las Palmas","location":"Vega de San Mateo"},{"postal_code":"35330","place":"Mujica","province":"Las Palmas","location":"Teror"},{"postal_code":"35329","place":"La Veguetilla","province":"Las Palmas","location":"Vega de San Mateo"},{"postal_code":"35330","place":"Hornillo, El (Teror)","province":"Las Palmas","location":"Teror"},{"postal_code":"35330","place":"Mu�igal","province":"Las Palmas","location":"Teror"},{"postal_code":"35330","place":"Llanos De Arevalo","province":"Las Palmas","location":"Teror"},{"postal_code":"35338","place":"Lomo Del Gallego","province":"Las Palmas","location":"Teror"},{"postal_code":"35340","place":"Lanzarote (Valleseco)","province":"Las Palmas","location":"Valleseco"},{"postal_code":"35339","place":"Barranco Del Pino (Barranco)","province":"Las Palmas","location":"Teror"},{"postal_code":"35329","place":"Hoya Viciosa","province":"Las Palmas","location":"Vega de San Mateo"},{"postal_code":"35339","place":"Guanchia","province":"Las Palmas","location":"Teror"},{"postal_code":"35333","place":"Arbejales","province":"Las Palmas","location":"Teror"},{"postal_code":"35329","place":"Lomo Aljorradero","province":"Las Palmas","location":"Vega de San Mateo"},{"postal_code":"35339","place":"Huertas Del Palmar","province":"Las Palmas","location":"Teror"},{"postal_code":"35329","place":"Acequia Marrero","province":"Las Palmas","location":"Vega de San Mateo"},{"postal_code":"35338","place":"Espartero","province":"Las Palmas","location":"Teror"},{"postal_code":"35329","place":"Hoya Del Gamonal","province":"Las Palmas","location":"Vega de San Mateo"},{"postal_code":"35339","place":"Cuesta Falcon","province":"Las Palmas","location":"Teror"},{"postal_code":"35338","place":"San Isidro (Teror)","province":"Las Palmas","location":"Teror"},{"postal_code":"35338","place":"Barranco Zapatero","province":"Las Palmas","location":"Teror"},{"postal_code":"35349","place":"Barranco","province":"Las Palmas","location":"Valleseco"},{"postal_code":"35329","place":"Longueras, Las (San Mateo)","province":"Las Palmas","location":"Vega de San Mateo"},{"postal_code":"35330","place":"Barrio Del Pino (Teror)","province":"Las Palmas","location":"Teror"},{"postal_code":"35350","place":"Candelaria","province":"Las Palmas","location":"Artenara"},{"postal_code":"35329","place":"Hoya Navarra","province":"Las Palmas","location":"Vega de San Mateo"},{"postal_code":"35339","place":"Los Llanos","province":"Las Palmas","location":"Teror"},{"postal_code":"35329","place":"Cuatro Caminos","province":"Las Palmas","location":"Vega de San Mateo"},{"postal_code":"35330","place":"Buenavista (Teror)","province":"Las Palmas","location":"Teror"},{"postal_code":"35368","place":"Solana, La (Tejeda)","province":"Las Palmas","location":"Tejeda"},{"postal_code":"35330","place":"Lomo Cobo","province":"Las Palmas","location":"Teror"},{"postal_code":"35368","place":"Carrizal De Tejeda","province":"Las Palmas","location":"Tejeda"},{"postal_code":"35349","place":"Laguna, La (Valleseco)","province":"Las Palmas","location":"Valleseco"},{"postal_code":"35338","place":"El Faro","province":"Las Palmas","location":"Teror"},{"postal_code":"35338","place":"Miraflor","province":"Las Palmas","location":"Teror"},{"postal_code":"35339","place":"El Escobonal","province":"Las Palmas","location":"Teror"},{"postal_code":"35329","place":"Chorrillo, El (San Mateo)","province":"Las Palmas","location":"Vega de San Mateo"},{"postal_code":"35369","place":"El Majuelo","province":"Las Palmas","location":"Antigua"},{"postal_code":"35339","place":"Quebradero","province":"Las Palmas","location":"Teror"},{"postal_code":"35339","place":"El Palmar","province":"Las Palmas","location":"Teror"},{"postal_code":"35329","place":"Lomo Los Ingleses","province":"Las Palmas","location":"Vega de San Mateo"},{"postal_code":"35349","place":"Zamora","province":"Las Palmas","location":"Valleseco"},{"postal_code":"35339","place":"San Matias","province":"Las Palmas","location":"Teror"},{"postal_code":"35339","place":"Las Paredes","province":"Las Palmas","location":"Teror"},{"postal_code":"35349","place":"Zumacal (Valleseco)","province":"Las Palmas","location":"Valleseco"},{"postal_code":"35350","place":"Artenara","province":"Las Palmas","location":"Artenara"},{"postal_code":"35329","place":"Meson, El (San Mateo)","province":"Las Palmas","location":"Vega de San Mateo"},{"postal_code":"35360","place":"Tejeda (Capital Municipal)","province":"Las Palmas","location":"Tejeda"},{"postal_code":"35340","place":"Valleseco (Capital Municipal)","province":"Las Palmas","location":"Valleseco"},{"postal_code":"35329","place":"Asomada, La (San Mateo)","province":"Las Palmas","location":"Vega de San Mateo"},{"postal_code":"35368","place":"El Juncal","province":"Las Palmas","location":"Tejeda"},{"postal_code":"35368","place":"Roque, El (Tejeda)","province":"Las Palmas","location":"Tejeda"},{"postal_code":"35369","place":"La Umbria","province":"Las Palmas","location":"Antigua"},{"postal_code":"35349","place":"Barranquillo (Valleseco)","province":"Las Palmas","location":"Valleseco"},{"postal_code":"35330","place":"Lomo, El (Teror)","province":"Las Palmas","location":"Teror"},{"postal_code":"35330","place":"Teror (Capital Municipal)","province":"Las Palmas","location":"Teror"},{"postal_code":"35349","place":"Valsendero","province":"Las Palmas","location":"Valleseco"},{"postal_code":"35330","place":"El Secuestro","province":"Las Palmas","location":"Teror"},{"postal_code":"35330","place":"Rincon, El (Teror)","province":"Las Palmas","location":"Teror"},{"postal_code":"35330","place":"El Chorrito","province":"Las Palmas","location":"Teror"},{"postal_code":"35338","place":"Toscas, Las (Teror)","province":"Las Palmas","location":"Teror"},{"postal_code":"35350","place":"Cuevas, Las (Artenara)","province":"Las Palmas","location":"Artenara"},{"postal_code":"35338","place":"Corrales Los (Teror)","province":"Las Palmas","location":"Teror"},{"postal_code":"35338","place":"Ojero","province":"Las Palmas","location":"Teror"},{"postal_code":"35368","place":"Higuerilla","province":"Las Palmas","location":"Tejeda"},{"postal_code":"35338","place":"Lomo Pilon","province":"Las Palmas","location":"Teror"},{"postal_code":"35338","place":"Lo Blanco","province":"Las Palmas","location":"Teror"},{"postal_code":"35368","place":"Culata, La (Tejeda)","province":"Las Palmas","location":"Tejeda"},{"postal_code":"35339","place":"El Pedregal","province":"Las Palmas","location":"Teror"},{"postal_code":"35339","place":"El Alamo","province":"Las Palmas","location":"Teror"},{"postal_code":"35369","place":"Timagada","province":"Las Palmas","location":"Antigua"},{"postal_code":"35339","place":"Las Pe�as","province":"Las Palmas","location":"Teror"},{"postal_code":"35339","place":"Siete Puertas (Teror)","province":"Las Palmas","location":"Teror"},{"postal_code":"35339","place":"Pe�a, La (Teror)","province":"Las Palmas","location":"Teror"},{"postal_code":"35339","place":"Las Rosadas","province":"Las Palmas","location":"Teror"},{"postal_code":"35349","place":"Monagas","province":"Las Palmas","location":"Valleseco"},{"postal_code":"35340","place":"Madrelagua","province":"Las Palmas","location":"Valleseco"},{"postal_code":"35349","place":"Las Troyanas","province":"Las Palmas","location":"Valleseco"},{"postal_code":"35350","place":"Lugarejos","province":"Las Palmas","location":"Artenara"},{"postal_code":"35349","place":"Carpinteras","province":"Las Palmas","location":"Valleseco"},{"postal_code":"35349","place":"Caseron","province":"Las Palmas","location":"Valleseco"},{"postal_code":"35350","place":"Coru�a","province":"Las Palmas","location":"Artenara"},{"postal_code":"35368","place":"Casa Forestal Pajonales","province":"Las Palmas","location":"Tejeda"},{"postal_code":"35368","place":"El Espinillo","province":"Las Palmas","location":"Tejeda"},{"postal_code":"35368","place":"Chorrillo, El (Tejeda)","province":"Las Palmas","location":"Tejeda"},{"postal_code":"35368","place":"Toscon, El (Tejeda)","province":"Las Palmas","location":"Tejeda"},{"postal_code":"35350","place":"Acusa Verde","province":"Las Palmas","location":"Artenara"},{"postal_code":"35369","place":"Casas Del Lomo","province":"Las Palmas","location":"Antigua"},{"postal_code":"35368","place":"Pagos De Casas Juan Gomez","province":"Las Palmas","location":"Tejeda"},{"postal_code":"35369","place":"La Candelilla","province":"Las Palmas","location":"Antigua"},{"postal_code":"35369","place":"Lomo De Los Santos","province":"Las Palmas","location":"Antigua"},{"postal_code":"35400","place":"Arucas (Capital Municipal)","province":"Las Palmas","location":"Arucas"},{"postal_code":"35400","place":"Lomo De San Pedro (Arucas)","province":"Las Palmas","location":"Arucas"},{"postal_code":"35369","place":"Ayacata","province":"Las Palmas","location":"Antigua"},{"postal_code":"35400","place":"El Matadero","province":"Las Palmas","location":"Arucas"},{"postal_code":"35400","place":"Monta�eta, La (Arucas)","province":"Las Palmas","location":"Arucas"},{"postal_code":"35369","place":"Risco La Candelilla","province":"Las Palmas","location":"Antigua"},{"postal_code":"35400","place":"El Hornillo Alto","province":"Las Palmas","location":"Arucas"},{"postal_code":"35369","place":"Crucitas, Las (Tejeda)","province":"Las Palmas","location":"Antigua"},{"postal_code":"35411","place":"San Francisco Javier","province":"Las Palmas","location":"Arucas"},{"postal_code":"35411","place":"Barreto","province":"Las Palmas","location":"Arucas"},{"postal_code":"35411","place":"Barriada De Juan Xxiii","province":"Las Palmas","location":"Arucas"},{"postal_code":"35412","place":"Pe�ones, Los (Arucas)","province":"Las Palmas","location":"Arucas"},{"postal_code":"35411","place":"Las Palmeras","province":"Las Palmas","location":"Arucas"},{"postal_code":"35412","place":"Los Altabacales","province":"Las Palmas","location":"Arucas"},{"postal_code":"35369","place":"Rincon, El (Tejeda)","province":"Las Palmas","location":"Antigua"},{"postal_code":"35411","place":"Hoya De Ari�ez","province":"Las Palmas","location":"Arucas"},{"postal_code":"35411","place":"San Francisco Javier (Urbanizacion)","province":"Las Palmas","location":"Arucas"},{"postal_code":"35412","place":"Los Portales","province":"Las Palmas","location":"Arucas"},{"postal_code":"35412","place":"Fuente Del Laurel","province":"Las Palmas","location":"Arucas"},{"postal_code":"35412","place":"Visvique","province":"Las Palmas","location":"Arucas"},{"postal_code":"35369","place":"Cuevas Caidas","province":"Las Palmas","location":"Antigua"},{"postal_code":"35369","place":"Degollada, La (Tejeda)","province":"Las Palmas","location":"Antigua"},{"postal_code":"35412","place":"Solana, La (Arucas)","province":"Las Palmas","location":"Arucas"},{"postal_code":"35413","place":"Trapiche (Arucas)","province":"Las Palmas","location":"Arucas"},{"postal_code":"35369","place":"Casas De Huertas","province":"Las Palmas","location":"Antigua"},{"postal_code":"35413","place":"La Palmita","province":"Las Palmas","location":"Arucas"},{"postal_code":"35413","place":"Hoyas, Las (Arucas)","province":"Las Palmas","location":"Arucas"},{"postal_code":"35413","place":"Los Castillejos","province":"Las Palmas","location":"Arucas"},{"postal_code":"35413","place":"Camino De La Cruz Bajo","province":"Las Palmas","location":"Arucas"},{"postal_code":"35400","place":"Monta�a De Arucas","province":"Las Palmas","location":"Arucas"},{"postal_code":"35413","place":"Costa","province":"Las Palmas","location":"Arucas"},{"postal_code":"35413","place":"Lomito, El (Arucas)","province":"Las Palmas","location":"Arucas"},{"postal_code":"35400","place":"Camino De La Cruz Alto","province":"Las Palmas","location":"Arucas"},{"postal_code":"35413","place":"Hinojal","province":"Las Palmas","location":"Arucas"},{"postal_code":"35413","place":"Lomo Ramirez","province":"Las Palmas","location":"Arucas"},{"postal_code":"35414","place":"San Felipe","province":"Las Palmas","location":"Arucas"},{"postal_code":"35415","place":"Dehesa, La (Arucas)","province":"Las Palmas","location":"Arucas"},{"postal_code":"35414","place":"Quintanilla","province":"Las Palmas","location":"Arucas"},{"postal_code":"35414","place":"Risco, El (Arucas)","province":"Las Palmas","location":"Arucas"},{"postal_code":"35400","place":"Terrero, El (Arucas)","province":"Las Palmas","location":"Arucas"},{"postal_code":"35414","place":"La Cuestilla","province":"Las Palmas","location":"Arucas"},{"postal_code":"35414","place":"El Tarahal","province":"Las Palmas","location":"Arucas"},{"postal_code":"35400","place":"La Fula","province":"Las Palmas","location":"Arucas"},{"postal_code":"35400","place":"Goleta, La (Arucas)","province":"Las Palmas","location":"Arucas"},{"postal_code":"35421","place":"Lomo Del Pe�on","province":"Las Palmas","location":"Moya"},{"postal_code":"35400","place":"El Angostillo","province":"Las Palmas","location":"Arucas"},{"postal_code":"35421","place":"Fontanales","province":"Las Palmas","location":"Moya"},{"postal_code":"35420","place":"Moya","province":"Las Palmas","location":"G�ldar"},{"postal_code":"35415","place":"Monta�a, La (Cardones)","province":"Las Palmas","location":"Arucas"},{"postal_code":"35421","place":"Barranco Del Pinar (Moya)","province":"Las Palmas","location":"Moya"},{"postal_code":"35411","place":"Lomo, El (Santidad)","province":"Las Palmas","location":"Arucas"},{"postal_code":"35400","place":"Hoya De San Juan","province":"Las Palmas","location":"Arucas"},{"postal_code":"35400","place":"El Cerrillo","province":"Las Palmas","location":"Arucas"},{"postal_code":"35411","place":"Lomo De Arucas","province":"Las Palmas","location":"Arucas"},{"postal_code":"35411","place":"San Gregorio (Arucas)","province":"Las Palmas","location":"Arucas"},{"postal_code":"35411","place":"Santidad Alta","province":"Las Palmas","location":"Arucas"},{"postal_code":"35411","place":"Lomo Grande","province":"Las Palmas","location":"Arucas"},{"postal_code":"35411","place":"La Guitarrilla","province":"Las Palmas","location":"Arucas"},{"postal_code":"35411","place":"Santidad Baja","province":"Las Palmas","location":"Arucas"},{"postal_code":"35412","place":"Mirador De Los Portales","province":"Las Palmas","location":"Arucas"},{"postal_code":"35412","place":"Los Castillos","province":"Las Palmas","location":"Arucas"},{"postal_code":"35411","place":"El Puente De Arucas","province":"Las Palmas","location":"Arucas"},{"postal_code":"35412","place":"Santa Flora","province":"Las Palmas","location":"Arucas"},{"postal_code":"35412","place":"La Pedrera","province":"Las Palmas","location":"Arucas"},{"postal_code":"35412","place":"El Picacho","province":"Las Palmas","location":"Arucas"},{"postal_code":"35412","place":"Arco, El (Arucas)","province":"Las Palmas","location":"Arucas"},{"postal_code":"35412","place":"Camino Del Arco","province":"Las Palmas","location":"Arucas"},{"postal_code":"35412","place":"Barrio Virgen Del Pino","province":"Las Palmas","location":"Arucas"},{"postal_code":"35413","place":"La Hondura","province":"Las Palmas","location":"Arucas"},{"postal_code":"35413","place":"Trasmonta�a","province":"Las Palmas","location":"Arucas"},{"postal_code":"35413","place":"Tinocas (Arucas)","province":"Las Palmas","location":"Arucas"},{"postal_code":"35413","place":"Lomo De Quintanilla (Arucas)","province":"Las Palmas","location":"Arucas"},{"postal_code":"35413","place":"Tanasio","province":"Las Palmas","location":"Arucas"},{"postal_code":"35413","place":"El Carril","province":"Las Palmas","location":"Arucas"},{"postal_code":"35413","place":"Llano Blanco (Arucas)","province":"Las Palmas","location":"Arucas"},{"postal_code":"35413","place":"Los Palmitos","province":"Las Palmas","location":"Arucas"},{"postal_code":"35413","place":"Las Chorreras","province":"Las Palmas","location":"Arucas"},{"postal_code":"35413","place":"El Hornillo Bajo","province":"Las Palmas","location":"Arucas"},{"postal_code":"35413","place":"Cardonal (Arucas)","province":"Las Palmas","location":"Arucas"},{"postal_code":"35413","place":"Las Hoyas Del Cardonal","province":"Las Palmas","location":"Arucas"},{"postal_code":"35413","place":"Tres Barrios","province":"Las Palmas","location":"Arucas"},{"postal_code":"35413","place":"Cruz De Pineda","province":"Las Palmas","location":"Arucas"},{"postal_code":"35413","place":"El Guincho","province":"Las Palmas","location":"Arucas"},{"postal_code":"35414","place":"El Pe�on","province":"Las Palmas","location":"Arucas"},{"postal_code":"35414","place":"San Andres","province":"Las Palmas","location":"Arucas"},{"postal_code":"35414","place":"Roque, El (Arucas)","province":"Las Palmas","location":"Arucas"},{"postal_code":"35414","place":"Ba�aderos","province":"Las Palmas","location":"Arucas"},{"postal_code":"35414","place":"Altillo","province":"Las Palmas","location":"Arucas"},{"postal_code":"35414","place":"Escaleritas (Arucas)","province":"Las Palmas","location":"Arucas"},{"postal_code":"35415","place":"Lomo Espino (Arucas)","province":"Las Palmas","location":"Arucas"},{"postal_code":"35414","place":"Pagador","province":"Las Palmas","location":"Arucas"},{"postal_code":"35414","place":"El Puertillo","province":"Las Palmas","location":"Arucas"},{"postal_code":"35415","place":"El Perdigon","province":"Las Palmas","location":"Arucas"},{"postal_code":"35415","place":"Monta�a Cardones","province":"Las Palmas","location":"Arucas"},{"postal_code":"35415","place":"Cardones","province":"Las Palmas","location":"Arucas"},{"postal_code":"35421","place":"Hoyas Del Cavadero","province":"Las Palmas","location":"Moya"},{"postal_code":"35421","place":"San Fernando (Moya)","province":"Las Palmas","location":"Moya"},{"postal_code":"35421","place":"Corvo","province":"Las Palmas","location":"Moya"},{"postal_code":"35422","place":"Fronton, El (Moya)","province":"Las Palmas","location":"Moya"},{"postal_code":"35421","place":"San Bartolome De Fontanales","province":"Las Palmas","location":"Moya"},{"postal_code":"35421","place":"Tablero, El (Moya)","province":"Las Palmas","location":"Moya"},{"postal_code":"35422","place":"La Cordillera","province":"Las Palmas","location":"Moya"},{"postal_code":"35422","place":"El Moreto","province":"Las Palmas","location":"Moya"},{"postal_code":"35421","place":"Los Tiles","province":"Las Palmas","location":"Moya"},{"postal_code":"35423","place":"Lomo Blanco (Moya)","province":"Las Palmas","location":"Moya"},{"postal_code":"35421","place":"Barranco Del Laurel","province":"Las Palmas","location":"Moya"},{"postal_code":"35422","place":"Trujillo (Moya)","province":"Las Palmas","location":"Moya"},{"postal_code":"35431","place":"Buenlugar","province":"Las Palmas","location":"Firgas"},{"postal_code":"35421","place":"Juarada, La (Moya)","province":"Las Palmas","location":"Moya"},{"postal_code":"35431","place":"San Anton","province":"Las Palmas","location":"Firgas"},{"postal_code":"35423","place":"Carreteria","province":"Las Palmas","location":"Moya"},{"postal_code":"35431","place":"Las Pellas","province":"Las Palmas","location":"Firgas"},{"postal_code":"35431","place":"Palmilla, La (Firgas)","province":"Las Palmas","location":"Firgas"},{"postal_code":"35432","place":"El Cortijo","province":"Las Palmas","location":"Firgas"},{"postal_code":"35422","place":"El Brecito","province":"Las Palmas","location":"Moya"},{"postal_code":"35432","place":"Caldera, La (Firgas)","province":"Las Palmas","location":"Firgas"},{"postal_code":"35457","place":"Marente","province":"Las Palmas","location":"Santa Mar�a de Gu�a de Gran Canaria"},{"postal_code":"35450","place":"La Atalaya De Guia","province":"Las Palmas","location":"Santa Mar�a de Gu�a de Gran Canaria"},{"postal_code":"35422","place":"Las Carreras","province":"Las Palmas","location":"Moya"},{"postal_code":"35422","place":"Los Toscales","province":"Las Palmas","location":"Moya"},{"postal_code":"35423","place":"Dragos, Los (Moya)","province":"Las Palmas","location":"Moya"},{"postal_code":"35450","place":"Calvario, El (Santa Maria De Guia)","province":"Las Palmas","location":"Santa Mar�a de Gu�a de Gran Canaria"},{"postal_code":"35432","place":"Risco, El (Firgas)","province":"Las Palmas","location":"Firgas"},{"postal_code":"35450","place":"Guia","province":"Las Palmas","location":"Santa Mar�a de Gu�a de Gran Canaria"},{"postal_code":"35423","place":"Doramas (Moya)","province":"Las Palmas","location":"Moya"},{"postal_code":"35450","place":"Cercados De Merino","province":"Las Palmas","location":"Santa Mar�a de Gu�a de Gran Canaria"},{"postal_code":"35457","place":"Hoya Del Predegal (Santa Maria De Guia)","province":"Las Palmas","location":"Santa Mar�a de Gu�a de Gran Canaria"},{"postal_code":"35430","place":"Firgas (Capital Municipal)","province":"Las Palmas","location":"Firgas"},{"postal_code":"35431","place":"Itara","province":"Las Palmas","location":"Firgas"},{"postal_code":"35422","place":"Palmito, El (Moya)","province":"Las Palmas","location":"Moya"},{"postal_code":"35457","place":"Verdejo","province":"Las Palmas","location":"Santa Mar�a de Gu�a de Gran Canaria"},{"postal_code":"35458","place":"La Dehesa","province":"Las Palmas","location":"Santa Mar�a de Gu�a de Gran Canaria"},{"postal_code":"35422","place":"Cabo Verde","province":"Las Palmas","location":"Moya"},{"postal_code":"35432","place":"Cambalud","province":"Las Palmas","location":"Firgas"},{"postal_code":"35423","place":"El Lance","province":"Las Palmas","location":"Moya"},{"postal_code":"35458","place":"Suerte, La (S.M. Guia)","province":"Las Palmas","location":"Santa Mar�a de Gu�a de Gran Canaria"},{"postal_code":"35431","place":"Casablanca","province":"Las Palmas","location":"Firgas"},{"postal_code":"35458","place":"Palmital, El (Carretera)","province":"Las Palmas","location":"Santa Mar�a de Gu�a de Gran Canaria"},{"postal_code":"35431","place":"Zumacal, El (Firgas)","province":"Las Palmas","location":"Firgas"},{"postal_code":"35432","place":"Los Dolores","province":"Las Palmas","location":"Firgas"},{"postal_code":"35432","place":"Trapiche (Firgas)","province":"Las Palmas","location":"Firgas"},{"postal_code":"35457","place":"Bascamao","province":"Las Palmas","location":"Santa Mar�a de Gu�a de Gran Canaria"},{"postal_code":"35468","place":"Piso Firme","province":"Las Palmas","location":"G�ldar"},{"postal_code":"35459","place":"Anzo","province":"Las Palmas"},{"postal_code":"35457","place":"Cuesta De Caraballo","province":"Las Palmas","location":"Santa Mar�a de Gu�a de Gran Canaria"},{"postal_code":"35457","place":"Lomo Betancor","province":"Las Palmas","location":"Santa Mar�a de Gu�a de Gran Canaria"},{"postal_code":"35432","place":"Los Menores","province":"Las Palmas","location":"Firgas"},{"postal_code":"35423","place":"El Palo","province":"Las Palmas","location":"Moya"},{"postal_code":"35450","place":"Santa Maria De Guia (Capital Municipal)","province":"Las Palmas","location":"Santa Mar�a de Gu�a de Gran Canaria"},{"postal_code":"35468","place":"Troya","province":"Las Palmas","location":"G�ldar"},{"postal_code":"35432","place":"Cruz, La (Firgas)","province":"Las Palmas","location":"Firgas"},{"postal_code":"35468","place":"Rosas, Las (Galdar)","province":"Las Palmas","location":"G�ldar"},{"postal_code":"35457","place":"Tres Cruces (Santa Ma De Guia)","province":"Las Palmas","location":"Santa Mar�a de Gu�a de Gran Canaria"},{"postal_code":"35432","place":"Padilla","province":"Las Palmas","location":"Firgas"},{"postal_code":"35458","place":"Albercon De La Virgen","province":"Las Palmas","location":"Santa Mar�a de Gu�a de Gran Canaria"},{"postal_code":"35457","place":"Monta�a Alta (Santa Maria De Guia)","province":"Las Palmas","location":"Santa Mar�a de Gu�a de Gran Canaria"},{"postal_code":"35431","place":"Lomito, El (Firgas)","province":"Las Palmas","location":"Firgas"},{"postal_code":"35457","place":"Ingenio Blanco","province":"Las Palmas","location":"Santa Mar�a de Gu�a de Gran Canaria"},{"postal_code":"35458","place":"Barranco Hondo (Santa Maria De Guia)","province":"Las Palmas","location":"Santa Mar�a de Gu�a de Gran Canaria"},{"postal_code":"35458","place":"El Calabozo","province":"Las Palmas","location":"Santa Mar�a de Gu�a de Gran Canaria"},{"postal_code":"35458","place":"Lomo De Las Azucenas","province":"Las Palmas","location":"Santa Mar�a de Gu�a de Gran Canaria"},{"postal_code":"35432","place":"Los Rosales","province":"Las Palmas","location":"Firgas"},{"postal_code":"35458","place":"Desaguaderos","province":"Las Palmas","location":"Santa Mar�a de Gu�a de Gran Canaria"},{"postal_code":"35458","place":"Lomo Los Martines","province":"Las Palmas","location":"Santa Mar�a de Gu�a de Gran Canaria"},{"postal_code":"35431","place":"Barranco De Las Madres","province":"Las Palmas","location":"Firgas"},{"postal_code":"35459","place":"Llanos De Parra","province":"Las Palmas"},{"postal_code":"35468","place":"Valeron","province":"Las Palmas","location":"G�ldar"},{"postal_code":"35468","place":"Saucillo","province":"Las Palmas","location":"G�ldar"},{"postal_code":"35432","place":"Lomo Quintanilla (Firgas)","province":"Las Palmas","location":"Firgas"},{"postal_code":"35459","place":"Ca�ada, La (Santa Maria De Guia)","province":"Las Palmas"},{"postal_code":"35457","place":"Junquillo","province":"Las Palmas","location":"Santa Mar�a de Gu�a de Gran Canaria"},{"postal_code":"35450","place":"Marente (Urbanizacion)","province":"Las Palmas","location":"Santa Mar�a de Gu�a de Gran Canaria"},{"postal_code":"35432","place":"Los Barranquillos","province":"Las Palmas","location":"Firgas"},{"postal_code":"35468","place":"Silos, Los (Galdar)","province":"Las Palmas","location":"G�ldar"},{"postal_code":"35460","place":"Galdar (Capital Municipal)","province":"Las Palmas","location":"G�ldar"},{"postal_code":"35468","place":"Tegueste (Galdar)","province":"Las Palmas","location":"G�ldar"},{"postal_code":"35450","place":"Becerril De Guia","province":"Las Palmas","location":"Santa Mar�a de Gu�a de Gran Canaria"},{"postal_code":"35457","place":"Caserio De Marente","province":"Las Palmas","location":"Santa Mar�a de Gu�a de Gran Canaria"},{"postal_code":"35457","place":"Barranquillo Frio","province":"Las Palmas","location":"Santa Mar�a de Gu�a de Gran Canaria"},{"postal_code":"35468","place":"Trujillo (Galdar)","province":"Las Palmas","location":"G�ldar"},{"postal_code":"35457","place":"Santa Cristina","province":"Las Palmas","location":"Santa Mar�a de Gu�a de Gran Canaria"},{"postal_code":"35458","place":"Vergara","province":"Las Palmas","location":"Santa Mar�a de Gu�a de Gran Canaria"},{"postal_code":"35457","place":"Barranco Del Pinar (Santa Maria De Guia)","province":"Las Palmas","location":"Santa Mar�a de Gu�a de Gran Canaria"},{"postal_code":"35458","place":"Farailaga","province":"Las Palmas","location":"Santa Mar�a de Gu�a de Gran Canaria"},{"postal_code":"35457","place":"Paso Maria De Los Santos","province":"Las Palmas","location":"Santa Mar�a de Gu�a de Gran Canaria"},{"postal_code":"35458","place":"Tres Palmas (Santa Maria De Guia)","province":"Las Palmas","location":"Santa Mar�a de Gu�a de Gran Canaria"},{"postal_code":"35458","place":"San Blas","province":"Las Palmas","location":"Santa Mar�a de Gu�a de Gran Canaria"},{"postal_code":"35458","place":"San Juan (S.M.Guia)","province":"Las Palmas","location":"Santa Mar�a de Gu�a de Gran Canaria"},{"postal_code":"35459","place":"Las Boticarias","province":"Las Palmas"},{"postal_code":"35458","place":"Do�ana","province":"Las Palmas","location":"Santa Mar�a de Gu�a de Gran Canaria"},{"postal_code":"35458","place":"Mondragones","province":"Las Palmas","location":"Santa Mar�a de Gu�a de Gran Canaria"},{"postal_code":"35468","place":"La Agazal","province":"Las Palmas","location":"G�ldar"},{"postal_code":"35458","place":"Casas De Aguilar","province":"Las Palmas","location":"Santa Mar�a de Gu�a de Gran Canaria"},{"postal_code":"35459","place":"Monta�a De Guia","province":"Las Palmas"},{"postal_code":"35468","place":"Llanos, Los (Agaete)","province":"Las Palmas","location":"G�ldar"},{"postal_code":"35468","place":"Hoya De Pineda (Santa Maria De Guia)","province":"Las Palmas","location":"G�ldar"},{"postal_code":"35468","place":"Las Calderas","province":"Las Palmas","location":"G�ldar"},{"postal_code":"35468","place":"Monta�eta, La (Galdar)","province":"Las Palmas","location":"G�ldar"},{"postal_code":"35468","place":"Lomo Del Palo","province":"Las Palmas","location":"G�ldar"},{"postal_code":"35468","place":"Juncalillo (Galdar)","province":"Las Palmas","location":"G�ldar"},{"postal_code":"35468","place":"Hornillo, El (Agaete)","province":"Las Palmas","location":"G�ldar"},{"postal_code":"35468","place":"Cardonal (Agaete)","province":"Las Palmas","location":"G�ldar"},{"postal_code":"35468","place":"Barranco Hondo De Abajo","province":"Las Palmas","location":"G�ldar"},{"postal_code":"35469","place":"Faro De Sardina (Urbanizacion)","province":"Las Palmas","location":"G�ldar"},{"postal_code":"35469","place":"Caleta De Arriba","province":"Las Palmas","location":"G�ldar"},{"postal_code":"35469","place":"Nido Cuervo","province":"Las Palmas","location":"G�ldar"},{"postal_code":"35468","place":"Inciensal","province":"Las Palmas","location":"G�ldar"},{"postal_code":"35479","place":"Ladera Del Palomar","province":"Las Palmas","location":"Aldea de San Nicol�s, La"},{"postal_code":"35478","place":"El Canonigo","province":"Las Palmas","location":"Aldea de San Nicol�s, La"},{"postal_code":"35469","place":"El Agujero","province":"Las Palmas","location":"G�ldar"},{"postal_code":"35479","place":"Los Espinos","province":"Las Palmas","location":"Aldea de San Nicol�s, La"},{"postal_code":"35478","place":"Tocodoman","province":"Las Palmas","location":"Aldea de San Nicol�s, La"},{"postal_code":"35478","place":"Palillo De Tasarte","province":"Las Palmas","location":"Aldea de San Nicol�s, La"},{"postal_code":"35478","place":"Tasartico","province":"Las Palmas","location":"Aldea de San Nicol�s, La"},{"postal_code":"35479","place":"Mederos","province":"Las Palmas","location":"Aldea de San Nicol�s, La"},{"postal_code":"35469","place":"La Furnia","province":"Las Palmas","location":"G�ldar"},{"postal_code":"35468","place":"Lucena","province":"Las Palmas","location":"G�ldar"},{"postal_code":"35469","place":"Condenados, Los (Barrio)","province":"Las Palmas","location":"G�ldar"},{"postal_code":"35470","place":"Jerez (San Nicolas De Tolentino)","province":"Las Palmas","location":"Aldea de San Nicol�s, La"},{"postal_code":"35480","place":"Palmeral, El (Agaete) (Urbanizacion)","province":"Las Palmas","location":"Agaete"},{"postal_code":"35468","place":"Degollada, La (Galdar)","province":"Las Palmas","location":"G�ldar"},{"postal_code":"35468","place":"Molino, El (Galdar)","province":"Las Palmas","location":"G�ldar"},{"postal_code":"35468","place":"Hoya De Pineda (Galdar)","province":"Las Palmas","location":"G�ldar"},{"postal_code":"35469","place":"Las Cumbrecillas","province":"Las Palmas","location":"G�ldar"},{"postal_code":"35478","place":"Molino De Viento (Tasarte)","province":"Las Palmas","location":"Aldea de San Nicol�s, La"},{"postal_code":"35478","place":"Rosas, Las (San Nicolas De Tolentino)","province":"Las Palmas","location":"Aldea de San Nicol�s, La"},{"postal_code":"35468","place":"Chirino","province":"Las Palmas","location":"G�ldar"},{"postal_code":"35479","place":"La Hoyilla","province":"Las Palmas","location":"Aldea de San Nicol�s, La"},{"postal_code":"35479","place":"Cuermeja","province":"Las Palmas","location":"Aldea de San Nicol�s, La"},{"postal_code":"35479","place":"Playa, La (San Nicolas De Tolentino)","province":"Las Palmas","location":"Aldea de San Nicol�s, La"},{"postal_code":"35479","place":"Los Caserones","province":"Las Palmas","location":"Aldea de San Nicol�s, La"},{"postal_code":"35479","place":"El Albercon","province":"Las Palmas","location":"Aldea de San Nicol�s, La"},{"postal_code":"35488","place":"Majadilla, Las (Galdar)","province":"Las Palmas","location":"G�ldar"},{"postal_code":"35488","place":"Rosetas","province":"Las Palmas","location":"G�ldar"},{"postal_code":"35488","place":"Marmolejo","province":"Las Palmas","location":"G�ldar"},{"postal_code":"35488","place":"Farragut","province":"Las Palmas","location":"G�ldar"},{"postal_code":"35489","place":"San Pedro","province":"Las Palmas","location":"Agaete"},{"postal_code":"35468","place":"Barranco Hondo De Arriba","province":"Las Palmas","location":"G�ldar"},{"postal_code":"35507","place":"Tahiche","province":"Las Palmas","location":"Teguise"},{"postal_code":"35468","place":"Buenavista","province":"Las Palmas","location":"G�ldar"},{"postal_code":"35489","place":"Guayedra","province":"Las Palmas","location":"Agaete"},{"postal_code":"35500","place":"Arrecife","province":"Las Palmas","location":"Puerto del Rosario"},{"postal_code":"35468","place":"Caideros De San Jose","province":"Las Palmas","location":"G�ldar"},{"postal_code":"35489","place":"Los Berrazales","province":"Las Palmas","location":"Agaete"},{"postal_code":"35489","place":"Valle De Agaete","province":"Las Palmas","location":"Agaete"},{"postal_code":"35489","place":"Cruz, La (Agaete)","province":"Las Palmas","location":"Agaete"},{"postal_code":"35489","place":"Longueras, Las (Agaete)","province":"Las Palmas","location":"Agaete"},{"postal_code":"35469","place":"Punta De Galdar","province":"Las Palmas","location":"G�ldar"},{"postal_code":"35469","place":"Sobradillo, El (Galdar)","province":"Las Palmas","location":"G�ldar"},{"postal_code":"35469","place":"Barranquillo El Vino","province":"Las Palmas","location":"G�ldar"},{"postal_code":"35469","place":"Barrio Negrin (Galdar)","province":"Las Palmas","location":"G�ldar"},{"postal_code":"35469","place":"El Clavo","province":"Las Palmas","location":"G�ldar"},{"postal_code":"35469","place":"Barrial","province":"Las Palmas","location":"G�ldar"},{"postal_code":"35469","place":"Los Dos Roques","province":"Las Palmas","location":"G�ldar"},{"postal_code":"35469","place":"Corralete","province":"Las Palmas","location":"G�ldar"},{"postal_code":"35469","place":"Sardina (Galdar)","province":"Las Palmas","location":"G�ldar"},{"postal_code":"35470","place":"La Aldea De San Nicolas","province":"Las Palmas","location":"Aldea de San Nicol�s, La"},{"postal_code":"35470","place":"Los Cardones","province":"Las Palmas","location":"Aldea de San Nicol�s, La"},{"postal_code":"35470","place":"San Nicolas De Tolentino (Capital Municipal)","province":"Las Palmas","location":"Aldea de San Nicol�s, La"},{"postal_code":"35478","place":"Casas Blancas (San Nicolas De Tolentino)","province":"Las Palmas","location":"Aldea de San Nicol�s, La"},{"postal_code":"35478","place":"Pasitos, Los (San Nicolas De Tolentino)","province":"Las Palmas","location":"Aldea de San Nicol�s, La"},{"postal_code":"35478","place":"Tasarte","province":"Las Palmas","location":"Aldea de San Nicol�s, La"},{"postal_code":"35478","place":"Artejeves (Zona)","province":"Las Palmas","location":"Aldea de San Nicol�s, La"},{"postal_code":"35478","place":"Playa De Tasarte (Playa)","province":"Las Palmas","location":"Aldea de San Nicol�s, La"},{"postal_code":"35478","place":"La Cardonera","province":"Las Palmas","location":"Aldea de San Nicol�s, La"},{"postal_code":"35478","place":"Cruz, La (San Nicolas De Tolentino)","province":"Las Palmas","location":"Aldea de San Nicol�s, La"},{"postal_code":"35479","place":"Molino De Agua","province":"Las Palmas","location":"Aldea de San Nicol�s, La"},{"postal_code":"35478","place":"Posteragua De Tasarte","province":"Las Palmas","location":"Aldea de San Nicol�s, La"},{"postal_code":"35479","place":"La Rosa","province":"Las Palmas","location":"Aldea de San Nicol�s, La"},{"postal_code":"35478","place":"Hoyo, El (San Nicolas De Tolentino)","province":"Las Palmas","location":"Aldea de San Nicol�s, La"},{"postal_code":"35479","place":"Lomo, El (San Nicolas De Tolentino)","province":"Las Palmas","location":"Aldea de San Nicol�s, La"},{"postal_code":"35479","place":"Casta�eta","province":"Las Palmas","location":"Aldea de San Nicol�s, La"},{"postal_code":"35479","place":"Cruce, El (San Nicolas De Tolentino)","province":"Las Palmas","location":"Aldea de San Nicol�s, La"},{"postal_code":"35479","place":"Los Molinos","province":"Las Palmas","location":"Aldea de San Nicol�s, La"},{"postal_code":"35479","place":"Cercadillos","province":"Las Palmas","location":"Aldea de San Nicol�s, La"},{"postal_code":"35479","place":"La Ladera","province":"Las Palmas","location":"Aldea de San Nicol�s, La"},{"postal_code":"35479","place":"El Pinillo","province":"Las Palmas","location":"Aldea de San Nicol�s, La"},{"postal_code":"35479","place":"El Ribanzo","province":"Las Palmas","location":"Aldea de San Nicol�s, La"},{"postal_code":"35479","place":"Las Marciegas","province":"Las Palmas","location":"Aldea de San Nicol�s, La"},{"postal_code":"35479","place":"Las Tabladas","province":"Las Palmas","location":"Aldea de San Nicol�s, La"},{"postal_code":"35488","place":"San Isidro (Galdar)","province":"Las Palmas","location":"G�ldar"},{"postal_code":"35480","place":"Agaete (Capital Municipal)","province":"Las Palmas","location":"Agaete"},{"postal_code":"35488","place":"Barranco Canario","province":"Las Palmas","location":"G�ldar"},{"postal_code":"35488","place":"Lomo De San Anton","province":"Las Palmas","location":"G�ldar"},{"postal_code":"35480","place":"Turman, El (Urbanizacion)","province":"Las Palmas","location":"Agaete"},{"postal_code":"35488","place":"Taya","province":"Las Palmas","location":"G�ldar"},{"postal_code":"35488","place":"Las Quintanas","province":"Las Palmas","location":"G�ldar"},{"postal_code":"35488","place":"Juan Viejo","province":"Las Palmas","location":"G�ldar"},{"postal_code":"35489","place":"Chapin","province":"Las Palmas","location":"Agaete"},{"postal_code":"35489","place":"Cuevecillas (Agaete)","province":"Las Palmas","location":"Agaete"},{"postal_code":"35489","place":"Lomo De San Pedro (Agaete)","province":"Las Palmas","location":"Agaete"},{"postal_code":"35488","place":"Lomo De Don Tomas","province":"Las Palmas","location":"G�ldar"},{"postal_code":"35489","place":"La Calera","province":"Las Palmas","location":"Agaete"},{"postal_code":"35489","place":"Vecindad De Enfrente","province":"Las Palmas","location":"Agaete"},{"postal_code":"35489","place":"Puerto De Las Nieves","province":"Las Palmas","location":"Agaete"},{"postal_code":"35489","place":"Sao, El (Agaete)","province":"Las Palmas","location":"Agaete"},{"postal_code":"35489","place":"Risco El (Agaete)","province":"Las Palmas","location":"Agaete"},{"postal_code":"35489","place":"Suerte, La (Agaete)","province":"Las Palmas","location":"Agaete"},{"postal_code":"35508","place":"Costa Teguise","province":"Las Palmas","location":"Teguise"},{"postal_code":"35508","place":"Las Caletas","province":"Las Palmas","location":"Teguise"},{"postal_code":"35509","place":"Aeropuerto De Lanzarote","province":"Las Palmas","location":"San Bartolom�"},{"postal_code":"35509","place":"Las Puntas","province":"Las Palmas","location":"San Bartolom�"},{"postal_code":"35510","place":"Los Casalones","province":"Las Palmas","location":"T�as"},{"postal_code":"35540","place":"Caleta De Sebo (La Graciosa)","province":"Las Palmas","location":"Santa Mar�a de Gu�a de Gran Canaria"},{"postal_code":"35539","place":"El Mojon","province":"Las Palmas","location":"Teguise"},{"postal_code":"35550","place":"San Bartolome De Lanzarote (Capital Municipal)","province":"Las Palmas","location":"Tinajo"},{"postal_code":"35510","place":"Barranco Del Quiquere","province":"Las Palmas","location":"T�as"},{"postal_code":"35507","place":"Volcan De Tahiche","province":"Las Palmas","location":"Teguise"},{"postal_code":"35510","place":"Los Mojones","province":"Las Palmas","location":"T�as"},{"postal_code":"35539","place":"Los Valles","province":"Las Palmas","location":"Teguise"},{"postal_code":"35530","place":"Teguise (Capital Municipal)","province":"Las Palmas","location":"Teguise"},{"postal_code":"35507","place":"Vega De Tahiche","province":"Las Palmas","location":"Teguise"},{"postal_code":"35540","place":"Pedro Barba (La Graciosa)","province":"Las Palmas","location":"Santa Mar�a de Gu�a de Gran Canaria"},{"postal_code":"35507","place":"Las Cabreras","province":"Las Palmas","location":"Teguise"},{"postal_code":"35509","place":"Playa Honda","province":"Las Palmas","location":"San Bartolom�"},{"postal_code":"35542","place":"Arrieta","province":"Las Palmas","location":"Har�a"},{"postal_code":"35509","place":"Playa Del Cable (Playa)","province":"Las Palmas","location":"San Bartolom�"},{"postal_code":"35541","place":"Orzola","province":"Las Palmas","location":"Har�a"},{"postal_code":"35559","place":"Florida, La (San Bartolome De Lanzarote)","province":"Las Palmas","location":"San Bartolom�"},{"postal_code":"35561","place":"Mozaga","province":"Las Palmas","location":"Teguise"},{"postal_code":"35541","place":"Guinate","province":"Las Palmas","location":"Har�a"},{"postal_code":"35510","place":"Los Pocillos","province":"Las Palmas","location":"T�as"},{"postal_code":"35539","place":"Monta�a, La (Teguise)","province":"Las Palmas","location":"Teguise"},{"postal_code":"35558","place":"Laderas, Las (Teguise)","province":"Las Palmas","location":"Teguise"},{"postal_code":"35508","place":"Los Ancones","province":"Las Palmas","location":"Teguise"},{"postal_code":"35542","place":"Punta Mujeres","province":"Las Palmas","location":"Har�a"},{"postal_code":"35560","place":"Tajaste","province":"Las Palmas","location":"Tinajo"},{"postal_code":"35539","place":"Nazaret","province":"Las Palmas","location":"Teguise"},{"postal_code":"35570","place":"Playa Quemada","province":"Las Palmas","location":"Yaiza"},{"postal_code":"35572","place":"Masdache","province":"Las Palmas","location":"T�as"},{"postal_code":"35540","place":"Caleta De Sebo (Isla Graciosa)","province":"Las Palmas","location":"Santa Mar�a de Gu�a de Gran Canaria"},{"postal_code":"35541","place":"Ye","province":"Las Palmas","location":"Har�a"},{"postal_code":"35558","place":"Tiagua","province":"Las Palmas","location":"Teguise"},{"postal_code":"35510","place":"Puerto Del Carmen","province":"Las Palmas","location":"T�as"},{"postal_code":"35544","place":"Guatiza","province":"Las Palmas","location":"Teguise"},{"postal_code":"35570","place":"Maciot","province":"Las Palmas","location":"Yaiza"},{"postal_code":"35571","place":"Cortijo Viejo (Yaiza)","province":"Las Palmas","location":"T�as"},{"postal_code":"35558","place":"Caleta De Famara","province":"Las Palmas","location":"Teguise"},{"postal_code":"35543","place":"Mala","province":"Las Palmas","location":"Har�a"},{"postal_code":"35580","place":"Costa De Papagayo","province":"Las Palmas","location":"Yaiza"},{"postal_code":"35610","place":"Costa De Antigua","province":"Las Palmas","location":"Puerto del Rosario"},{"postal_code":"35559","place":"Guime","province":"Las Palmas","location":"San Bartolom�"},{"postal_code":"35610","place":"Salinas Del Carmen","province":"Las Palmas","location":"Puerto del Rosario"},{"postal_code":"35558","place":"Soo","province":"Las Palmas","location":"Teguise"},{"postal_code":"35560","place":"Tinajo","province":"Las Palmas","location":"Tinajo"},{"postal_code":"35520","place":"Haria (Capital Municipal)","province":"Las Palmas","location":"Har�a"},{"postal_code":"35600","place":"Matorral, El (Puerto Del Rosario)","province":"Las Palmas","location":"Puerto del Rosario"},{"postal_code":"35560","place":"Ca�ada, La (Tinajo)","province":"Las Palmas","location":"Tinajo"},{"postal_code":"35560","place":"Costa, La (Tinajo)","province":"Las Palmas","location":"Tinajo"},{"postal_code":"35571","place":"Barranco De La Calera (Macher)","province":"Las Palmas","location":"T�as"},{"postal_code":"35570","place":"Femes","province":"Las Palmas","location":"Yaiza"},{"postal_code":"35559","place":"Monta�a Blanca (San Bartolome De Lanzarote)","province":"Las Palmas","location":"San Bartolom�"},{"postal_code":"35570","place":"La Geria","province":"Las Palmas","location":"Yaiza"},{"postal_code":"35559","place":"El Islote","province":"Las Palmas","location":"San Bartolom�"},{"postal_code":"35539","place":"Teseguite","province":"Las Palmas","location":"Teguise"},{"postal_code":"35571","place":"Asomada, La (Tias)","province":"Las Palmas","location":"T�as"},{"postal_code":"35541","place":"Maguez","province":"Las Palmas","location":"Har�a"},{"postal_code":"35560","place":"El Cuchillo","province":"Las Palmas","location":"Tinajo"},{"postal_code":"35611","place":"Tao (Pto Del Rosario)","province":"Las Palmas","location":"Puerto del Rosario"},{"postal_code":"35561","place":"Tomaren","province":"Las Palmas","location":"Teguise"},{"postal_code":"35570","place":"Yaiza (Capital Municipal)","province":"Las Palmas","location":"Yaiza"},{"postal_code":"35542","place":"Tabayesco","province":"Las Palmas","location":"Har�a"},{"postal_code":"35580","place":"Monta�a Roja","province":"Las Palmas","location":"Yaiza"},{"postal_code":"35572","place":"Tias (Capital Municipal)","province":"Las Palmas","location":"T�as"},{"postal_code":"35570","place":"Bre�as, Las (Yaiza)","province":"Las Palmas","location":"Yaiza"},{"postal_code":"35571","place":"Barranco De La Pila","province":"Las Palmas","location":"T�as"},{"postal_code":"35610","place":"Golf Club Fuerteventura","province":"Las Palmas","location":"Puerto del Rosario"},{"postal_code":"35610","place":"Nuevo Horizonte (Urbanizacion)","province":"Las Palmas","location":"Puerto del Rosario"},{"postal_code":"35560","place":"La Santa","province":"Las Palmas","location":"Tinajo"},{"postal_code":"35580","place":"San Marcial De Rubicon","province":"Las Palmas","location":"Yaiza"},{"postal_code":"35558","place":"Mu�ique","province":"Las Palmas","location":"Teguise"},{"postal_code":"35572","place":"Tegoyo","province":"Las Palmas","location":"T�as"},{"postal_code":"35600","place":"Llanos De La Mareta","province":"Las Palmas","location":"Puerto del Rosario"},{"postal_code":"35560","place":"Mancha Blanca","province":"Las Palmas","location":"Tinajo"},{"postal_code":"35611","place":"Casillas Del Angel","province":"Las Palmas","location":"Puerto del Rosario"},{"postal_code":"35610","place":"Caleta De Fuste","province":"Las Palmas","location":"Puerto del Rosario"},{"postal_code":"35558","place":"Caldereta (San Bartolome De Lanzarote)","province":"Las Palmas","location":"Teguise"},{"postal_code":"35610","place":"Aeropuerto De Fuerteventura","province":"Las Palmas","location":"Puerto del Rosario"},{"postal_code":"35570","place":"Uga","province":"Las Palmas","location":"Yaiza"},{"postal_code":"35560","place":"La Vegueta","province":"Las Palmas","location":"Tinajo"},{"postal_code":"35570","place":"Degollada La (Yaiza)","province":"Las Palmas","location":"Yaiza"},{"postal_code":"35560","place":"Yuco","province":"Las Palmas","location":"Tinajo"},{"postal_code":"35571","place":"Puerto Calero","province":"Las Palmas","location":"T�as"},{"postal_code":"35561","place":"Tao (Teguise)","province":"Las Palmas","location":"Teguise"},{"postal_code":"35571","place":"Barranco Del Agua","province":"Las Palmas","location":"T�as"},{"postal_code":"35570","place":"Golfo, El (Yaiza)","province":"Las Palmas","location":"Yaiza"},{"postal_code":"35580","place":"Playa Blanca (Yaiza)","province":"Las Palmas","location":"Yaiza"},{"postal_code":"35580","place":"Castillo Del Aguila","province":"Las Palmas","location":"Yaiza"},{"postal_code":"35570","place":"Casitas, Las (Yaiza)","province":"Las Palmas","location":"Yaiza"},{"postal_code":"35571","place":"Macher","province":"Las Palmas","location":"T�as"},{"postal_code":"35610","place":"Castillo, El (Antigua)","province":"Las Palmas","location":"Puerto del Rosario"},{"postal_code":"35572","place":"Conil","province":"Las Palmas","location":"T�as"},{"postal_code":"35610","place":"Barrio De Negrin (Puerto Del Rosario)","province":"Las Palmas","location":"Puerto del Rosario"},{"postal_code":"35600","place":"Puerto Del Rosario (Capital Municipal)","province":"Las Palmas","location":"Puerto del Rosario"},{"postal_code":"35611","place":"Tefia","province":"Las Palmas","location":"Puerto del Rosario"},{"postal_code":"35580","place":"Coloradas, Las (Yaiza)","province":"Las Palmas","location":"Yaiza"},{"postal_code":"35610","place":"Castillo De Caleta Fuste","province":"Las Palmas","location":"Puerto del Rosario"},{"postal_code":"35610","place":"Barranco De La Torre","province":"Las Palmas","location":"Puerto del Rosario"},{"postal_code":"35612","place":"Puerto Lajas","province":"Las Palmas","location":"Puerto del Rosario"},{"postal_code":"35613","place":"Herradura, La (Pto Rosario)","province":"Las Palmas","location":"Puerto del Rosario"},{"postal_code":"35612","place":"Rosa De La Monja","province":"Las Palmas","location":"Puerto del Rosario"},{"postal_code":"35612","place":"Rosa De La Arena","province":"Las Palmas","location":"Puerto del Rosario"},{"postal_code":"35611","place":"Tesjuate","province":"Las Palmas","location":"Puerto del Rosario"},{"postal_code":"35625","place":"Solana Del Matorral","province":"Las Palmas","location":"P�jara"},{"postal_code":"35613","place":"El Time","province":"Las Palmas","location":"Puerto del Rosario"},{"postal_code":"35612","place":"Llanos Pelados","province":"Las Palmas","location":"Puerto del Rosario"},{"postal_code":"35627","place":"Costa Calma","province":"Las Palmas","location":"Tuineje"},{"postal_code":"35625","place":"Morro Jable","province":"Las Palmas","location":"P�jara"},{"postal_code":"35626","place":"Barranco Del Mal Nombre","province":"Las Palmas","location":"P�jara"},{"postal_code":"35613","place":"Tetir","province":"Las Palmas","location":"Puerto del Rosario"},{"postal_code":"35628","place":"Ajuy","province":"Las Palmas","location":"Tuineje"},{"postal_code":"35611","place":"Colonia De Garcia Escamez","province":"Las Palmas","location":"Puerto del Rosario"},{"postal_code":"35612","place":"Guisguey","province":"Las Palmas","location":"Puerto del Rosario"},{"postal_code":"35628","place":"Toto","province":"Las Palmas","location":"Tuineje"},{"postal_code":"35627","place":"Ca�ada Del Rio","province":"Las Palmas","location":"Tuineje"},{"postal_code":"35629","place":"Monta�a Hendida","province":"Las Palmas","location":"Tuineje"},{"postal_code":"35627","place":"La Pared","province":"Las Palmas","location":"Tuineje"},{"postal_code":"35612","place":"Los Estancos","province":"Las Palmas","location":"Puerto del Rosario"},{"postal_code":"35629","place":"Tuineje","province":"Las Palmas","location":"Tuineje"},{"postal_code":"35612","place":"Asomada, La (Puerto Del Rosario)","province":"Las Palmas","location":"Puerto del Rosario"},{"postal_code":"35627","place":"Los Albertos","province":"Las Palmas","location":"Tuineje"},{"postal_code":"35613","place":"Valhondo","province":"Las Palmas","location":"Puerto del Rosario"},{"postal_code":"35629","place":"Rosa De James","province":"Las Palmas","location":"Tuineje"},{"postal_code":"35629","place":"Diego Alonso","province":"Las Palmas","location":"Tuineje"},{"postal_code":"35629","place":"Tenicosquey","province":"Las Palmas","location":"Tuineje"},{"postal_code":"35626","place":"Esquinzo (Morro Jable)","province":"Las Palmas","location":"P�jara"},{"postal_code":"35627","place":"La Lajita","province":"Las Palmas","location":"Tuineje"},{"postal_code":"35628","place":"Cardon, El (Pajara)","province":"Las Palmas","location":"Tuineje"},{"postal_code":"35629","place":"La Fuentita","province":"Las Palmas","location":"Tuineje"},{"postal_code":"35629","place":"Tamaretilla","province":"Las Palmas","location":"Tuineje"},{"postal_code":"35629","place":"Las Playitas","province":"Las Palmas","location":"Tuineje"},{"postal_code":"35629","place":"Piedra Hincada","province":"Las Palmas","location":"Tuineje"},{"postal_code":"35649","place":"Caldereta, La (La Oliva)","province":"Las Palmas","location":"Oliva, La"},{"postal_code":"35613","place":"La Matilla","province":"Las Palmas","location":"Puerto del Rosario"},{"postal_code":"35629","place":"Tesejerague","province":"Las Palmas","location":"Tuineje"},{"postal_code":"35629","place":"La Calabaza","province":"Las Palmas","location":"Tuineje"},{"postal_code":"35638","place":"Corte, La (Antigua)","province":"Las Palmas","location":"Antigua"},{"postal_code":"35613","place":"Tamariche","province":"Las Palmas","location":"Puerto del Rosario"},{"postal_code":"35639","place":"Alares","province":"Las Palmas","location":"Antigua"},{"postal_code":"35637","place":"La Ampuyenta","province":"Las Palmas","location":"Puerto del Rosario"},{"postal_code":"35640","place":"Villaverde","province":"Las Palmas","location":"G�ldar"},{"postal_code":"35630","place":"Antigua, La (Capital Municipal)","province":"Las Palmas","location":"Antigua"},{"postal_code":"35638","place":"Agua De Bueyes","province":"Las Palmas","location":"Antigua"},{"postal_code":"35629","place":"Puerto Azul (Urbanizacion)","province":"Las Palmas","location":"Tuineje"},{"postal_code":"35625","place":"Las Gaviotas","province":"Las Palmas","location":"P�jara"},{"postal_code":"35649","place":"Taca","province":"Las Palmas","location":"Oliva, La"},{"postal_code":"35637","place":"Vega De Rio Palmas","province":"Las Palmas","location":"Puerto del Rosario"},{"postal_code":"35649","place":"Tindaya","province":"Las Palmas","location":"Oliva, La"},{"postal_code":"35620","place":"Gran Tarajal","province":"Las Palmas","location":"Tuineje"},{"postal_code":"35650","place":"Majanicho","province":"Las Palmas","location":"Oliva, La"},{"postal_code":"35660","place":"Geafond","province":"Las Palmas","location":"Tuineje"},{"postal_code":"35639","place":"Rosa Del Taro","province":"Las Palmas","location":"Antigua"},{"postal_code":"35650","place":"Lagos, Los (Urbanizacion)","province":"Las Palmas","location":"Oliva, La"},{"postal_code":"35627","place":"Chilegua","province":"Las Palmas","location":"Tuineje"},{"postal_code":"35629","place":"Llano Florido","province":"Las Palmas","location":"Tuineje"},{"postal_code":"35626","place":"Barranco Los Canarios","province":"Las Palmas","location":"P�jara"},{"postal_code":"35660","place":"Tres Islas","province":"Las Palmas","location":"Tuineje"},{"postal_code":"35627","place":"Huertas De Chilegua","province":"Las Palmas","location":"Tuineje"},{"postal_code":"35626","place":"Jandia","province":"Las Palmas","location":"P�jara"},{"postal_code":"35629","place":"Marcos Sanchez","province":"Las Palmas","location":"Tuineje"},{"postal_code":"35628","place":"Mezquez","province":"Las Palmas","location":"Tuineje"},{"postal_code":"35638","place":"Casillas De Morales","province":"Las Palmas","location":"Antigua"},{"postal_code":"35629","place":"Rosa Grande","province":"Las Palmas","location":"Tuineje"},{"postal_code":"35629","place":"La Mata","province":"Las Palmas","location":"Tuineje"},{"postal_code":"35639","place":"Majada Blanca","province":"Las Palmas","location":"Antigua"},{"postal_code":"35627","place":"Risco Del Gato","province":"Las Palmas","location":"Tuineje"},{"postal_code":"35637","place":"Llanos De La Concepcion","province":"Las Palmas","location":"Puerto del Rosario"},{"postal_code":"35629","place":"Charco, El (Tuineje)","province":"Las Palmas","location":"Tuineje"},{"postal_code":"35639","place":"Pozo Negro","province":"Las Palmas","location":"Antigua"},{"postal_code":"35629","place":"Tarajalejo","province":"Las Palmas","location":"Tuineje"},{"postal_code":"35627","place":"Bahia Calma","province":"Las Palmas","location":"Tuineje"},{"postal_code":"35637","place":"Betancuria","province":"Las Palmas","location":"Puerto del Rosario"},{"postal_code":"35649","place":"Vallebron","province":"Las Palmas","location":"Oliva, La"},{"postal_code":"35638","place":"Las Pocetas","province":"Las Palmas","location":"Antigua"},{"postal_code":"35650","place":"Roque, El (Cotillo)","province":"Las Palmas","location":"Oliva, La"},{"postal_code":"35660","place":"Lobos, Isla De","province":"Las Palmas","location":"Tuineje"},{"postal_code":"35628","place":"Pajara (Capital Municipal)","province":"Las Palmas","location":"Tuineje"},{"postal_code":"35639","place":"Triquivijate","province":"Las Palmas","location":"Antigua"},{"postal_code":"35629","place":"Casa De Violante","province":"Las Palmas","location":"Tuineje"},{"postal_code":"35629","place":"Juan Gopar","province":"Las Palmas","location":"Tuineje"},{"postal_code":"35640","place":"La Oliva","province":"Las Palmas","location":"G�ldar"},{"postal_code":"35660","place":"Corralejo Playa","province":"Las Palmas","location":"Tuineje"},{"postal_code":"35650","place":"Lajares (La Oliva)","province":"Las Palmas","location":"Oliva, La"},{"postal_code":"35649","place":"Esquinzo (La Oliva)","province":"Las Palmas","location":"Oliva, La"},{"postal_code":"35629","place":"Las Casitas","province":"Las Palmas","location":"Tuineje"},{"postal_code":"35629","place":"Mazacote","province":"Las Palmas","location":"Tuineje"},{"postal_code":"35637","place":"Valle De Santa Ines","province":"Las Palmas","location":"Puerto del Rosario"},{"postal_code":"35638","place":"Valles De Ortega","province":"Las Palmas","location":"Antigua"},{"postal_code":"35638","place":"Tiscamanita","province":"Las Palmas","location":"Antigua"},{"postal_code":"35639","place":"Casas Del Hospinal","province":"Las Palmas","location":"Antigua"},{"postal_code":"35649","place":"Parque Holandes","province":"Las Palmas","location":"Oliva, La"},{"postal_code":"35650","place":"El Cotillo","province":"Las Palmas","location":"Oliva, La"},{"postal_code":"35660","place":"Corralejo","province":"Las Palmas","location":"Tuineje"},{"postal_code":"38003","place":"Santa Cruz De Tenerife","province":"Santa Cruz de Tenerife","location":"Santa Cruz de Tenerife"},{"postal_code":"38005","place":"Santa Cruz De Tenerife","province":"Santa Cruz de Tenerife","location":"Santa Cruz de Tenerife"},{"postal_code":"38002","place":"Santa Cruz De Tenerife","province":"Santa Cruz de Tenerife","location":"Santa Cruz de Tenerife"},{"postal_code":"38004","place":"Santa Cruz De Tenerife","province":"Santa Cruz de Tenerife","location":"Santa Cruz de Tenerife"},{"postal_code":"38001","place":"Santa Cruz De Tenerife","province":"Santa Cruz de Tenerife","location":"Santa Cruz de Tenerife"},{"postal_code":"38009","place":"Santa Cruz De Tenerife","province":"Santa Cruz de Tenerife","location":"Santa Cruz de Tenerife"},{"postal_code":"38107","place":"El Rosarito","province":"Santa Cruz de Tenerife","location":"Santa Cruz de Tenerife"},{"postal_code":"38071","place":"Santa Cruz De Tenerife","province":"Santa Cruz de Tenerife"},{"postal_code":"38010","place":"Santa Cruz De Tenerife","province":"Santa Cruz de Tenerife","location":"Santa Cruz de Tenerife"},{"postal_code":"38107","place":"El Tablero","province":"Santa Cruz de Tenerife","location":"Santa Cruz de Tenerife"},{"postal_code":"38109","place":"Radazul","province":"Santa Cruz de Tenerife","location":"Rosario, El"},{"postal_code":"38006","place":"Santa Cruz De Tenerife","province":"Santa Cruz de Tenerife","location":"Santa Cruz de Tenerife"},{"postal_code":"38008","place":"Santa Cruz De Tenerife","province":"Santa Cruz de Tenerife","location":"Santa Cruz de Tenerife"},{"postal_code":"38108","place":"Taco","province":"Santa Cruz de Tenerife","location":"Santa Cruz de Tenerife"},{"postal_code":"38007","place":"Santa Cruz De Tenerife","province":"Santa Cruz de Tenerife","location":"Santa Cruz de Tenerife"},{"postal_code":"38108","place":"San Matias","province":"Santa Cruz de Tenerife","location":"Santa Cruz de Tenerife"},{"postal_code":"38107","place":"Tincer","province":"Santa Cruz de Tenerife","location":"Santa Cruz de Tenerife"},{"postal_code":"38107","place":"Barranco Grande","province":"Santa Cruz de Tenerife","location":"Santa Cruz de Tenerife"},{"postal_code":"38129","place":"Chamorga","province":"Santa Cruz de Tenerife","location":"Santa Cruz de Tenerife"},{"postal_code":"38109","place":"El Chorrillo","province":"Santa Cruz de Tenerife","location":"Rosario, El"},{"postal_code":"38110","place":"Santa Cruz De Tenerife","province":"Santa Cruz de Tenerife","location":"Santa Cruz de Tenerife"},{"postal_code":"38111","place":"Acoran","province":"Santa Cruz de Tenerife","location":"Santa Cruz de Tenerife"},{"postal_code":"38107","place":"Llano Del Moro (Santa Cruz) (Ver Callejero De Santa Cruz De Tenerife)","province":"Santa Cruz de Tenerife","location":"Santa Cruz de Tenerife"},{"postal_code":"38107","place":"Las Veredillas","province":"Santa Cruz de Tenerife","location":"Santa Cruz de Tenerife"},{"postal_code":"38108","place":"Las Chumberas","province":"Santa Cruz de Tenerife","location":"Santa Cruz de Tenerife"},{"postal_code":"38129","place":"El Suculum","province":"Santa Cruz de Tenerife","location":"Santa Cruz de Tenerife"},{"postal_code":"38080","place":"Santa Cruz De Tenerife","province":"Santa Cruz de Tenerife"},{"postal_code":"38109","place":"San Isidro (El Rosario)","province":"Santa Cruz de Tenerife","location":"Rosario, El"},{"postal_code":"38129","place":"Almaciga","province":"Santa Cruz de Tenerife","location":"Santa Cruz de Tenerife"},{"postal_code":"38110","place":"Mayorazgo, El (Poligono Industrial)","province":"Santa Cruz de Tenerife","location":"Santa Cruz de Tenerife"},{"postal_code":"38111","place":"Santa Maria Del Mar","province":"Santa Cruz de Tenerife","location":"Santa Cruz de Tenerife"},{"postal_code":"38180","place":"Cueva Bermeja","province":"Santa Cruz de Tenerife","location":"Santa Cruz de Tenerife"},{"postal_code":"38150","place":"Valleseco","province":"Santa Cruz de Tenerife","location":"Santa Cruz de Tenerife"},{"postal_code":"38070","place":"Santa Cruz De Tenerife","province":"Santa Cruz de Tenerife"},{"postal_code":"38139","place":"Afur","province":"Santa Cruz de Tenerife","location":"Santa Cruz de Tenerife"},{"postal_code":"38111","place":"Alisios","province":"Santa Cruz de Tenerife","location":"Santa Cruz de Tenerife"},{"postal_code":"38129","place":"El Draguillo","province":"Santa Cruz de Tenerife","location":"Santa Cruz de Tenerife"},{"postal_code":"38170","place":"Santa Cruz De Tenerife","province":"Santa Cruz de Tenerife","location":"Santa Cruz de Tenerife"},{"postal_code":"38190","place":"Tabaiba (Urbanizacion)","province":"Santa Cruz de Tenerife","location":"Rosario, El"},{"postal_code":"38107","place":"El Pilar","province":"Santa Cruz de Tenerife","location":"Santa Cruz de Tenerife"},{"postal_code":"38129","place":"Benijo","province":"Santa Cruz de Tenerife","location":"Santa Cruz de Tenerife"},{"postal_code":"38160","place":"Valle Tahodio","province":"Santa Cruz de Tenerife","location":"Santa Cruz de Tenerife"},{"postal_code":"38107","place":"Santa Cruz De Tenerife","province":"Santa Cruz de Tenerife","location":"Santa Cruz de Tenerife"},{"postal_code":"38190","place":"Machado","province":"Santa Cruz de Tenerife","location":"Rosario, El"},{"postal_code":"38129","place":"La Cumbrilla","province":"Santa Cruz de Tenerife","location":"Santa Cruz de Tenerife"},{"postal_code":"38139","place":"Casas De La Cumbre","province":"Santa Cruz de Tenerife","location":"Santa Cruz de Tenerife"},{"postal_code":"38201","place":"San Cristobal De La Laguna","province":"Santa Cruz de Tenerife","location":"San Crist�bal de La Laguna"},{"postal_code":"38139","place":"Roque Negro","province":"Santa Cruz de Tenerife","location":"Santa Cruz de Tenerife"},{"postal_code":"38150","place":"Cardonera","province":"Santa Cruz de Tenerife","location":"Santa Cruz de Tenerife"},{"postal_code":"38180","place":"Valle Crispin","province":"Santa Cruz de Tenerife","location":"Santa Cruz de Tenerife"},{"postal_code":"38180","place":"Maria Jimenez","province":"Santa Cruz de Tenerife","location":"Santa Cruz de Tenerife"},{"postal_code":"38107","place":"La Gallega","province":"Santa Cruz de Tenerife","location":"Santa Cruz de Tenerife"},{"postal_code":"38280","place":"Tegueste","province":"Santa Cruz de Tenerife","location":"Tegueste"},{"postal_code":"38240","place":"Punta Del Hidalgo","province":"Santa Cruz de Tenerife","location":"San Crist�bal de La Laguna"},{"postal_code":"38290","place":"Pe�afiel","province":"Santa Cruz de Tenerife","location":"Rosario, El"},{"postal_code":"38206","place":"San Cristobal De La Laguna","province":"Santa Cruz de Tenerife","location":"San Crist�bal de La Laguna"},{"postal_code":"38290","place":"Lomo Pelado","province":"Santa Cruz de Tenerife","location":"Rosario, El"},{"postal_code":"38204","place":"San Cristobal De La Laguna","province":"Santa Cruz de Tenerife","location":"San Crist�bal de La Laguna"},{"postal_code":"38260","place":"Tejina","province":"Santa Cruz de Tenerife","location":"San Crist�bal de La Laguna"},{"postal_code":"38290","place":"La Esperanza","province":"Santa Cruz de Tenerife","location":"Rosario, El"},{"postal_code":"38107","place":"El Sobradillo","province":"Santa Cruz de Tenerife","location":"Santa Cruz de Tenerife"},{"postal_code":"38293","place":"San Cristobal De La Laguna","province":"Santa Cruz de Tenerife","location":"Tegueste"},{"postal_code":"38208","place":"San Cristobal De La Laguna","province":"Santa Cruz de Tenerife","location":"San Crist�bal de La Laguna"},{"postal_code":"38203","place":"San Cristobal De La Laguna","province":"Santa Cruz de Tenerife","location":"San Crist�bal de La Laguna"},{"postal_code":"38108","place":"San Cristobal De La Laguna","province":"Santa Cruz de Tenerife","location":"Santa Cruz de Tenerife"},{"postal_code":"38292","place":"Pedro Alvarez","province":"Santa Cruz de Tenerife","location":"Tegueste"},{"postal_code":"38109","place":"Bocacangrejo (El Rosario)","province":"Santa Cruz de Tenerife","location":"Rosario, El"},{"postal_code":"38290","place":"Rosas, Las (Esperanza, La)","province":"Santa Cruz de Tenerife","location":"Rosario, El"},{"postal_code":"38291","place":"Mina","province":"Santa Cruz de Tenerife","location":"San Crist�bal de La Laguna"},{"postal_code":"38294","place":"Las Carboneras","province":"Santa Cruz de Tenerife","location":"Santa Cruz de Tenerife"},{"postal_code":"38292","place":"El Infierno","province":"Santa Cruz de Tenerife","location":"Tegueste"},{"postal_code":"38291","place":"Los Baldios","province":"Santa Cruz de Tenerife","location":"San Crist�bal de La Laguna"},{"postal_code":"38108","place":"Los Andenes","province":"Santa Cruz de Tenerife","location":"Santa Cruz de Tenerife"},{"postal_code":"38292","place":"Socorro, El (Tegueste)","province":"Santa Cruz de Tenerife","location":"Tegueste"},{"postal_code":"38294","place":"Batan De Abajo","province":"Santa Cruz de Tenerife","location":"Santa Cruz de Tenerife"},{"postal_code":"38109","place":"Campana, La (Poligono Industrial)","province":"Santa Cruz de Tenerife","location":"Rosario, El"},{"postal_code":"38111","place":"Santa Cruz De Tenerife","province":"Santa Cruz de Tenerife","location":"Santa Cruz de Tenerife"},{"postal_code":"38111","place":"A�aza","province":"Santa Cruz de Tenerife","location":"Santa Cruz de Tenerife"},{"postal_code":"38129","place":"Roque Bermejo","province":"Santa Cruz de Tenerife","location":"Santa Cruz de Tenerife"},{"postal_code":"38129","place":"Lomo De Las Bodegas","province":"Santa Cruz de Tenerife","location":"Santa Cruz de Tenerife"},{"postal_code":"38293","place":"Mercedes, Las, De (Carretera)","province":"Santa Cruz de Tenerife","location":"Tegueste"},{"postal_code":"38120","place":"San Andres (Santa Cruz De Tenerife)","province":"Santa Cruz de Tenerife","location":"Santa Cruz de Tenerife"},{"postal_code":"38130","place":"Taganana","province":"Santa Cruz de Tenerife","location":"Santa Cruz de Tenerife"},{"postal_code":"38129","place":"El Bailadero","province":"Santa Cruz de Tenerife","location":"Santa Cruz de Tenerife"},{"postal_code":"38139","place":"Valle De Los Catalanes","province":"Santa Cruz de Tenerife","location":"Santa Cruz de Tenerife"},{"postal_code":"38140","place":"Igueste De San Andres","province":"Santa Cruz de Tenerife","location":"Santa Cruz de Tenerife"},{"postal_code":"38150","place":"Las Cuevas","province":"Santa Cruz de Tenerife","location":"Santa Cruz de Tenerife"},{"postal_code":"38160","place":"Santa Cruz De Tenerife","province":"Santa Cruz de Tenerife","location":"Santa Cruz de Tenerife"},{"postal_code":"38170","place":"Los Campitos","province":"Santa Cruz de Tenerife","location":"Santa Cruz de Tenerife"},{"postal_code":"38180","place":"Darsena Pesquera","province":"Santa Cruz de Tenerife","location":"Santa Cruz de Tenerife"},{"postal_code":"38180","place":"Valle Brosque","province":"Santa Cruz de Tenerife","location":"Santa Cruz de Tenerife"},{"postal_code":"38202","place":"San Cristobal De La Laguna","province":"Santa Cruz de Tenerife","location":"San Crist�bal de La Laguna"},{"postal_code":"38200","place":"San Cristobal De La Laguna","province":"Santa Cruz de Tenerife"},{"postal_code":"38207","place":"San Cristobal De La Laguna","province":"Santa Cruz de Tenerife","location":"San Crist�bal de La Laguna"},{"postal_code":"38205","place":"San Cristobal De La Laguna","province":"Santa Cruz de Tenerife","location":"San Crist�bal de La Laguna"},{"postal_code":"38250","place":"Bajamar","province":"Santa Cruz de Tenerife","location":"San Crist�bal de La Laguna"},{"postal_code":"38270","place":"Valle Guerra","province":"Santa Cruz de Tenerife","location":"San Crist�bal de La Laguna"},{"postal_code":"38290","place":"Preventorio","province":"Santa Cruz de Tenerife","location":"Rosario, El"},{"postal_code":"38290","place":"Llano Del Moro (El Rosario)","province":"Santa Cruz de Tenerife","location":"Rosario, El"},{"postal_code":"38291","place":"San Cristobal De La Laguna","province":"Santa Cruz de Tenerife","location":"San Crist�bal de La Laguna"},{"postal_code":"38290","place":"Las Barreras","province":"Santa Cruz de Tenerife","location":"Rosario, El"},{"postal_code":"38292","place":"Padilla Baja","province":"Santa Cruz de Tenerife","location":"Tegueste"},{"postal_code":"38292","place":"Portezuelo","province":"Santa Cruz de Tenerife","location":"Tegueste"},{"postal_code":"38293","place":"Camino De Jardina","province":"Santa Cruz de Tenerife","location":"Tegueste"},{"postal_code":"38294","place":"Taborno","province":"Santa Cruz de Tenerife","location":"Santa Cruz de Tenerife"},{"postal_code":"38294","place":"Bejia","province":"Santa Cruz de Tenerife","location":"Santa Cruz de Tenerife"},{"postal_code":"38300","place":"Parque Nacional Teide","province":"Santa Cruz de Tenerife","location":"Orotava, La"},{"postal_code":"38300","place":"Las Ca�adas Del Teide","province":"Santa Cruz de Tenerife","location":"Orotava, La"},{"postal_code":"38297","place":"Aeropuerto De Los Rodeos (Santa Cruz De Tenerife)","province":"Santa Cruz de Tenerife","location":"Tegueste"},{"postal_code":"38297","place":"Hoya Del Camello","province":"Santa Cruz de Tenerife","location":"Tegueste"},{"postal_code":"38294","place":"Cruz Del Carmen","province":"Santa Cruz de Tenerife","location":"Santa Cruz de Tenerife"},{"postal_code":"38310","place":"Pinoleris","province":"Santa Cruz de Tenerife","location":"Orotava, La"},{"postal_code":"38294","place":"Batan De Arriba","province":"Santa Cruz de Tenerife","location":"Santa Cruz de Tenerife"},{"postal_code":"38310","place":"Tres Pinos (Aguamansa)","province":"Santa Cruz de Tenerife","location":"Orotava, La"},{"postal_code":"38294","place":"Rio","province":"Santa Cruz de Tenerife","location":"Santa Cruz de Tenerife"},{"postal_code":"38310","place":"El Bebedero","province":"Santa Cruz de Tenerife","location":"Orotava, La"},{"postal_code":"38294","place":"Chinamada","province":"Santa Cruz de Tenerife","location":"Santa Cruz de Tenerife"},{"postal_code":"38313","place":"Benijos","province":"Santa Cruz de Tenerife","location":"Orotava, La"},{"postal_code":"38310","place":"El Montijo","province":"Santa Cruz de Tenerife","location":"Orotava, La"},{"postal_code":"38296","place":"San Cristobal De La Laguna","province":"Santa Cruz de Tenerife","location":"San Crist�bal de La Laguna"},{"postal_code":"38314","place":"Rincon, El (La Orotava)","province":"Santa Cruz de Tenerife","location":"Orotava, La"},{"postal_code":"38311","place":"Los Gomez","province":"Santa Cruz de Tenerife","location":"Orotava, La"},{"postal_code":"38310","place":"Aguamansa","province":"Santa Cruz de Tenerife","location":"Orotava, La"},{"postal_code":"38312","place":"La Luz","province":"Santa Cruz de Tenerife","location":"Orotava, La"},{"postal_code":"38311","place":"Los Frontones","province":"Santa Cruz de Tenerife","location":"Orotava, La"},{"postal_code":"38312","place":"Cruz De Los Martillos","province":"Santa Cruz de Tenerife","location":"Orotava, La"},{"postal_code":"38297","place":"Garimba","province":"Santa Cruz de Tenerife","location":"Tegueste"},{"postal_code":"38310","place":"Hacienda Perdida","province":"Santa Cruz de Tenerife","location":"Orotava, La"},{"postal_code":"38340","place":"Los Naranjeros","province":"Santa Cruz de Tenerife","location":"Tacoronte"},{"postal_code":"38320","place":"La Cuesta","province":"Santa Cruz de Tenerife","location":"Santa Cruz de Tenerife"},{"postal_code":"38355","place":"Barranco De Las Lajas","province":"Santa Cruz de Tenerife","location":"Tacoronte"},{"postal_code":"38358","place":"El Pris","province":"Santa Cruz de Tenerife","location":"Tacoronte"},{"postal_code":"38314","place":"Cuevas, Las (La Orotava) (Urbanizacion)","province":"Santa Cruz de Tenerife","location":"Orotava, La"},{"postal_code":"38311","place":"Dehesa Alta","province":"Santa Cruz de Tenerife","location":"Orotava, La"},{"postal_code":"38329","place":"Lomo De Las Casillas","province":"Santa Cruz de Tenerife","location":"San Crist�bal de La Laguna"},{"postal_code":"38357","place":"Las Casas Altas","province":"Santa Cruz de Tenerife","location":"Tacoronte"},{"postal_code":"38296","place":"San Miguel De Geneto","province":"Santa Cruz de Tenerife","location":"San Crist�bal de La Laguna"},{"postal_code":"38314","place":"San Bartolome (La Orotava)","province":"Santa Cruz de Tenerife","location":"Orotava, La"},{"postal_code":"38297","place":"Aeropuerto De Los Rodeos, Residencial (Zona)","province":"Santa Cruz de Tenerife","location":"Tegueste"},{"postal_code":"38315","place":"La Aza","province":"Santa Cruz de Tenerife","location":"Orotava, La"},{"postal_code":"38311","place":"Pino Alto","province":"Santa Cruz de Tenerife","location":"Orotava, La"},{"postal_code":"38312","place":"Arenas, Las (La Orotava)","province":"Santa Cruz de Tenerife","location":"Orotava, La"},{"postal_code":"38380","place":"La Victoria De Acentejo","province":"Santa Cruz de Tenerife","location":"Victoria de Acentejo, La"},{"postal_code":"38350","place":"El Torreon","province":"Santa Cruz de Tenerife","location":"Tacoronte"},{"postal_code":"38329","place":"San Cristobal De La Laguna","province":"Santa Cruz de Tenerife","location":"San Crist�bal de La Laguna"},{"postal_code":"38359","place":"Valle Forestal (Urbanizacion)","province":"Santa Cruz de Tenerife","location":"Sauzal, El"},{"postal_code":"38300","place":"La Orotava","province":"Santa Cruz de Tenerife","location":"Orotava, La"},{"postal_code":"38297","place":"Ortigal","province":"Santa Cruz de Tenerife","location":"Tegueste"},{"postal_code":"38314","place":"La Ratona","province":"Santa Cruz de Tenerife","location":"Orotava, La"},{"postal_code":"38340","place":"La Caridad","province":"Santa Cruz de Tenerife","location":"Tacoronte"},{"postal_code":"38356","place":"San Jeronimo (Tacoronte)","province":"Santa Cruz de Tenerife","location":"Tacoronte"},{"postal_code":"38390","place":"Quinta","province":"Santa Cruz de Tenerife","location":"Santa �rsula"},{"postal_code":"38379","place":"Puntillo Del Sol","province":"Santa Cruz de Tenerife","location":"La Matanza de Acentejo"},{"postal_code":"38360","place":"Angeles, Los (Urbanizacion)","province":"Santa Cruz de Tenerife","location":"Sauzal, El"},{"postal_code":"38358","place":"Santa Catalina Las Toscas","province":"Santa Cruz de Tenerife","location":"Tacoronte"},{"postal_code":"38310","place":"La Sierra","province":"Santa Cruz de Tenerife","location":"Orotava, La"},{"postal_code":"38358","place":"Tagoro","province":"Santa Cruz de Tenerife","location":"Tacoronte"},{"postal_code":"38398","place":"Farrobillo","province":"Santa Cruz de Tenerife","location":"Santa �rsula"},{"postal_code":"38320","place":"San Cristobal De La Laguna","province":"Santa Cruz de Tenerife","location":"Santa Cruz de Tenerife"},{"postal_code":"38389","place":"La Vera-Carril","province":"Santa Cruz de Tenerife","location":"Victoria de Acentejo, La"},{"postal_code":"38310","place":"El Sauce","province":"Santa Cruz de Tenerife","location":"Orotava, La"},{"postal_code":"38310","place":"Chasna","province":"Santa Cruz de Tenerife","location":"Orotava, La"},{"postal_code":"38390","place":"Cuesta De La Villa","province":"Santa Cruz de Tenerife","location":"Santa �rsula"},{"postal_code":"38330","place":"Guamasa","province":"Santa Cruz de Tenerife","location":"San Crist�bal de La Laguna"},{"postal_code":"38379","place":"Chamiana","province":"Santa Cruz de Tenerife","location":"La Matanza de Acentejo"},{"postal_code":"38310","place":"Posada De Montenegro","province":"Santa Cruz de Tenerife","location":"Orotava, La"},{"postal_code":"38340","place":"Campo De Golf (Tacoronte)","province":"Santa Cruz de Tenerife","location":"Tacoronte"},{"postal_code":"38311","place":"Humboldt (Urbanizacion)","province":"Santa Cruz de Tenerife","location":"Orotava, La"},{"postal_code":"38311","place":"La Florida","province":"Santa Cruz de Tenerife","location":"Orotava, La"},{"postal_code":"38355","place":"Agua Garcia","province":"Santa Cruz de Tenerife","location":"Tacoronte"},{"postal_code":"38311","place":"Florida Alta","province":"Santa Cruz de Tenerife","location":"Orotava, La"},{"postal_code":"38311","place":"La Hondura","province":"Santa Cruz de Tenerife","location":"Orotava, La"},{"postal_code":"38312","place":"San Jeronimo (La Orotava)","province":"Santa Cruz de Tenerife","location":"Orotava, La"},{"postal_code":"38357","place":"Lomo Colorado","province":"Santa Cruz de Tenerife","location":"Tacoronte"},{"postal_code":"38358","place":"Juan Fernandez","province":"Santa Cruz de Tenerife","location":"Tacoronte"},{"postal_code":"38312","place":"Las Candias","province":"Santa Cruz de Tenerife","location":"Orotava, La"},{"postal_code":"38314","place":"Los Rechazos","province":"Santa Cruz de Tenerife","location":"Orotava, La"},{"postal_code":"38314","place":"El Durazno","province":"Santa Cruz de Tenerife","location":"Orotava, La"},{"postal_code":"38360","place":"El Sauzal","province":"Santa Cruz de Tenerife","location":"Sauzal, El"},{"postal_code":"38320","place":"Santa Cruz De Tenerife","province":"Santa Cruz de Tenerife","location":"Santa Cruz de Tenerife"},{"postal_code":"38315","place":"La Perdoma","province":"Santa Cruz de Tenerife","location":"Orotava, La"},{"postal_code":"38379","place":"Toscas De Guia","province":"Santa Cruz de Tenerife","location":"La Matanza de Acentejo"},{"postal_code":"38329","place":"Valle Tabares","province":"Santa Cruz de Tenerife","location":"San Crist�bal de La Laguna"},{"postal_code":"38329","place":"Valle Jimenez","province":"Santa Cruz de Tenerife","location":"San Crist�bal de La Laguna"},{"postal_code":"38389","place":"Los Altos-Arroyos","province":"Santa Cruz de Tenerife","location":"Victoria de Acentejo, La"},{"postal_code":"38340","place":"Luz, La (Tacoronte)","province":"Santa Cruz de Tenerife","location":"Tacoronte"},{"postal_code":"38330","place":"El Pulpito","province":"Santa Cruz de Tenerife","location":"San Crist�bal de La Laguna"},{"postal_code":"38390","place":"Vera, La (Santa Ursula)","province":"Santa Cruz de Tenerife","location":"Santa �rsula"},{"postal_code":"38350","place":"Cantiillo, El (Tacoronte)","province":"Santa Cruz de Tenerife","location":"Tacoronte"},{"postal_code":"38350","place":"Tacoronte","province":"Santa Cruz de Tenerife","location":"Tacoronte"},{"postal_code":"38357","place":"El Adelantado","province":"Santa Cruz de Tenerife","location":"Tacoronte"},{"postal_code":"38398","place":"Tosca De Barrio","province":"Santa Cruz de Tenerife","location":"Santa �rsula"},{"postal_code":"38358","place":"Mesa Del Mar (Urbanizacion)","province":"Santa Cruz de Tenerife","location":"Tacoronte"},{"postal_code":"38356","place":"San Juan Perales","province":"Santa Cruz de Tenerife","location":"Tacoronte"},{"postal_code":"38358","place":"Puerto La Madera","province":"Santa Cruz de Tenerife","location":"Tacoronte"},{"postal_code":"38359","place":"Ravelo","province":"Santa Cruz de Tenerife","location":"Sauzal, El"},{"postal_code":"38358","place":"Guayonje","province":"Santa Cruz de Tenerife","location":"Tacoronte"},{"postal_code":"38370","place":"La Matanza De Acentejo","province":"Santa Cruz de Tenerife","location":"La Matanza de Acentejo"},{"postal_code":"38360","place":"El Puertito","province":"Santa Cruz de Tenerife","location":"Sauzal, El"},{"postal_code":"38379","place":"San Antonio","province":"Santa Cruz de Tenerife","location":"La Matanza de Acentejo"},{"postal_code":"38379","place":"Jagre","province":"Santa Cruz de Tenerife","location":"La Matanza de Acentejo"},{"postal_code":"38390","place":"Santa Ursula","province":"Santa Cruz de Tenerife","location":"Santa �rsula"},{"postal_code":"38389","place":"Resbala, La (La Victoria)","province":"Santa Cruz de Tenerife","location":"Victoria de Acentejo, La"},{"postal_code":"38398","place":"Tosca De Anamaria","province":"Santa Cruz de Tenerife","location":"Santa �rsula"},{"postal_code":"38390","place":"Lomo Roman","province":"Santa Cruz de Tenerife","location":"Santa �rsula"},{"postal_code":"38400","place":"Puerto De La Cruz","province":"Santa Cruz de Tenerife","location":"Puerto de la Cruz"},{"postal_code":"38416","place":"Tigaiga","province":"Santa Cruz de Tenerife","location":"Realejos, Los"},{"postal_code":"38413","place":"Cruz Santa","province":"Santa Cruz de Tenerife","location":"Realejos, Los"},{"postal_code":"38410","place":"Realejo Alto","province":"Santa Cruz de Tenerife","location":"Realejos, Los"},{"postal_code":"38411","place":"Horno, El (Los Realejos)","province":"Santa Cruz de Tenerife"},{"postal_code":"38414","place":"Icod El Alto","province":"Santa Cruz de Tenerife","location":"Realejos, Los"},{"postal_code":"38399","place":"Cantillo","province":"Santa Cruz de Tenerife","location":"Santa �rsula"},{"postal_code":"38419","place":"La Carrera","province":"Santa Cruz de Tenerife","location":"Realejos, Los"},{"postal_code":"38430","place":"San Felipe","province":"Santa Cruz de Tenerife","location":"Icod de los Vinos"},{"postal_code":"38419","place":"Grimona, La (Urbanizacion)","province":"Santa Cruz de Tenerife","location":"Realejos, Los"},{"postal_code":"38419","place":"La Monta�eta","province":"Santa Cruz de Tenerife","location":"Realejos, Los"},{"postal_code":"38399","place":"La Corujera","province":"Santa Cruz de Tenerife","location":"Santa �rsula"},{"postal_code":"38434","place":"Peniche","province":"Santa Cruz de Tenerife","location":"Icod de los Vinos"},{"postal_code":"38428","place":"San Jose","province":"Santa Cruz de Tenerife","location":"San Juan de la Rambla"},{"postal_code":"38411","place":"Mocan, El (Los Realejos)","province":"Santa Cruz de Tenerife"},{"postal_code":"38428","place":"Los Quevedos","province":"Santa Cruz de Tenerife","location":"San Juan de la Rambla"},{"postal_code":"38419","place":"Zamora Alta","province":"Santa Cruz de Tenerife","location":"Realejos, Los"},{"postal_code":"38418","place":"Longuera","province":"Santa Cruz de Tenerife","location":"Realejos, Los"},{"postal_code":"38399","place":"Tamaide (Santa Ursula)","province":"Santa Cruz de Tenerife","location":"Santa �rsula"},{"postal_code":"38435","place":"Ruigomez","province":"Santa Cruz de Tenerife","location":"Silos, Los"},{"postal_code":"38434","place":"Llanito Perera","province":"Santa Cruz de Tenerife","location":"Icod de los Vinos"},{"postal_code":"38415","place":"Llanadas","province":"Santa Cruz de Tenerife","location":"Realejos, Los"},{"postal_code":"38435","place":"El Tanque","province":"Santa Cruz de Tenerife","location":"Silos, Los"},{"postal_code":"38410","place":"Los Realejos","province":"Santa Cruz de Tenerife","location":"Realejos, Los"},{"postal_code":"38434","place":"Las Ca�as","province":"Santa Cruz de Tenerife","location":"Icod de los Vinos"},{"postal_code":"38438","place":"Pedregal","province":"Santa Cruz de Tenerife","location":"Icod de los Vinos"},{"postal_code":"38434","place":"Santa Barbara","province":"Santa Cruz de Tenerife","location":"Icod de los Vinos"},{"postal_code":"38412","place":"Realejo Bajo","province":"Santa Cruz de Tenerife","location":"Realejos, Los"},{"postal_code":"38429","place":"Las Aguas","province":"Santa Cruz de Tenerife","location":"San Juan de la Rambla"},{"postal_code":"38439","place":"La Vega Alta","province":"Santa Cruz de Tenerife","location":"Icod de los Vinos"},{"postal_code":"38441","place":"Santa Catalina (La Guancha)","province":"Santa Cruz de Tenerife","location":"La Guancha"},{"postal_code":"38434","place":"Buen Paso","province":"Santa Cruz de Tenerife","location":"Icod de los Vinos"},{"postal_code":"38413","place":"Ferruja, La (Realejos, Los)","province":"Santa Cruz de Tenerife","location":"Realejos, Los"},{"postal_code":"38441","place":"Crucitas, Las (La Guancha)","province":"Santa Cruz de Tenerife","location":"La Guancha"},{"postal_code":"38439","place":"Mirabal","province":"Santa Cruz de Tenerife","location":"Icod de los Vinos"},{"postal_code":"38430","place":"San Marcos, De (Playa)","province":"Santa Cruz de Tenerife","location":"Icod de los Vinos"},{"postal_code":"38441","place":"Tierra De Costa","province":"Santa Cruz de Tenerife","location":"La Guancha"},{"postal_code":"38438","place":"La Patita","province":"Santa Cruz de Tenerife","location":"Icod de los Vinos"},{"postal_code":"38417","place":"Toscal, El (Los Realejos)","province":"Santa Cruz de Tenerife","location":"Realejos, Los"},{"postal_code":"38435","place":"La Tierra Del Trigo","province":"Santa Cruz de Tenerife","location":"Silos, Los"},{"postal_code":"38415","place":"Palo Blanco (Los Realejos)","province":"Santa Cruz de Tenerife","location":"Realejos, Los"},{"postal_code":"38439","place":"Fuente La Vega","province":"Santa Cruz de Tenerife","location":"Icod de los Vinos"},{"postal_code":"38428","place":"Rosas","province":"Santa Cruz de Tenerife","location":"San Juan de la Rambla"},{"postal_code":"38438","place":"El Amparo","province":"Santa Cruz de Tenerife","location":"Icod de los Vinos"},{"postal_code":"38449","place":"La Sorriba","province":"Santa Cruz de Tenerife","location":"La Guancha"},{"postal_code":"38419","place":"Jardin, El (Los Realejos)","province":"Santa Cruz de Tenerife","location":"Realejos, Los"},{"postal_code":"38441","place":"Santo Domingo","province":"Santa Cruz de Tenerife","location":"La Guancha"},{"postal_code":"38435","place":"Erjos","province":"Santa Cruz de Tenerife","location":"Silos, Los"},{"postal_code":"38434","place":"Belmonte Bajo","province":"Santa Cruz de Tenerife","location":"Icod de los Vinos"},{"postal_code":"38440","place":"Lomo Blanco (Guancha, La)","province":"Santa Cruz de Tenerife","location":"La Guancha"},{"postal_code":"38438","place":"Cueva Del Viento","province":"Santa Cruz de Tenerife","location":"Icod de los Vinos"},{"postal_code":"38450","place":"Garachico","province":"Santa Cruz de Tenerife","location":"Garachico"},{"postal_code":"38459","place":"Genoves","province":"Santa Cruz de Tenerife","location":"Garachico"},{"postal_code":"38460","place":"Cruces, Las (Garachico)","province":"Santa Cruz de Tenerife","location":"Silos, Los"},{"postal_code":"38439","place":"Las Abiertas","province":"Santa Cruz de Tenerife","location":"Icod de los Vinos"},{"postal_code":"38419","place":"San Benito (Los Realejos)","province":"Santa Cruz de Tenerife","location":"Realejos, Los"},{"postal_code":"38440","place":"La Guancha","province":"Santa Cruz de Tenerife","location":"La Guancha"},{"postal_code":"38459","place":"Monta�eta, La (Garachico)","province":"Santa Cruz de Tenerife","location":"Garachico"},{"postal_code":"38449","place":"Hoya Pablos","province":"Santa Cruz de Tenerife","location":"La Guancha"},{"postal_code":"38449","place":"Llano Mendez","province":"Santa Cruz de Tenerife","location":"La Guancha"},{"postal_code":"38441","place":"Convento, El (La Guancha)","province":"Santa Cruz de Tenerife","location":"La Guancha"},{"postal_code":"38441","place":"Las Longueras","province":"Santa Cruz de Tenerife","location":"La Guancha"},{"postal_code":"38460","place":"Caleta De Silos","province":"Santa Cruz de Tenerife","location":"Silos, Los"},{"postal_code":"38530","place":"Las Caletillas","province":"Santa Cruz de Tenerife","location":"Candelaria"},{"postal_code":"38460","place":"Casa Amarilla","province":"Santa Cruz de Tenerife","location":"Silos, Los"},{"postal_code":"38479","place":"Sibora","province":"Santa Cruz de Tenerife","location":"Buenavista del Norte"},{"postal_code":"38489","place":"Las Portelas","province":"Santa Cruz de Tenerife","location":"Buenavista del Norte"},{"postal_code":"38459","place":"San Juan Del Reparo","province":"Santa Cruz de Tenerife","location":"Garachico"},{"postal_code":"38509","place":"Aroba","province":"Santa Cruz de Tenerife","location":"Candelaria"},{"postal_code":"38434","place":"La Mancha","province":"Santa Cruz de Tenerife","location":"Icod de los Vinos"},{"postal_code":"38460","place":"La Caleta De Interian","province":"Santa Cruz de Tenerife","location":"Silos, Los"},{"postal_code":"38489","place":"Masca","province":"Santa Cruz de Tenerife","location":"Buenavista del Norte"},{"postal_code":"38479","place":"Puertito De Los Silos","province":"Santa Cruz de Tenerife","location":"Buenavista del Norte"},{"postal_code":"38430","place":"Icod","province":"Santa Cruz de Tenerife","location":"Icod de los Vinos"},{"postal_code":"38420","place":"San Juan De La Rambla","province":"Santa Cruz de Tenerife","location":"San Juan de la Rambla"},{"postal_code":"38489","place":"Los Carrizales","province":"Santa Cruz de Tenerife","location":"Buenavista del Norte"},{"postal_code":"38470","place":"Los Silos","province":"Santa Cruz de Tenerife","location":"Silos, Los"},{"postal_code":"38508","place":"El Puertito De Guimar","province":"Santa Cruz de Tenerife","location":"G��mar"},{"postal_code":"38434","place":"Florida, La (Icod)","province":"Santa Cruz de Tenerife","location":"Icod de los Vinos"},{"postal_code":"38435","place":"San Jose De Los Llanos","province":"Santa Cruz de Tenerife","location":"Silos, Los"},{"postal_code":"38509","place":"Candelaria, Industrial (Paseo)","province":"Santa Cruz de Tenerife","location":"Candelaria"},{"postal_code":"38479","place":"Barrio De San Jose Bajo","province":"Santa Cruz de Tenerife","location":"Buenavista del Norte"},{"postal_code":"38439","place":"La Vega","province":"Santa Cruz de Tenerife","location":"Icod de los Vinos"},{"postal_code":"38479","place":"San Bernardo","province":"Santa Cruz de Tenerife","location":"Buenavista del Norte"},{"postal_code":"38439","place":"Cruz Del Camino","province":"Santa Cruz de Tenerife","location":"Icod de los Vinos"},{"postal_code":"38489","place":"Teno","province":"Santa Cruz de Tenerife","location":"Buenavista del Norte"},{"postal_code":"38489","place":"El Palmar","province":"Santa Cruz de Tenerife","location":"Buenavista del Norte"},{"postal_code":"38441","place":"Monta�etas, Las (La Guancha)","province":"Santa Cruz de Tenerife","location":"La Guancha"},{"postal_code":"38500","place":"Guimar","province":"Santa Cruz de Tenerife","location":"G��mar"},{"postal_code":"38508","place":"Socorro, El (Guimar)","province":"Santa Cruz de Tenerife","location":"G��mar"},{"postal_code":"38449","place":"El Pinalete","province":"Santa Cruz de Tenerife","location":"La Guancha"},{"postal_code":"38509","place":"Brillasol","province":"Santa Cruz de Tenerife","location":"Candelaria"},{"postal_code":"38460","place":"San Pedro De Daute","province":"Santa Cruz de Tenerife","location":"Silos, Los"},{"postal_code":"38458","place":"Guincho, El (Garachico)","province":"Santa Cruz de Tenerife","location":"Garachico"},{"postal_code":"38510","place":"Barranco Hondo","province":"Santa Cruz de Tenerife","location":"Rosario, El"},{"postal_code":"38470","place":"El Casco","province":"Santa Cruz de Tenerife","location":"Silos, Los"},{"postal_code":"38480","place":"Buenavista Del Norte","province":"Santa Cruz de Tenerife","location":"Buenavista del Norte"},{"postal_code":"38509","place":"La Viuda","province":"Santa Cruz de Tenerife","location":"Candelaria"},{"postal_code":"38489","place":"Lagunetas (Buenavista)","province":"Santa Cruz de Tenerife","location":"Buenavista del Norte"},{"postal_code":"38520","place":"Igueste De Candelaria","province":"Santa Cruz de Tenerife","location":"Candelaria"},{"postal_code":"38540","place":"Las Cuevecitas","province":"Santa Cruz de Tenerife","location":"Candelaria"},{"postal_code":"38579","place":"Sabina Alta (Fasnia)","province":"Santa Cruz de Tenerife","location":"Fasnia"},{"postal_code":"38560","place":"Pajara (Guimar)","province":"Santa Cruz de Tenerife","location":"G��mar"},{"postal_code":"38550","place":"Arafo","province":"Santa Cruz de Tenerife","location":"Arafo"},{"postal_code":"38550","place":"La Hidalga","province":"Santa Cruz de Tenerife","location":"Arafo"},{"postal_code":"38570","place":"Roque, Los (Fasnia)","province":"Santa Cruz de Tenerife","location":"Fasnia"},{"postal_code":"38589","place":"Degollada, La (Arico)","province":"Santa Cruz de Tenerife","location":"Arico"},{"postal_code":"38588","place":"La Jaca","province":"Santa Cruz de Tenerife","location":"Arico"},{"postal_code":"38588","place":"Faro De Abona","province":"Santa Cruz de Tenerife","location":"Arico"},{"postal_code":"38580","place":"Villa De Arico","province":"Santa Cruz de Tenerife","location":"Arico"},{"postal_code":"38589","place":"Arico El Nuevo","province":"Santa Cruz de Tenerife","location":"Arico"},{"postal_code":"38540","place":"Malpais (Araya)","province":"Santa Cruz de Tenerife","location":"Candelaria"},{"postal_code":"38589","place":"La Cisnera","province":"Santa Cruz de Tenerife","location":"Arico"},{"postal_code":"38612","place":"El Medano","province":"Santa Cruz de Tenerife","location":"Granadilla de Abona"},{"postal_code":"38614","place":"La Escalona","province":"Santa Cruz de Tenerife","location":"Vilaflor"},{"postal_code":"38530","place":"Candelaria","province":"Santa Cruz de Tenerife","location":"Candelaria"},{"postal_code":"38592","place":"Icor","province":"Santa Cruz de Tenerife","location":"Arico"},{"postal_code":"38611","place":"Chuchurumbache","province":"Santa Cruz de Tenerife","location":"Granadilla de Abona"},{"postal_code":"38591","place":"El Tablado","province":"Santa Cruz de Tenerife","location":"G��mar"},{"postal_code":"38616","place":"Vicacaro","province":"Santa Cruz de Tenerife","location":"Granadilla de Abona"},{"postal_code":"38610","place":"Aeropuerto Reina Sofia (Santa Cruz De Tenerife)","province":"Santa Cruz de Tenerife"},{"postal_code":"38540","place":"Araya","province":"Santa Cruz de Tenerife","location":"Candelaria"},{"postal_code":"38611","place":"Casablanca (Granadilla)","province":"Santa Cruz de Tenerife","location":"Granadilla de Abona"},{"postal_code":"38594","place":"Chimiche","province":"Santa Cruz de Tenerife","location":"Granadilla de Abona"},{"postal_code":"38591","place":"El Escobonal","province":"Santa Cruz de Tenerife","location":"G��mar"},{"postal_code":"38595","place":"Charco Del Pino","province":"Santa Cruz de Tenerife","location":"Granadilla de Abona"},{"postal_code":"38616","place":"Los Blanquitos","province":"Santa Cruz de Tenerife","location":"Granadilla de Abona"},{"postal_code":"38617","place":"Yaco","province":"Santa Cruz de Tenerife","location":"Granadilla de Abona"},{"postal_code":"38616","place":"Cruz De Tea (Granadilla)","province":"Santa Cruz de Tenerife","location":"Granadilla de Abona"},{"postal_code":"38560","place":"La Medida","province":"Santa Cruz de Tenerife","location":"G��mar"},{"postal_code":"38617","place":"Llanos, Los (Granadilla)","province":"Santa Cruz de Tenerife","location":"Granadilla de Abona"},{"postal_code":"38616","place":"El Desierto","province":"Santa Cruz de Tenerife","location":"Granadilla de Abona"},{"postal_code":"38619","place":"Granadilla (Poligono Industrial)","province":"Santa Cruz de Tenerife"},{"postal_code":"38560","place":"Punta Prieta","province":"Santa Cruz de Tenerife","location":"G��mar"},{"postal_code":"38550","place":"El Carreton","province":"Santa Cruz de Tenerife","location":"Arafo"},{"postal_code":"38570","place":"Fasnia","province":"Santa Cruz de Tenerife","location":"Fasnia"},{"postal_code":"38629","place":"El Roque","province":"Santa Cruz de Tenerife","location":"San Miguel de Abona"},{"postal_code":"38628","place":"Las Zocas","province":"Santa Cruz de Tenerife","location":"San Miguel de Abona"},{"postal_code":"38632","place":"Guargacho","province":"Santa Cruz de Tenerife","location":"Arona"},{"postal_code":"38628","place":"Aldea Blanca","province":"Santa Cruz de Tenerife","location":"San Miguel de Abona"},{"postal_code":"38627","place":"Buzanada","province":"Santa Cruz de Tenerife","location":"Arona"},{"postal_code":"38631","place":"Las Galletas","province":"Santa Cruz de Tenerife","location":"Arona"},{"postal_code":"38627","place":"Cabo Blanco","province":"Santa Cruz de Tenerife","location":"Arona"},{"postal_code":"38626","place":"Los Toscales","province":"Santa Cruz de Tenerife","location":"Arona"},{"postal_code":"38629","place":"El Fronton","province":"Santa Cruz de Tenerife","location":"San Miguel de Abona"},{"postal_code":"38579","place":"La Zarza","province":"Santa Cruz de Tenerife","location":"Fasnia"},{"postal_code":"38632","place":"Fraile","province":"Santa Cruz de Tenerife","location":"Arona"},{"postal_code":"38570","place":"Eras, Las (Fasnia)","province":"Santa Cruz de Tenerife","location":"Fasnia"},{"postal_code":"38632","place":"Palm-Mar","province":"Santa Cruz de Tenerife","location":"Arona"},{"postal_code":"38588","place":"Poris De Abona","province":"Santa Cruz de Tenerife","location":"Arico"},{"postal_code":"38579","place":"Sombrera, La (Fasnia)","province":"Santa Cruz de Tenerife","location":"Fasnia"},{"postal_code":"38588","place":"Casablanca (Poris)","province":"Santa Cruz de Tenerife","location":"Arico"},{"postal_code":"38588","place":"San Miguel De Tajao","province":"Santa Cruz de Tenerife","location":"Arico"},{"postal_code":"38589","place":"Los Gavilanes","province":"Santa Cruz de Tenerife","location":"Arico"},{"postal_code":"38588","place":"Punta De Abona","province":"Santa Cruz de Tenerife","location":"Arico"},{"postal_code":"38589","place":"Teguedite","province":"Santa Cruz de Tenerife","location":"Arico"},{"postal_code":"38589","place":"Arico El Viejo","province":"Santa Cruz de Tenerife","location":"Arico"},{"postal_code":"38589","place":"La Sabinita","province":"Santa Cruz de Tenerife","location":"Arico"},{"postal_code":"38591","place":"Chimaje","province":"Santa Cruz de Tenerife","location":"G��mar"},{"postal_code":"38590","place":"Lomo De Mena","province":"Santa Cruz de Tenerife","location":"G��mar"},{"postal_code":"38591","place":"Aguerche","province":"Santa Cruz de Tenerife","location":"G��mar"},{"postal_code":"38594","place":"Rosas, Las (Granadilla)","province":"Santa Cruz de Tenerife","location":"Granadilla de Abona"},{"postal_code":"38592","place":"Eras, Las (Arico)","province":"Santa Cruz de Tenerife","location":"Arico"},{"postal_code":"38593","place":"El Rio De Arico","province":"Santa Cruz de Tenerife","location":"Arico"},{"postal_code":"38611","place":"San Isidro De Abona","province":"Santa Cruz de Tenerife","location":"Granadilla de Abona"},{"postal_code":"38600","place":"Granadilla","province":"Santa Cruz de Tenerife","location":"Granadilla de Abona"},{"postal_code":"38594","place":"Vegas, Las (Granadilla)","province":"Santa Cruz de Tenerife","location":"Granadilla de Abona"},{"postal_code":"38611","place":"Castro","province":"Santa Cruz de Tenerife","location":"Granadilla de Abona"},{"postal_code":"38611","place":"Vistas De Yaco","province":"Santa Cruz de Tenerife","location":"Granadilla de Abona"},{"postal_code":"38613","place":"Vilaflor","province":"Santa Cruz de Tenerife","location":"Vilaflor"},{"postal_code":"38611","place":"Atogo","province":"Santa Cruz de Tenerife","location":"Granadilla de Abona"},{"postal_code":"38611","place":"Monta�a De Yaco","province":"Santa Cruz de Tenerife","location":"Granadilla de Abona"},{"postal_code":"38615","place":"Ifonche","province":"Santa Cruz de Tenerife","location":"Adeje"},{"postal_code":"38615","place":"Trevejos","province":"Santa Cruz de Tenerife","location":"Adeje"},{"postal_code":"38616","place":"Los Barrancos","province":"Santa Cruz de Tenerife","location":"Granadilla de Abona"},{"postal_code":"38616","place":"Higuera, La (Granadilla)","province":"Santa Cruz de Tenerife","location":"Granadilla de Abona"},{"postal_code":"38616","place":"Chavez","province":"Santa Cruz de Tenerife","location":"Granadilla de Abona"},{"postal_code":"38617","place":"Las Palomas","province":"Santa Cruz de Tenerife","location":"Granadilla de Abona"},{"postal_code":"38616","place":"Cruz De Las Animas","province":"Santa Cruz de Tenerife","location":"Granadilla de Abona"},{"postal_code":"38617","place":"El Salto","province":"Santa Cruz de Tenerife","location":"Granadilla de Abona"},{"postal_code":"38617","place":"El Draguito","province":"Santa Cruz de Tenerife","location":"Granadilla de Abona"},{"postal_code":"38617","place":"Vista Gorda","province":"Santa Cruz de Tenerife","location":"Granadilla de Abona"},{"postal_code":"38618","place":"Los Abrigos","province":"Santa Cruz de Tenerife","location":"Granadilla de Abona"},{"postal_code":"38626","place":"Valle De San Lorenzo","province":"Santa Cruz de Tenerife","location":"Arona"},{"postal_code":"38620","place":"San Miguel De Abona","province":"Santa Cruz de Tenerife","location":"San Miguel de Abona"},{"postal_code":"38627","place":"La Camella","province":"Santa Cruz de Tenerife","location":"Arona"},{"postal_code":"38627","place":"Barranco Oscuro","province":"Santa Cruz de Tenerife","location":"Arona"},{"postal_code":"38626","place":"Cruz De Guanche","province":"Santa Cruz de Tenerife","location":"Arona"},{"postal_code":"38627","place":"Los Bebederos","province":"Santa Cruz de Tenerife","location":"Arona"},{"postal_code":"38628","place":"Asomada","province":"Santa Cruz de Tenerife","location":"San Miguel de Abona"},{"postal_code":"38628","place":"Tamaide (San Miguel)","province":"Santa Cruz de Tenerife","location":"San Miguel de Abona"},{"postal_code":"38629","place":"Jama","province":"Santa Cruz de Tenerife","location":"San Miguel de Abona"},{"postal_code":"38630","place":"Costa Del Silencio","province":"Santa Cruz de Tenerife","location":"Arona"},{"postal_code":"38630","place":"Ten-Bel (Urbanizacion)","province":"Santa Cruz de Tenerife","location":"Arona"},{"postal_code":"38629","place":"Asomada Alta","province":"Santa Cruz de Tenerife","location":"San Miguel de Abona"},{"postal_code":"38631","place":"Rosas, Las (Las Galletas)","province":"Santa Cruz de Tenerife","location":"Arona"},{"postal_code":"38632","place":"Guaza","province":"Santa Cruz de Tenerife","location":"Arona"},{"postal_code":"38632","place":"Reina, La (Parque)","province":"Santa Cruz de Tenerife","location":"Arona"},{"postal_code":"38639","place":"Golf Del Sur","province":"Santa Cruz de Tenerife","location":"Arona"},{"postal_code":"38632","place":"Cho","province":"Santa Cruz de Tenerife","location":"Arona"},{"postal_code":"38649","place":"Vento","province":"Santa Cruz de Tenerife","location":"Arona"},{"postal_code":"38649","place":"Tunez","province":"Santa Cruz de Tenerife","location":"Arona"},{"postal_code":"38660","place":"La Caldera","province":"Santa Cruz de Tenerife","location":"Adeje"},{"postal_code":"38660","place":"Costa Adeje-San Eugenio","province":"Santa Cruz de Tenerife","location":"Adeje"},{"postal_code":"38640","place":"Arona","province":"Santa Cruz de Tenerife","location":"Arona"},{"postal_code":"38650","place":"Playa De Los Cristianos","province":"Santa Cruz de Tenerife","location":"Arona"},{"postal_code":"38639","place":"Guincho, El (San Miguel)","province":"Santa Cruz de Tenerife","location":"Arona"},{"postal_code":"38677","place":"La Concepcion","province":"Santa Cruz de Tenerife","location":"Adeje"},{"postal_code":"38678","place":"El Puertito De Adeje","province":"Santa Cruz de Tenerife","location":"Adeje"},{"postal_code":"38677","place":"Tijoco Bajo","province":"Santa Cruz de Tenerife","location":"Adeje"},{"postal_code":"38639","place":"Amarilla Golf","province":"Santa Cruz de Tenerife","location":"Arona"},{"postal_code":"38686","place":"Cueva Del Polvo","province":"Santa Cruz de Tenerife","location":"Gu�a de Isora"},{"postal_code":"38687","place":"Aguadulce","province":"Santa Cruz de Tenerife","location":"Gu�a de Isora"},{"postal_code":"38678","place":"Marazul","province":"Santa Cruz de Tenerife","location":"Adeje"},{"postal_code":"38688","place":"Pozo, El (Guia De Isora)","province":"Santa Cruz de Tenerife","location":"Gu�a de Isora"},{"postal_code":"38683","place":"Acantilados De Los Gigantes","province":"Santa Cruz de Tenerife","location":"Santiago del Teide"},{"postal_code":"38677","place":"Tijoco Alto","province":"Santa Cruz de Tenerife","location":"Adeje"},{"postal_code":"38652","place":"Chayofa","province":"Santa Cruz de Tenerife","location":"Arona"},{"postal_code":"38670","place":"Las Torres","province":"Santa Cruz de Tenerife","location":"Adeje"},{"postal_code":"38639","place":"Chafiras, Las (San Miguel De Abona)","province":"Santa Cruz de Tenerife","location":"Arona"},{"postal_code":"38684","place":"Tamaimo (Santiago Del Teide)","province":"Santa Cruz de Tenerife","location":"Santiago del Teide"},{"postal_code":"38649","place":"Casas, Las (Arona)","province":"Santa Cruz de Tenerife","location":"Arona"},{"postal_code":"38677","place":"Quinta, La (Adeje)","province":"Santa Cruz de Tenerife","location":"Adeje"},{"postal_code":"38688","place":"Lomo Del Balo (Guia I.)","province":"Santa Cruz de Tenerife","location":"Gu�a de Isora"},{"postal_code":"38649","place":"Monta�a Fria","province":"Santa Cruz de Tenerife","location":"Arona"},{"postal_code":"38690","place":"Santiago Del Teide","province":"Santa Cruz de Tenerife","location":"Santiago del Teide"},{"postal_code":"38677","place":"Taucho","province":"Santa Cruz de Tenerife","location":"Adeje"},{"postal_code":"38679","place":"Fa�abe","province":"Santa Cruz de Tenerife","location":"Adeje"},{"postal_code":"38687","place":"Playa San Juan","province":"Santa Cruz de Tenerife","location":"Gu�a de Isora"},{"postal_code":"38678","place":"Callao Salvaje","province":"Santa Cruz de Tenerife","location":"Adeje"},{"postal_code":"38649","place":"Sabinita Alta","province":"Santa Cruz de Tenerife","location":"Arona"},{"postal_code":"38710","place":"Bre�a Alta","province":"Santa Cruz de Tenerife","location":"Bre�a Alta"},{"postal_code":"38688","place":"Acojeja","province":"Santa Cruz de Tenerife","location":"Gu�a de Isora"},{"postal_code":"38660","place":"Costa Adeje","province":"Santa Cruz de Tenerife","location":"Adeje"},{"postal_code":"38660","place":"Costa Adeje-Playas De Fa�abe","province":"Santa Cruz de Tenerife","location":"Adeje"},{"postal_code":"38714","place":"Lomo Pi�edo","province":"Santa Cruz de Tenerife","location":"Puntallana"},{"postal_code":"38712","place":"Los Cancajos","province":"Santa Cruz de Tenerife","location":"Bre�a Alta"},{"postal_code":"38688","place":"Chirche","province":"Santa Cruz de Tenerife","location":"Gu�a de Isora"},{"postal_code":"38687","place":"Piedra Hincada","province":"Santa Cruz de Tenerife","location":"Gu�a de Isora"},{"postal_code":"38713","place":"Cuesta, La (Bre�a Alta)","province":"Santa Cruz de Tenerife","location":"Bre�a Alta"},{"postal_code":"38714","place":"San Bartolome (Puntallana)","province":"Santa Cruz de Tenerife","location":"Puntallana"},{"postal_code":"38685","place":"Tejina De Isora","province":"Santa Cruz de Tenerife","location":"Gu�a de Isora"},{"postal_code":"38690","place":"Molledo","province":"Santa Cruz de Tenerife","location":"Santiago del Teide"},{"postal_code":"38670","place":"Adeje Casco","province":"Santa Cruz de Tenerife","location":"Adeje"},{"postal_code":"38713","place":"Belhoco","province":"Santa Cruz de Tenerife","location":"Bre�a Alta"},{"postal_code":"38687","place":"Abama","province":"Santa Cruz de Tenerife","location":"Gu�a de Isora"},{"postal_code":"38688","place":"El Jaral","province":"Santa Cruz de Tenerife","location":"Gu�a de Isora"},{"postal_code":"38715","place":"La Camacha","province":"Santa Cruz de Tenerife","location":"Puntallana"},{"postal_code":"38677","place":"Moraditas, Las (Adeje)","province":"Santa Cruz de Tenerife","location":"Adeje"},{"postal_code":"38726","place":"Lomo Machin","province":"Santa Cruz de Tenerife","location":"Barlovento"},{"postal_code":"38670","place":"Las Nieves","province":"Santa Cruz de Tenerife","location":"Adeje"},{"postal_code":"38678","place":"Arme�ime","province":"Santa Cruz de Tenerife","location":"Adeje"},{"postal_code":"38680","place":"Guia De Isora","province":"Santa Cruz de Tenerife","location":"Gu�a de Isora"},{"postal_code":"38690","place":"Manchas, Las (Santiago Del Teide)","province":"Santa Cruz de Tenerife","location":"Santiago del Teide"},{"postal_code":"38688","place":"Vera De Erques","province":"Santa Cruz de Tenerife","location":"Gu�a de Isora"},{"postal_code":"38689","place":"Chio","province":"Santa Cruz de Tenerife","location":"Gu�a de Isora"},{"postal_code":"38688","place":"Aripe","province":"Santa Cruz de Tenerife","location":"Gu�a de Isora"},{"postal_code":"38686","place":"Alcala","province":"Santa Cruz de Tenerife","location":"Gu�a de Isora"},{"postal_code":"38687","place":"Fonsalia","province":"Santa Cruz de Tenerife","location":"Gu�a de Isora"},{"postal_code":"38711","place":"La Polvacera","province":"Santa Cruz de Tenerife","location":"Bre�a Baja"},{"postal_code":"38690","place":"Arguayo","province":"Santa Cruz de Tenerife","location":"Santiago del Teide"},{"postal_code":"38677","place":"Los Menores","province":"Santa Cruz de Tenerife","location":"Adeje"},{"postal_code":"38711","place":"San Antonio De Bre�a","province":"Santa Cruz de Tenerife","location":"Bre�a Baja"},{"postal_code":"38713","place":"Alamos, Los (Santa Cruz De La Palma)","province":"Santa Cruz de Tenerife","location":"Bre�a Alta"},{"postal_code":"38700","place":"Santa Cruz De La Palma","province":"Santa Cruz de Tenerife","location":"Santa Cruz de la Palma"},{"postal_code":"38713","place":"Buenavista De Abajo","province":"Santa Cruz de Tenerife","location":"Bre�a Alta"},{"postal_code":"38714","place":"Galga, La (Puntallana)","province":"Santa Cruz de Tenerife","location":"Puntallana"},{"postal_code":"38715","place":"Puntallana","province":"Santa Cruz de Tenerife","location":"Puntallana"},{"postal_code":"38712","place":"Monta�a La Bre�a","province":"Santa Cruz de Tenerife","location":"Bre�a Alta"},{"postal_code":"38678","place":"Las Cancelas","province":"Santa Cruz de Tenerife","location":"Adeje"},{"postal_code":"38690","place":"Retamar, El (Santiago Del Teide)","province":"Santa Cruz de Tenerife","location":"Santiago del Teide"},{"postal_code":"38715","place":"Candelaria (Santa Cruz De La Palma)","province":"Santa Cruz de Tenerife","location":"Puntallana"},{"postal_code":"38712","place":"Las Ledas","province":"Santa Cruz de Tenerife","location":"Bre�a Alta"},{"postal_code":"38712","place":"El Fuerte","province":"Santa Cruz de Tenerife","location":"Bre�a Alta"},{"postal_code":"38683","place":"Puerto De Santiago","province":"Santa Cruz de Tenerife","location":"Santiago del Teide"},{"postal_code":"38713","place":"Nieves, Las (Santa Cruz De La Palma)","province":"Santa Cruz de Tenerife","location":"Bre�a Alta"},{"postal_code":"38686","place":"El Varadero","province":"Santa Cruz de Tenerife","location":"Gu�a de Isora"},{"postal_code":"38688","place":"Chiguergue","province":"Santa Cruz de Tenerife","location":"Gu�a de Isora"},{"postal_code":"38687","place":"Aponte","province":"Santa Cruz de Tenerife","location":"Gu�a de Isora"},{"postal_code":"38712","place":"El Socorro","province":"Santa Cruz de Tenerife","location":"Bre�a Alta"},{"postal_code":"38713","place":"Buenavista De Arriba","province":"Santa Cruz de Tenerife","location":"Bre�a Alta"},{"postal_code":"38714","place":"Lomo El Corcho","province":"Santa Cruz de Tenerife","location":"Puntallana"},{"postal_code":"38714","place":"El Posito","province":"Santa Cruz de Tenerife","location":"Puntallana"},{"postal_code":"38714","place":"Llano Molino","province":"Santa Cruz de Tenerife","location":"Puntallana"},{"postal_code":"38712","place":"San Jose De Bre�a Baja","province":"Santa Cruz de Tenerife","location":"Bre�a Alta"},{"postal_code":"38688","place":"La Gambueza","province":"Santa Cruz de Tenerife","location":"Gu�a de Isora"},{"postal_code":"38715","place":"Lomadilla","province":"Santa Cruz de Tenerife","location":"Puntallana"},{"postal_code":"38714","place":"Lomo Estrecho","province":"Santa Cruz de Tenerife","location":"Puntallana"},{"postal_code":"38690","place":"Valle De Arriba","province":"Santa Cruz de Tenerife","location":"Santiago del Teide"},{"postal_code":"38713","place":"Barranco Del Rio","province":"Santa Cruz de Tenerife","location":"Bre�a Alta"},{"postal_code":"38713","place":"Las Tierritas","province":"Santa Cruz de Tenerife","location":"Bre�a Alta"},{"postal_code":"38713","place":"Botazo","province":"Santa Cruz de Tenerife","location":"Bre�a Alta"},{"postal_code":"38714","place":"Cercado Pe�on (Puntallana)","province":"Santa Cruz de Tenerife","location":"Puntallana"},{"postal_code":"38700","place":"Morro, El (Santa Cruz De La Palma)","province":"Santa Cruz de Tenerife","location":"Santa Cruz de la Palma"},{"postal_code":"38714","place":"El Granel","province":"Santa Cruz de Tenerife","location":"Puntallana"},{"postal_code":"38715","place":"El Taboco","province":"Santa Cruz de Tenerife","location":"Puntallana"},{"postal_code":"38715","place":"Lomo De Los Gomeros","province":"Santa Cruz de Tenerife","location":"Puntallana"},{"postal_code":"38726","place":"Barlovento","province":"Santa Cruz de Tenerife","location":"Barlovento"},{"postal_code":"38715","place":"Toscas, Las (Santa Cruz De La Palma)","province":"Santa Cruz de Tenerife","location":"Puntallana"},{"postal_code":"38720","place":"San Andres Y Sauces","province":"Santa Cruz de Tenerife","location":"San Andr�s y Sauces"},{"postal_code":"38727","place":"Marantes","province":"Santa Cruz de Tenerife","location":"Barlovento"},{"postal_code":"38727","place":"Gallegos","province":"Santa Cruz de Tenerife","location":"Barlovento"},{"postal_code":"38727","place":"Lomo Quinto","province":"Santa Cruz de Tenerife","location":"Barlovento"},{"postal_code":"38727","place":"Lomo Romero","province":"Santa Cruz de Tenerife","location":"Barlovento"},{"postal_code":"38727","place":"Topaciegas","province":"Santa Cruz de Tenerife","location":"Barlovento"},{"postal_code":"38728","place":"Roque Faro","province":"Santa Cruz de Tenerife","location":"Garaf�a"},{"postal_code":"38729","place":"San Juan (San Andres Y Sauces)","province":"Santa Cruz de Tenerife","location":"San Andr�s y Sauces"},{"postal_code":"38727","place":"Tosca, La (Barlovento)","province":"Santa Cruz de Tenerife","location":"Barlovento"},{"postal_code":"38738","place":"Monte De Luna","province":"Santa Cruz de Tenerife","location":"Villa de Mazo"},{"postal_code":"38726","place":"Las Paredes","province":"Santa Cruz de Tenerife","location":"Barlovento"},{"postal_code":"38729","place":"Bermudez","province":"Santa Cruz de Tenerife","location":"San Andr�s y Sauces"},{"postal_code":"38738","place":"San Simon","province":"Santa Cruz de Tenerife","location":"Villa de Mazo"},{"postal_code":"38726","place":"Lomo Machin Alto","province":"Santa Cruz de Tenerife","location":"Barlovento"},{"postal_code":"38749","place":"Caletas, Las (Fuencalite)","province":"Santa Cruz de Tenerife","location":"Fuencaliente de la Palma"},{"postal_code":"38739","place":"Monte Pueblo","province":"Santa Cruz de Tenerife","location":"Villa de Mazo"},{"postal_code":"38729","place":"Verada De Lomadas","province":"Santa Cruz de Tenerife","location":"San Andr�s y Sauces"},{"postal_code":"38738","place":"Malpaises","province":"Santa Cruz de Tenerife","location":"Villa de Mazo"},{"postal_code":"38727","place":"Oropesa","province":"Santa Cruz de Tenerife","location":"Barlovento"},{"postal_code":"38729","place":"Llano Del Pino","province":"Santa Cruz de Tenerife","location":"San Andr�s y Sauces"},{"postal_code":"38729","place":"Verada De Bajamar","province":"Santa Cruz de Tenerife","location":"San Andr�s y Sauces"},{"postal_code":"38729","place":"Roque, El (San Andres Y Sauces)","province":"Santa Cruz de Tenerife","location":"San Andr�s y Sauces"},{"postal_code":"38727","place":"Palmita, La (Barlovento)","province":"Santa Cruz de Tenerife","location":"Barlovento"},{"postal_code":"38738","place":"Aeropuerto De La Palma","province":"Santa Cruz de Tenerife","location":"Villa de Mazo"},{"postal_code":"38740","place":"Fuencaliente","province":"Santa Cruz de Tenerife","location":"Fuencaliente de la Palma"},{"postal_code":"38758","place":"Rosa, La (El Paso)","province":"Santa Cruz de Tenerife","location":"Paso, El"},{"postal_code":"38759","place":"Manchas, Las (El Paso)","province":"Santa Cruz de Tenerife","location":"Llanos de Aridane, Los"},{"postal_code":"38727","place":"Cuesta, La (Barlovento)","province":"Santa Cruz de Tenerife","location":"Barlovento"},{"postal_code":"38767","place":"Rosas, Las (Los Llanos)","province":"Santa Cruz de Tenerife","location":"Llanos de Aridane, Los"},{"postal_code":"38738","place":"Tiguerorte","province":"Santa Cruz de Tenerife","location":"Villa de Mazo"},{"postal_code":"38730","place":"Mazo","province":"Santa Cruz de Tenerife","location":"Villa de Mazo"},{"postal_code":"38739","place":"Rosa, La (Mazo)","province":"Santa Cruz de Tenerife","location":"Villa de Mazo"},{"postal_code":"38759","place":"Malpais (El Paso)","province":"Santa Cruz de Tenerife","location":"Llanos de Aridane, Los"},{"postal_code":"38769","place":"Puerto De Naos","province":"Santa Cruz de Tenerife","location":"Llanos de Aridane, Los"},{"postal_code":"38750","place":"El Paso","province":"Santa Cruz de Tenerife","location":"Paso, El"},{"postal_code":"38779","place":"El Puerto De Tazacorte","province":"Santa Cruz de Tenerife","location":"Tazacorte"},{"postal_code":"38760","place":"Retamar (Los Llanos)","province":"Santa Cruz de Tenerife","location":"Llanos de Aridane, Los"},{"postal_code":"38727","place":"Cabezadas Bajas","province":"Santa Cruz de Tenerife","location":"Barlovento"},{"postal_code":"38780","place":"El Jesus","province":"Santa Cruz de Tenerife","location":"Tijarafe"},{"postal_code":"38769","place":"La Condesa","province":"Santa Cruz de Tenerife","location":"Llanos de Aridane, Los"},{"postal_code":"38788","place":"Las Tricias","province":"Santa Cruz de Tenerife","location":"Garaf�a"},{"postal_code":"38769","place":"Casa De La Bombilla","province":"Santa Cruz de Tenerife","location":"Llanos de Aridane, Los"},{"postal_code":"38739","place":"Monte Bre�as","province":"Santa Cruz de Tenerife","location":"Villa de Mazo"},{"postal_code":"38758","place":"Barrial De Arriba","province":"Santa Cruz de Tenerife","location":"Paso, El"},{"postal_code":"38727","place":"Lomo De Los Castros","province":"Santa Cruz de Tenerife","location":"Barlovento"},{"postal_code":"38768","place":"Barros, Los (Los Llanos De Aridane)","province":"Santa Cruz de Tenerife","location":"Llanos de Aridane, Los"},{"postal_code":"38779","place":"Marina","province":"Santa Cruz de Tenerife","location":"Tazacorte"},{"postal_code":"38780","place":"Punta, La (Tijarafe)","province":"Santa Cruz de Tenerife","location":"Tijarafe"},{"postal_code":"38769","place":"El Remo","province":"Santa Cruz de Tenerife","location":"Llanos de Aridane, Los"},{"postal_code":"38759","place":"Paso De Abajo","province":"Santa Cruz de Tenerife","location":"Llanos de Aridane, Los"},{"postal_code":"38789","place":"Puntagorda","province":"Santa Cruz de Tenerife","location":"Tijarafe"},{"postal_code":"38729","place":"Quinta Zoca","province":"Santa Cruz de Tenerife","location":"San Andr�s y Sauces"},{"postal_code":"38749","place":"Quemados, Los (Fuencaliente)","province":"Santa Cruz de Tenerife","location":"Fuencaliente de la Palma"},{"postal_code":"38787","place":"Garafia","province":"Santa Cruz de Tenerife","location":"Garaf�a"},{"postal_code":"38780","place":"Aguatavar","province":"Santa Cruz de Tenerife","location":"Tijarafe"},{"postal_code":"38729","place":"San Andres De La Palma","province":"Santa Cruz de Tenerife","location":"San Andr�s y Sauces"},{"postal_code":"38738","place":"Sabina, La (Mazo)","province":"Santa Cruz de Tenerife","location":"Villa de Mazo"},{"postal_code":"38729","place":"Ramirez","province":"Santa Cruz de Tenerife","location":"San Andr�s y Sauces"},{"postal_code":"38788","place":"Hoya Grande (Garafia)","province":"Santa Cruz de Tenerife","location":"Garaf�a"},{"postal_code":"38738","place":"Lomo Oscuro","province":"Santa Cruz de Tenerife","location":"Villa de Mazo"},{"postal_code":"38758","place":"Tacande De Arriba (El Paso)","province":"Santa Cruz de Tenerife","location":"Paso, El"},{"postal_code":"38800","place":"San Sebastian Gomera","province":"Santa Cruz de Tenerife","location":"San Sebasti�n de la Gomera"},{"postal_code":"38739","place":"Lodero","province":"Santa Cruz de Tenerife","location":"Villa de Mazo"},{"postal_code":"38729","place":"La Fuente Nueva","province":"Santa Cruz de Tenerife","location":"San Andr�s y Sauces"},{"postal_code":"38758","place":"Barrial De Abajo","province":"Santa Cruz de Tenerife","location":"Paso, El"},{"postal_code":"38759","place":"Cuatro Caminos (Llanos)","province":"Santa Cruz de Tenerife","location":"Llanos de Aridane, Los"},{"postal_code":"38749","place":"Las Indias","province":"Santa Cruz de Tenerife","location":"Fuencaliente de la Palma"},{"postal_code":"38759","place":"Tacande Abajo (El Paso)","province":"Santa Cruz de Tenerife","location":"Llanos de Aridane, Los"},{"postal_code":"38780","place":"Pueblo, El (Tijarafe)","province":"Santa Cruz de Tenerife","location":"Tijarafe"},{"postal_code":"38768","place":"Hermosilla","province":"Santa Cruz de Tenerife","location":"Llanos de Aridane, Los"},{"postal_code":"38738","place":"Tigalate Abajo","province":"Santa Cruz de Tenerife","location":"Villa de Mazo"},{"postal_code":"38769","place":"Tajuya","province":"Santa Cruz de Tenerife","location":"Llanos de Aridane, Los"},{"postal_code":"38770","place":"Tazacorte","province":"Santa Cruz de Tenerife","location":"Tazacorte"},{"postal_code":"38759","place":"Jedey (El Paso)","province":"Santa Cruz de Tenerife","location":"Llanos de Aridane, Los"},{"postal_code":"38788","place":"Castillo, El (Garafia)","province":"Santa Cruz de Tenerife","location":"Garaf�a"},{"postal_code":"38759","place":"Manchas De Abajo","province":"Santa Cruz de Tenerife","location":"Llanos de Aridane, Los"},{"postal_code":"38738","place":"Callejones De Abajo","province":"Santa Cruz de Tenerife","location":"Villa de Mazo"},{"postal_code":"38760","place":"Argual","province":"Santa Cruz de Tenerife","location":"Llanos de Aridane, Los"},{"postal_code":"38780","place":"Tijarafe","province":"Santa Cruz de Tenerife","location":"Tijarafe"},{"postal_code":"38789","place":"Pinar, El (Puntagorda)","province":"Santa Cruz de Tenerife","location":"Tijarafe"},{"postal_code":"38760","place":"Llanos De Aridane","province":"Santa Cruz de Tenerife","location":"Llanos de Aridane, Los"},{"postal_code":"38739","place":"El Poleal","province":"Santa Cruz de Tenerife","location":"Villa de Mazo"},{"postal_code":"38768","place":"Pedregales, Los (Los Llanos De Aridane)","province":"Santa Cruz de Tenerife","location":"Llanos de Aridane, Los"},{"postal_code":"38749","place":"El Charco","province":"Santa Cruz de Tenerife","location":"Fuencaliente de la Palma"},{"postal_code":"38769","place":"Dos Pinos","province":"Santa Cruz de Tenerife","location":"Llanos de Aridane, Los"},{"postal_code":"38779","place":"San Borondon","province":"Santa Cruz de Tenerife","location":"Tazacorte"},{"postal_code":"38758","place":"Barrial De Enmedio","province":"Santa Cruz de Tenerife","location":"Paso, El"},{"postal_code":"38780","place":"Arecida","province":"Santa Cruz de Tenerife","location":"Tijarafe"},{"postal_code":"38759","place":"El Paraiso","province":"Santa Cruz de Tenerife","location":"Llanos de Aridane, Los"},{"postal_code":"38789","place":"Roque, El (Puntagorda)","province":"Santa Cruz de Tenerife","location":"Tijarafe"},{"postal_code":"38780","place":"Amagar","province":"Santa Cruz de Tenerife","location":"Tijarafe"},{"postal_code":"38759","place":"San Nicolas (El Paso)","province":"Santa Cruz de Tenerife","location":"Llanos de Aridane, Los"},{"postal_code":"38788","place":"Llano Negro","province":"Santa Cruz de Tenerife","location":"Garaf�a"},{"postal_code":"38767","place":"Triana","province":"Santa Cruz de Tenerife","location":"Llanos de Aridane, Los"},{"postal_code":"38769","place":"Todoque","province":"Santa Cruz de Tenerife","location":"Llanos de Aridane, Los"},{"postal_code":"38779","place":"Costa, La (Tazacorte)","province":"Santa Cruz de Tenerife","location":"Tazacorte"},{"postal_code":"38769","place":"El Pedregal","province":"Santa Cruz de Tenerife","location":"Llanos de Aridane, Los"},{"postal_code":"38780","place":"Bellido","province":"Santa Cruz de Tenerife","location":"Tijarafe"},{"postal_code":"38780","place":"Tinizara","province":"Santa Cruz de Tenerife","location":"Tijarafe"},{"postal_code":"38788","place":"Cueva Del Agua","province":"Santa Cruz de Tenerife","location":"Garaf�a"},{"postal_code":"38789","place":"Fagundo","province":"Santa Cruz de Tenerife","location":"Tijarafe"},{"postal_code":"38801","place":"El Jorado","province":"Santa Cruz de Tenerife","location":"San Sebasti�n de la Gomera"},{"postal_code":"38801","place":"San Antonio Y Pilar","province":"Santa Cruz de Tenerife","location":"San Sebasti�n de la Gomera"},{"postal_code":"38811","place":"Benchijigua","province":"Santa Cruz de Tenerife","location":"Alajer�"},{"postal_code":"38801","place":"Inchereda","province":"Santa Cruz de Tenerife","location":"San Sebasti�n de la Gomera"},{"postal_code":"38801","place":"El Atajo","province":"Santa Cruz de Tenerife","location":"San Sebasti�n de la Gomera"},{"postal_code":"38811","place":"Tapahuga","province":"Santa Cruz de Tenerife","location":"Alajer�"},{"postal_code":"38801","place":"Chejelipes","province":"Santa Cruz de Tenerife","location":"San Sebasti�n de la Gomera"},{"postal_code":"38801","place":"Lomito Fragoso Y Honduras","province":"Santa Cruz de Tenerife","location":"San Sebasti�n de la Gomera"},{"postal_code":"38811","place":"Las Toscas","province":"Santa Cruz de Tenerife","location":"Alajer�"},{"postal_code":"38801","place":"La Laja","province":"Santa Cruz de Tenerife","location":"San Sebasti�n de la Gomera"},{"postal_code":"38811","place":"Tecina","province":"Santa Cruz de Tenerife","location":"Alajer�"},{"postal_code":"38820","place":"El Tabaibal","province":"Santa Cruz de Tenerife","location":"Hermigua"},{"postal_code":"38811","place":"Tejiade","province":"Santa Cruz de Tenerife","location":"Alajer�"},{"postal_code":"38812","place":"Arguayoda","province":"Santa Cruz de Tenerife","location":"Alajer�"},{"postal_code":"38812","place":"Alajero","province":"Santa Cruz de Tenerife","location":"Alajer�"},{"postal_code":"38811","place":"Jerdu�e","province":"Santa Cruz de Tenerife","location":"Alajer�"},{"postal_code":"38813","place":"Targa","province":"Santa Cruz de Tenerife","location":"Alajer�"},{"postal_code":"38812","place":"Quise","province":"Santa Cruz de Tenerife","location":"Alajer�"},{"postal_code":"38812","place":"Almacigos","province":"Santa Cruz de Tenerife","location":"Alajer�"},{"postal_code":"38829","place":"Corralete","province":"Santa Cruz de Tenerife","location":"Hermigua"},{"postal_code":"38801","place":"El Molinito","province":"Santa Cruz de Tenerife","location":"San Sebasti�n de la Gomera"},{"postal_code":"38849","place":"Los Bellos","province":"Santa Cruz de Tenerife","location":"Vallehermoso"},{"postal_code":"38829","place":"Cabezadas, Las (Hermigua)","province":"Santa Cruz de Tenerife","location":"Hermigua"},{"postal_code":"38820","place":"Llano Campos","province":"Santa Cruz de Tenerife","location":"Hermigua"},{"postal_code":"38820","place":"Hermigua","province":"Santa Cruz de Tenerife","location":"Hermigua"},{"postal_code":"38810","place":"Santiago, De (Playa)","province":"Santa Cruz de Tenerife","location":"Alajer�"},{"postal_code":"38840","place":"Vallehermoso","province":"Santa Cruz de Tenerife","location":"Vallehermoso"},{"postal_code":"38820","place":"Palmarejo","province":"Santa Cruz de Tenerife","location":"Hermigua"},{"postal_code":"38811","place":"Ayamosna","province":"Santa Cruz de Tenerife","location":"Alajer�"},{"postal_code":"38852","place":"Taguluche","province":"Santa Cruz de Tenerife","location":"Valle Gran Rey"},{"postal_code":"38811","place":"Lo Del Gato","province":"Santa Cruz de Tenerife","location":"Alajer�"},{"postal_code":"38869","place":"Pavon","province":"Santa Cruz de Tenerife","location":"Vallehermoso"},{"postal_code":"38820","place":"Callejon De Ordaiz","province":"Santa Cruz de Tenerife","location":"Hermigua"},{"postal_code":"38849","place":"Rosa De Las Piedras","province":"Santa Cruz de Tenerife","location":"Vallehermoso"},{"postal_code":"38829","place":"Casas, Las (Hermigua)","province":"Santa Cruz de Tenerife","location":"Hermigua"},{"postal_code":"38849","place":"Los Loros","province":"Santa Cruz de Tenerife","location":"Vallehermoso"},{"postal_code":"38811","place":"Pastrana","province":"Santa Cruz de Tenerife","location":"Alajer�"},{"postal_code":"38829","place":"Hoyetas","province":"Santa Cruz de Tenerife","location":"Hermigua"},{"postal_code":"38869","place":"Igualero","province":"Santa Cruz de Tenerife","location":"Vallehermoso"},{"postal_code":"38829","place":"Las Poyatas","province":"Santa Cruz de Tenerife","location":"Hermigua"},{"postal_code":"38870","place":"Valle Gran Rey","province":"Santa Cruz de Tenerife","location":"Valle Gran Rey"},{"postal_code":"38830","place":"Lepe","province":"Santa Cruz de Tenerife","location":"Agulo"},{"postal_code":"38879","place":"El Retamal","province":"Santa Cruz de Tenerife","location":"Valle Gran Rey"},{"postal_code":"38870","place":"Borbalan","province":"Santa Cruz de Tenerife","location":"Valle Gran Rey"},{"postal_code":"38852","place":"Tazo","province":"Santa Cruz de Tenerife","location":"Valle Gran Rey"},{"postal_code":"38879","place":"Chele","province":"Santa Cruz de Tenerife","location":"Valle Gran Rey"},{"postal_code":"38890","place":"Cruz Del Tierno","province":"Santa Cruz de Tenerife","location":"Agulo"},{"postal_code":"38879","place":"Los Descansaderos","province":"Santa Cruz de Tenerife","location":"Valle Gran Rey"},{"postal_code":"38811","place":"Vegaipala","province":"Santa Cruz de Tenerife","location":"Alajer�"},{"postal_code":"38852","place":"Alojera","province":"Santa Cruz de Tenerife","location":"Valle Gran Rey"},{"postal_code":"38869","place":"Erquito","province":"Santa Cruz de Tenerife","location":"Vallehermoso"},{"postal_code":"38849","place":"Macayo","province":"Santa Cruz de Tenerife","location":"Vallehermoso"},{"postal_code":"38869","place":"Erque","province":"Santa Cruz de Tenerife","location":"Vallehermoso"},{"postal_code":"38891","place":"Valle Abajo","province":"Santa Cruz de Tenerife","location":"Vallehermoso"},{"postal_code":"38879","place":"Lomo Del Balo (Valle Gran Rey)","province":"Santa Cruz de Tenerife","location":"Valle Gran Rey"},{"postal_code":"38811","place":"Barranco De Santiago","province":"Santa Cruz de Tenerife","location":"Alajer�"},{"postal_code":"38910","place":"Tamaduste","province":"Santa Cruz de Tenerife","location":"Valverde"},{"postal_code":"38812","place":"Imada","province":"Santa Cruz de Tenerife","location":"Alajer�"},{"postal_code":"38900","place":"Valverde Del Hierro","province":"Santa Cruz de Tenerife","location":"Valverde"},{"postal_code":"38869","place":"Cercado, El (Vallehermoso)","province":"Santa Cruz de Tenerife","location":"Vallehermoso"},{"postal_code":"38891","place":"Tamargada","province":"Santa Cruz de Tenerife","location":"Vallehermoso"},{"postal_code":"38811","place":"Laguna De Santiago","province":"Santa Cruz de Tenerife","location":"Alajer�"},{"postal_code":"38890","place":"Palmita, La (Agulo)","province":"Santa Cruz de Tenerife","location":"Agulo"},{"postal_code":"38812","place":"Guarimiar","province":"Santa Cruz de Tenerife","location":"Alajer�"},{"postal_code":"38813","place":"Antoncojo","province":"Santa Cruz de Tenerife","location":"Alajer�"},{"postal_code":"38870","place":"Vueltas","province":"Santa Cruz de Tenerife","location":"Valle Gran Rey"},{"postal_code":"38879","place":"Lomo Del Moral","province":"Santa Cruz de Tenerife","location":"Valle Gran Rey"},{"postal_code":"38820","place":"Las Nuevitas","province":"Santa Cruz de Tenerife","location":"Hermigua"},{"postal_code":"38820","place":"Piedra Romana","province":"Santa Cruz de Tenerife","location":"Hermigua"},{"postal_code":"38879","place":"El Guro","province":"Santa Cruz de Tenerife","location":"Valle Gran Rey"},{"postal_code":"38829","place":"Monteforte","province":"Santa Cruz de Tenerife","location":"Hermigua"},{"postal_code":"38820","place":"El Curato","province":"Santa Cruz de Tenerife","location":"Hermigua"},{"postal_code":"38829","place":"Estanquillo","province":"Santa Cruz de Tenerife","location":"Hermigua"},{"postal_code":"38829","place":"Ibo Alfaro","province":"Santa Cruz de Tenerife","location":"Hermigua"},{"postal_code":"38890","place":"Los Acevi�os","province":"Santa Cruz de Tenerife","location":"Agulo"},{"postal_code":"38890","place":"Rosas, Las (Agulo)","province":"Santa Cruz de Tenerife","location":"Agulo"},{"postal_code":"38830","place":"Agulo","province":"Santa Cruz de Tenerife","location":"Agulo"},{"postal_code":"38849","place":"Banda De Las Rosas","province":"Santa Cruz de Tenerife","location":"Vallehermoso"},{"postal_code":"38892","place":"Acardece","province":"Santa Cruz de Tenerife","location":"Valle Gran Rey"},{"postal_code":"38849","place":"Los Chapines","province":"Santa Cruz de Tenerife","location":"Vallehermoso"},{"postal_code":"38849","place":"La Quilla","province":"Santa Cruz de Tenerife","location":"Vallehermoso"},{"postal_code":"38852","place":"Epina","province":"Santa Cruz de Tenerife","location":"Valle Gran Rey"},{"postal_code":"38910","place":"Aeropuerto De Hierro","province":"Santa Cruz de Tenerife","location":"Valverde"},{"postal_code":"38850","place":"Arguamul","province":"Santa Cruz de Tenerife","location":"Vallehermoso"},{"postal_code":"38869","place":"Temocoda","province":"Santa Cruz de Tenerife","location":"Vallehermoso"},{"postal_code":"38860","place":"La Rajita","province":"Santa Cruz de Tenerife","location":"Vallehermoso"},{"postal_code":"38870","place":"La Calera","province":"Santa Cruz de Tenerife","location":"Valle Gran Rey"},{"postal_code":"38869","place":"Chipude (Vallehermoso)","province":"Santa Cruz de Tenerife","location":"Vallehermoso"},{"postal_code":"38869","place":"La Dama","province":"Santa Cruz de Tenerife","location":"Vallehermoso"},{"postal_code":"38879","place":"Los Granados","province":"Santa Cruz de Tenerife","location":"Valle Gran Rey"},{"postal_code":"38870","place":"La Puntilla","province":"Santa Cruz de Tenerife","location":"Valle Gran Rey"},{"postal_code":"38879","place":"Vizcaina, La (Valle Gran Rey)","province":"Santa Cruz de Tenerife","location":"Valle Gran Rey"},{"postal_code":"38879","place":"Hornillo, El (Valle Gran Rey)","province":"Santa Cruz de Tenerife","location":"Valle Gran Rey"},{"postal_code":"38879","place":"Casa De La Seda","province":"Santa Cruz de Tenerife","location":"Valle Gran Rey"},{"postal_code":"38890","place":"Vega, La (Agulo)","province":"Santa Cruz de Tenerife","location":"Agulo"},{"postal_code":"38890","place":"Pajar De Bento","province":"Santa Cruz de Tenerife","location":"Agulo"},{"postal_code":"38890","place":"Serpa","province":"Santa Cruz de Tenerife","location":"Agulo"},{"postal_code":"38892","place":"Arure","province":"Santa Cruz de Tenerife","location":"Valle Gran Rey"},{"postal_code":"38910","place":"Puerto De La Estaca","province":"Santa Cruz de Tenerife","location":"Valverde"},{"postal_code":"38892","place":"Las Hayas","province":"Santa Cruz de Tenerife","location":"Valle Gran Rey"},{"postal_code":"38911","place":"Puntas, Las (V. Hierro)","province":"Santa Cruz de Tenerife","location":"Frontera"},{"postal_code":"38911","place":"Los Mocanes","province":"Santa Cruz de Tenerife","location":"Frontera"},{"postal_code":"38914","place":"Pinar, El (V. Hierro)","province":"Santa Cruz de Tenerife","location":"El Pinar de El Hierro"},{"postal_code":"38914","place":"Taibique","province":"Santa Cruz de Tenerife","location":"El Pinar de El Hierro"},{"postal_code":"38916","place":"Mocanal","province":"Santa Cruz de Tenerife","location":"Valverde"},{"postal_code":"38915","place":"Isora","province":"Santa Cruz de Tenerife","location":"Valverde"},{"postal_code":"38910","place":"Caleta, De La (Playa)","province":"Santa Cruz de Tenerife","location":"Valverde"},{"postal_code":"38910","place":"Temijiraque","province":"Santa Cruz de Tenerife","location":"Valverde"},{"postal_code":"38911","place":"Frontera","province":"Santa Cruz de Tenerife","location":"Frontera"},{"postal_code":"38911","place":"Luchon","province":"Santa Cruz de Tenerife","location":"Frontera"},{"postal_code":"38912","place":"Sabinosa","province":"Santa Cruz de Tenerife","location":"Frontera"},{"postal_code":"38913","place":"Tigaday","province":"Santa Cruz de Tenerife","location":"Frontera"},{"postal_code":"38914","place":"Las Casas","province":"Santa Cruz de Tenerife","location":"El Pinar de El Hierro"},{"postal_code":"38915","place":"San Andres (V. Hierro)","province":"Santa Cruz de Tenerife","location":"Valverde"},{"postal_code":"38915","place":"Ti�or","province":"Santa Cruz de Tenerife","location":"Valverde"},{"postal_code":"38917","place":"La Restinga","province":"Santa Cruz de Tenerife","location":"El Pinar de El Hierro"},{"postal_code":"38916","place":"Erese","province":"Santa Cruz de Tenerife","location":"Valverde"},{"postal_code":"38916","place":"Guarazoca","province":"Santa Cruz de Tenerife","location":"Valverde"}]}