{"entries":[{"postal_code":38003,"place":"Santa Cruz De Tenerife","province":"Santa Cruz de Tenerife","location":"Santa Cruz de Tenerife"},{"postal_code":38005,"place":"Santa Cruz De Tenerife","province":"Santa Cruz de Tenerife","location":"Santa Cruz de Tenerife"},{"postal_code":38002,"place":"Santa Cruz De Tenerife","province":"Santa Cruz de Tenerife","location":"Santa Cruz de Tenerife"},{"postal_code":38004,"place":"Santa Cruz De Tenerife","province":"Santa Cruz de Tenerife","location":"Santa Cruz de Tenerife"},{"postal_code":38001,"place":"Santa Cruz De Tenerife","province":"Santa Cruz de Tenerife","location":"Santa Cruz de Tenerife"},{"postal_code":38009,"place":"Santa Cruz De Tenerife","province":"Santa Cruz de Tenerife","location":"Santa Cruz de Tenerife"},{"postal_code":38107,"place":"El Rosarito","province":"Santa Cruz de Tenerife","location":"Santa Cruz de Tenerife"},{"postal_code":38071,"place":"Santa Cruz De Tenerife","province":"Santa Cruz de Tenerife"},{"postal_code":38010,"place":"Santa Cruz De Tenerife","province":"Santa Cruz de Tenerife","location":"Santa Cruz de Tenerife"},{"postal_code":38107,"place":"El Tablero","province":"Santa Cruz de Tenerife","location":"Santa Cruz de Tenerife"},{"postal_code":38109,"place":"Radazul","province":"Santa Cruz de Tenerife","location":"Rosario, El"},{"postal_code":38006,"place":"Santa Cruz De Tenerife","province":"Santa Cruz de Tenerife","location":"Santa Cruz de Tenerife"},{"postal_code":38008,"place":"Santa Cruz De Tenerife","province":"Santa Cruz de Tenerife","location":"Santa Cruz de Tenerife"},{"postal_code":38108,"place":"Taco","province":"Santa Cruz de Tenerife","location":"Santa Cruz de Tenerife"},{"postal_code":38007,"place":"Santa Cruz De Tenerife","province":"Santa Cruz de Tenerife","location":"Santa Cruz de Tenerife"},{"postal_code":38108,"place":"San Matias","province":"Santa Cruz de Tenerife","location":"Santa Cruz de Tenerife"},{"postal_code":38107,"place":"Tincer","province":"Santa Cruz de Tenerife","location":"Santa Cruz de Tenerife"},{"postal_code":38107,"place":"Barranco Grande","province":"Santa Cruz de Tenerife","location":"Santa Cruz de Tenerife"},{"postal_code":38129,"place":"Chamorga","province":"Santa Cruz de Tenerife","location":"Santa Cruz de Tenerife"},{"postal_code":38109,"place":"El Chorrillo","province":"Santa Cruz de Tenerife","location":"Rosario, El"},{"postal_code":38110,"place":"Santa Cruz De Tenerife","province":"Santa Cruz de Tenerife","location":"Santa Cruz de Tenerife"},{"postal_code":38111,"place":"Acoran","province":"Santa Cruz de Tenerife","location":"Santa Cruz de Tenerife"},{"postal_code":38107,"place":"Llano Del Moro (Santa Cruz) (Ver Callejero De Santa Cruz De Tenerife)","province":"Santa Cruz de Tenerife","location":"Santa Cruz de Tenerife"},{"postal_code":38107,"place":"Las Veredillas","province":"Santa Cruz de Tenerife","location":"Santa Cruz de Tenerife"},{"postal_code":38108,"place":"Las Chumberas","province":"Santa Cruz de Tenerife","location":"Santa Cruz de Tenerife"},{"postal_code":38129,"place":"El Suculum","province":"Santa Cruz de Tenerife","location":"Santa Cruz de Tenerife"},{"postal_code":38080,"place":"Santa Cruz De Tenerife","province":"Santa Cruz de Tenerife"},{"postal_code":38109,"place":"San Isidro (El Rosario)","province":"Santa Cruz de Tenerife","location":"Rosario, El"},{"postal_code":38129,"place":"Almaciga","province":"Santa Cruz de Tenerife","location":"Santa Cruz de Tenerife"},{"postal_code":38110,"place":"Mayorazgo, El (Poligono Industrial)","province":"Santa Cruz de Tenerife","location":"Santa Cruz de Tenerife"},{"postal_code":38111,"place":"Santa Maria Del Mar","province":"Santa Cruz de Tenerife","location":"Santa Cruz de Tenerife"},{"postal_code":38180,"place":"Cueva Bermeja","province":"Santa Cruz de Tenerife","location":"Santa Cruz de Tenerife"},{"postal_code":38150,"place":"Valleseco","province":"Santa Cruz de Tenerife","location":"Santa Cruz de Tenerife"},{"postal_code":38070,"place":"Santa Cruz De Tenerife","province":"Santa Cruz de Tenerife"},{"postal_code":38139,"place":"Afur","province":"Santa Cruz de Tenerife","location":"Santa Cruz de Tenerife"},{"postal_code":38111,"place":"Alisios","province":"Santa Cruz de Tenerife","location":"Santa Cruz de Tenerife"},{"postal_code":38129,"place":"El Draguillo","province":"Santa Cruz de Tenerife","location":"Santa Cruz de Tenerife"},{"postal_code":38170,"place":"Santa Cruz De Tenerife","province":"Santa Cruz de Tenerife","location":"Santa Cruz de Tenerife"},{"postal_code":38190,"place":"Tabaiba (Urbanizacion)","province":"Santa Cruz de Tenerife","location":"Rosario, El"},{"postal_code":38107,"place":"El Pilar","province":"Santa Cruz de Tenerife","location":"Santa Cruz de Tenerife"},{"postal_code":38129,"place":"Benijo","province":"Santa Cruz de Tenerife","location":"Santa Cruz de Tenerife"},{"postal_code":38160,"place":"Valle Tahodio","province":"Santa Cruz de Tenerife","location":"Santa Cruz de Tenerife"},{"postal_code":38107,"place":"Santa Cruz De Tenerife","province":"Santa Cruz de Tenerife","location":"Santa Cruz de Tenerife"},{"postal_code":38190,"place":"Machado","province":"Santa Cruz de Tenerife","location":"Rosario, El"},{"postal_code":38129,"place":"La Cumbrilla","province":"Santa Cruz de Tenerife","location":"Santa Cruz de Tenerife"},{"postal_code":38139,"place":"Casas De La Cumbre","province":"Santa Cruz de Tenerife","location":"Santa Cruz de Tenerife"},{"postal_code":38201,"place":"San Cristobal De La Laguna","province":"Santa Cruz de Tenerife","location":"San Crist�bal de La Laguna"},{"postal_code":38139,"place":"Roque Negro","province":"Santa Cruz de Tenerife","location":"Santa Cruz de Tenerife"},{"postal_code":38150,"place":"Cardonera","province":"Santa Cruz de Tenerife","location":"Santa Cruz de Tenerife"},{"postal_code":38180,"place":"Valle Crispin","province":"Santa Cruz de Tenerife","location":"Santa Cruz de Tenerife"},{"postal_code":38180,"place":"Maria Jimenez","province":"Santa Cruz de Tenerife","location":"Santa Cruz de Tenerife"},{"postal_code":38107,"place":"La Gallega","province":"Santa Cruz de Tenerife","location":"Santa Cruz de Tenerife"},{"postal_code":38280,"place":"Tegueste","province":"Santa Cruz de Tenerife","location":"Tegueste"},{"postal_code":38240,"place":"Punta Del Hidalgo","province":"Santa Cruz de Tenerife","location":"San Crist�bal de La Laguna"},{"postal_code":38290,"place":"Pe�afiel","province":"Santa Cruz de Tenerife","location":"Rosario, El"},{"postal_code":38206,"place":"San Cristobal De La Laguna","province":"Santa Cruz de Tenerife","location":"San Crist�bal de La Laguna"},{"postal_code":38290,"place":"Lomo Pelado","province":"Santa Cruz de Tenerife","location":"Rosario, El"},{"postal_code":38204,"place":"San Cristobal De La Laguna","province":"Santa Cruz de Tenerife","location":"San Crist�bal de La Laguna"},{"postal_code":38260,"place":"Tejina","province":"Santa Cruz de Tenerife","location":"San Crist�bal de La Laguna"},{"postal_code":38290,"place":"La Esperanza","province":"Santa Cruz de Tenerife","location":"Rosario, El"},{"postal_code":38107,"place":"El Sobradillo","province":"Santa Cruz de Tenerife","location":"Santa Cruz de Tenerife"},{"postal_code":38293,"place":"San Cristobal De La Laguna","province":"Santa Cruz de Tenerife","location":"Tegueste"},{"postal_code":38208,"place":"San Cristobal De La Laguna","province":"Santa Cruz de Tenerife","location":"San Crist�bal de La Laguna"},{"postal_code":38203,"place":"San Cristobal De La Laguna","province":"Santa Cruz de Tenerife","location":"San Crist�bal de La Laguna"},{"postal_code":38108,"place":"San Cristobal De La Laguna","province":"Santa Cruz de Tenerife","location":"Santa Cruz de Tenerife"},{"postal_code":38292,"place":"Pedro Alvarez","province":"Santa Cruz de Tenerife","location":"Tegueste"},{"postal_code":38109,"place":"Bocacangrejo (El Rosario)","province":"Santa Cruz de Tenerife","location":"Rosario, El"},{"postal_code":38290,"place":"Rosas, Las (Esperanza, La)","province":"Santa Cruz de Tenerife","location":"Rosario, El"},{"postal_code":38291,"place":"Mina","province":"Santa Cruz de Tenerife","location":"San Crist�bal de La Laguna"},{"postal_code":38294,"place":"Las Carboneras","province":"Santa Cruz de Tenerife","location":"Santa Cruz de Tenerife"},{"postal_code":38292,"place":"El Infierno","province":"Santa Cruz de Tenerife","location":"Tegueste"},{"postal_code":38291,"place":"Los Baldios","province":"Santa Cruz de Tenerife","location":"San Crist�bal de La Laguna"},{"postal_code":38108,"place":"Los Andenes","province":"Santa Cruz de Tenerife","location":"Santa Cruz de Tenerife"},{"postal_code":38292,"place":"Socorro, El (Tegueste)","province":"Santa Cruz de Tenerife","location":"Tegueste"},{"postal_code":38294,"place":"Batan De Abajo","province":"Santa Cruz de Tenerife","location":"Santa Cruz de Tenerife"},{"postal_code":38109,"place":"Campana, La (Poligono Industrial)","province":"Santa Cruz de Tenerife","location":"Rosario, El"},{"postal_code":38111,"place":"Santa Cruz De Tenerife","province":"Santa Cruz de Tenerife","location":"Santa Cruz de Tenerife"},{"postal_code":38111,"place":"A�aza","province":"Santa Cruz de Tenerife","location":"Santa Cruz de Tenerife"},{"postal_code":38129,"place":"Roque Bermejo","province":"Santa Cruz de Tenerife","location":"Santa Cruz de Tenerife"},{"postal_code":38129,"place":"Lomo De Las Bodegas","province":"Santa Cruz de Tenerife","location":"Santa Cruz de Tenerife"},{"postal_code":38293,"place":"Mercedes, Las, De (Carretera)","province":"Santa Cruz de Tenerife","location":"Tegueste"},{"postal_code":38120,"place":"San Andres (Santa Cruz De Tenerife)","province":"Santa Cruz de Tenerife","location":"Santa Cruz de Tenerife"},{"postal_code":38130,"place":"Taganana","province":"Santa Cruz de Tenerife","location":"Santa Cruz de Tenerife"},{"postal_code":38129,"place":"El Bailadero","province":"Santa Cruz de Tenerife","location":"Santa Cruz de Tenerife"},{"postal_code":38139,"place":"Valle De Los Catalanes","province":"Santa Cruz de Tenerife","location":"Santa Cruz de Tenerife"},{"postal_code":38140,"place":"Igueste De San Andres","province":"Santa Cruz de Tenerife","location":"Santa Cruz de Tenerife"},{"postal_code":38150,"place":"Las Cuevas","province":"Santa Cruz de Tenerife","location":"Santa Cruz de Tenerife"},{"postal_code":38160,"place":"Santa Cruz De Tenerife","province":"Santa Cruz de Tenerife","location":"Santa Cruz de Tenerife"},{"postal_code":38170,"place":"Los Campitos","province":"Santa Cruz de Tenerife","location":"Santa Cruz de Tenerife"},{"postal_code":38180,"place":"Darsena Pesquera","province":"Santa Cruz de Tenerife","location":"Santa Cruz de Tenerife"},{"postal_code":38180,"place":"Valle Brosque","province":"Santa Cruz de Tenerife","location":"Santa Cruz de Tenerife"},{"postal_code":38202,"place":"San Cristobal De La Laguna","province":"Santa Cruz de Tenerife","location":"San Crist�bal de La Laguna"},{"postal_code":38200,"place":"San Cristobal De La Laguna","province":"Santa Cruz de Tenerife"},{"postal_code":38207,"place":"San Cristobal De La Laguna","province":"Santa Cruz de Tenerife","location":"San Crist�bal de La Laguna"},{"postal_code":38205,"place":"San Cristobal De La Laguna","province":"Santa Cruz de Tenerife","location":"San Crist�bal de La Laguna"},{"postal_code":38250,"place":"Bajamar","province":"Santa Cruz de Tenerife","location":"San Crist�bal de La Laguna"},{"postal_code":38270,"place":"Valle Guerra","province":"Santa Cruz de Tenerife","location":"San Crist�bal de La Laguna"},{"postal_code":38290,"place":"Preventorio","province":"Santa Cruz de Tenerife","location":"Rosario, El"},{"postal_code":38290,"place":"Llano Del Moro (El Rosario)","province":"Santa Cruz de Tenerife","location":"Rosario, El"},{"postal_code":38291,"place":"San Cristobal De La Laguna","province":"Santa Cruz de Tenerife","location":"San Crist�bal de La Laguna"},{"postal_code":38290,"place":"Las Barreras","province":"Santa Cruz de Tenerife","location":"Rosario, El"},{"postal_code":38292,"place":"Padilla Baja","province":"Santa Cruz de Tenerife","location":"Tegueste"},{"postal_code":38292,"place":"Portezuelo","province":"Santa Cruz de Tenerife","location":"Tegueste"},{"postal_code":38293,"place":"Camino De Jardina","province":"Santa Cruz de Tenerife","location":"Tegueste"},{"postal_code":38294,"place":"Taborno","province":"Santa Cruz de Tenerife","location":"Santa Cruz de Tenerife"},{"postal_code":38294,"place":"Bejia","province":"Santa Cruz de Tenerife","location":"Santa Cruz de Tenerife"},{"postal_code":38300,"place":"Parque Nacional Teide","province":"Santa Cruz de Tenerife","location":"Orotava, La"},{"postal_code":38300,"place":"Las Ca�adas Del Teide","province":"Santa Cruz de Tenerife","location":"Orotava, La"},{"postal_code":38297,"place":"Aeropuerto De Los Rodeos (Santa Cruz De Tenerife)","province":"Santa Cruz de Tenerife","location":"Tegueste"},{"postal_code":38297,"place":"Hoya Del Camello","province":"Santa Cruz de Tenerife","location":"Tegueste"},{"postal_code":38294,"place":"Cruz Del Carmen","province":"Santa Cruz de Tenerife","location":"Santa Cruz de Tenerife"},{"postal_code":38310,"place":"Pinoleris","province":"Santa Cruz de Tenerife","location":"Orotava, La"},{"postal_code":38294,"place":"Batan De Arriba","province":"Santa Cruz de Tenerife","location":"Santa Cruz de Tenerife"},{"postal_code":38310,"place":"Tres Pinos (Aguamansa)","province":"Santa Cruz de Tenerife","location":"Orotava, La"},{"postal_code":38294,"place":"Rio","province":"Santa Cruz de Tenerife","location":"Santa Cruz de Tenerife"},{"postal_code":38310,"place":"El Bebedero","province":"Santa Cruz de Tenerife","location":"Orotava, La"},{"postal_code":38294,"place":"Chinamada","province":"Santa Cruz de Tenerife","location":"Santa Cruz de Tenerife"},{"postal_code":38313,"place":"Benijos","province":"Santa Cruz de Tenerife","location":"Orotava, La"},{"postal_code":38310,"place":"El Montijo","province":"Santa Cruz de Tenerife","location":"Orotava, La"},{"postal_code":38296,"place":"San Cristobal De La Laguna","province":"Santa Cruz de Tenerife","location":"San Crist�bal de La Laguna"},{"postal_code":38314,"place":"Rincon, El (La Orotava)","province":"Santa Cruz de Tenerife","location":"Orotava, La"},{"postal_code":38311,"place":"Los Gomez","province":"Santa Cruz de Tenerife","location":"Orotava, La"},{"postal_code":38310,"place":"Aguamansa","province":"Santa Cruz de Tenerife","location":"Orotava, La"},{"postal_code":38312,"place":"La Luz","province":"Santa Cruz de Tenerife","location":"Orotava, La"},{"postal_code":38311,"place":"Los Frontones","province":"Santa Cruz de Tenerife","location":"Orotava, La"},{"postal_code":38312,"place":"Cruz De Los Martillos","province":"Santa Cruz de Tenerife","location":"Orotava, La"},{"postal_code":38297,"place":"Garimba","province":"Santa Cruz de Tenerife","location":"Tegueste"},{"postal_code":38310,"place":"Hacienda Perdida","province":"Santa Cruz de Tenerife","location":"Orotava, La"},{"postal_code":38340,"place":"Los Naranjeros","province":"Santa Cruz de Tenerife","location":"Tacoronte"},{"postal_code":38320,"place":"La Cuesta","province":"Santa Cruz de Tenerife","location":"Santa Cruz de Tenerife"},{"postal_code":38355,"place":"Barranco De Las Lajas","province":"Santa Cruz de Tenerife","location":"Tacoronte"},{"postal_code":38358,"place":"El Pris","province":"Santa Cruz de Tenerife","location":"Tacoronte"},{"postal_code":38314,"place":"Cuevas, Las (La Orotava) (Urbanizacion)","province":"Santa Cruz de Tenerife","location":"Orotava, La"},{"postal_code":38311,"place":"Dehesa Alta","province":"Santa Cruz de Tenerife","location":"Orotava, La"},{"postal_code":38329,"place":"Lomo De Las Casillas","province":"Santa Cruz de Tenerife","location":"San Crist�bal de La Laguna"},{"postal_code":38357,"place":"Las Casas Altas","province":"Santa Cruz de Tenerife","location":"Tacoronte"},{"postal_code":38296,"place":"San Miguel De Geneto","province":"Santa Cruz de Tenerife","location":"San Crist�bal de La Laguna"},{"postal_code":38314,"place":"San Bartolome (La Orotava)","province":"Santa Cruz de Tenerife","location":"Orotava, La"},{"postal_code":38297,"place":"Aeropuerto De Los Rodeos, Residencial (Zona)","province":"Santa Cruz de Tenerife","location":"Tegueste"},{"postal_code":38315,"place":"La Aza","province":"Santa Cruz de Tenerife","location":"Orotava, La"},{"postal_code":38311,"place":"Pino Alto","province":"Santa Cruz de Tenerife","location":"Orotava, La"},{"postal_code":38312,"place":"Arenas, Las (La Orotava)","province":"Santa Cruz de Tenerife","location":"Orotava, La"},{"postal_code":38380,"place":"La Victoria De Acentejo","province":"Santa Cruz de Tenerife","location":"Victoria de Acentejo, La"},{"postal_code":38350,"place":"El Torreon","province":"Santa Cruz de Tenerife","location":"Tacoronte"},{"postal_code":38329,"place":"San Cristobal De La Laguna","province":"Santa Cruz de Tenerife","location":"San Crist�bal de La Laguna"},{"postal_code":38359,"place":"Valle Forestal (Urbanizacion)","province":"Santa Cruz de Tenerife","location":"Sauzal, El"},{"postal_code":38300,"place":"La Orotava","province":"Santa Cruz de Tenerife","location":"Orotava, La"},{"postal_code":38297,"place":"Ortigal","province":"Santa Cruz de Tenerife","location":"Tegueste"},{"postal_code":38314,"place":"La Ratona","province":"Santa Cruz de Tenerife","location":"Orotava, La"},{"postal_code":38340,"place":"La Caridad","province":"Santa Cruz de Tenerife","location":"Tacoronte"},{"postal_code":38356,"place":"San Jeronimo (Tacoronte)","province":"Santa Cruz de Tenerife","location":"Tacoronte"},{"postal_code":38390,"place":"Quinta","province":"Santa Cruz de Tenerife","location":"Santa �rsula"},{"postal_code":38379,"place":"Puntillo Del Sol","province":"Santa Cruz de Tenerife","location":"La Matanza de Acentejo"},{"postal_code":38360,"place":"Angeles, Los (Urbanizacion)","province":"Santa Cruz de Tenerife","location":"Sauzal, El"},{"postal_code":38358,"place":"Santa Catalina Las Toscas","province":"Santa Cruz de Tenerife","location":"Tacoronte"},{"postal_code":38310,"place":"La Sierra","province":"Santa Cruz de Tenerife","location":"Orotava, La"},{"postal_code":38358,"place":"Tagoro","province":"Santa Cruz de Tenerife","location":"Tacoronte"},{"postal_code":38398,"place":"Farrobillo","province":"Santa Cruz de Tenerife","location":"Santa �rsula"},{"postal_code":38320,"place":"San Cristobal De La Laguna","province":"Santa Cruz de Tenerife","location":"Santa Cruz de Tenerife"},{"postal_code":38389,"place":"La Vera-Carril","province":"Santa Cruz de Tenerife","location":"Victoria de Acentejo, La"},{"postal_code":38310,"place":"El Sauce","province":"Santa Cruz de Tenerife","location":"Orotava, La"},{"postal_code":38310,"place":"Chasna","province":"Santa Cruz de Tenerife","location":"Orotava, La"},{"postal_code":38390,"place":"Cuesta De La Villa","province":"Santa Cruz de Tenerife","location":"Santa �rsula"},{"postal_code":38330,"place":"Guamasa","province":"Santa Cruz de Tenerife","location":"San Crist�bal de La Laguna"},{"postal_code":38379,"place":"Chamiana","province":"Santa Cruz de Tenerife","location":"La Matanza de Acentejo"},{"postal_code":38310,"place":"Posada De Montenegro","province":"Santa Cruz de Tenerife","location":"Orotava, La"},{"postal_code":38340,"place":"Campo De Golf (Tacoronte)","province":"Santa Cruz de Tenerife","location":"Tacoronte"},{"postal_code":38311,"place":"Humboldt (Urbanizacion)","province":"Santa Cruz de Tenerife","location":"Orotava, La"},{"postal_code":38311,"place":"La Florida","province":"Santa Cruz de Tenerife","location":"Orotava, La"},{"postal_code":38355,"place":"Agua Garcia","province":"Santa Cruz de Tenerife","location":"Tacoronte"},{"postal_code":38311,"place":"Florida Alta","province":"Santa Cruz de Tenerife","location":"Orotava, La"},{"postal_code":38311,"place":"La Hondura","province":"Santa Cruz de Tenerife","location":"Orotava, La"},{"postal_code":38312,"place":"San Jeronimo (La Orotava)","province":"Santa Cruz de Tenerife","location":"Orotava, La"},{"postal_code":38357,"place":"Lomo Colorado","province":"Santa Cruz de Tenerife","location":"Tacoronte"},{"postal_code":38358,"place":"Juan Fernandez","province":"Santa Cruz de Tenerife","location":"Tacoronte"},{"postal_code":38312,"place":"Las Candias","province":"Santa Cruz de Tenerife","location":"Orotava, La"},{"postal_code":38314,"place":"Los Rechazos","province":"Santa Cruz de Tenerife","location":"Orotava, La"},{"postal_code":38314,"place":"El Durazno","province":"Santa Cruz de Tenerife","location":"Orotava, La"},{"postal_code":38360,"place":"El Sauzal","province":"Santa Cruz de Tenerife","location":"Sauzal, El"},{"postal_code":38320,"place":"Santa Cruz De Tenerife","province":"Santa Cruz de Tenerife","location":"Santa Cruz de Tenerife"},{"postal_code":38315,"place":"La Perdoma","province":"Santa Cruz de Tenerife","location":"Orotava, La"},{"postal_code":38379,"place":"Toscas De Guia","province":"Santa Cruz de Tenerife","location":"La Matanza de Acentejo"},{"postal_code":38329,"place":"Valle Tabares","province":"Santa Cruz de Tenerife","location":"San Crist�bal de La Laguna"},{"postal_code":38329,"place":"Valle Jimenez","province":"Santa Cruz de Tenerife","location":"San Crist�bal de La Laguna"},{"postal_code":38389,"place":"Los Altos-Arroyos","province":"Santa Cruz de Tenerife","location":"Victoria de Acentejo, La"},{"postal_code":38340,"place":"Luz, La (Tacoronte)","province":"Santa Cruz de Tenerife","location":"Tacoronte"},{"postal_code":38330,"place":"El Pulpito","province":"Santa Cruz de Tenerife","location":"San Crist�bal de La Laguna"},{"postal_code":38390,"place":"Vera, La (Santa Ursula)","province":"Santa Cruz de Tenerife","location":"Santa �rsula"},{"postal_code":38350,"place":"Cantiillo, El (Tacoronte)","province":"Santa Cruz de Tenerife","location":"Tacoronte"},{"postal_code":38350,"place":"Tacoronte","province":"Santa Cruz de Tenerife","location":"Tacoronte"},{"postal_code":38357,"place":"El Adelantado","province":"Santa Cruz de Tenerife","location":"Tacoronte"},{"postal_code":38398,"place":"Tosca De Barrio","province":"Santa Cruz de Tenerife","location":"Santa �rsula"},{"postal_code":38358,"place":"Mesa Del Mar (Urbanizacion)","province":"Santa Cruz de Tenerife","location":"Tacoronte"},{"postal_code":38356,"place":"San Juan Perales","province":"Santa Cruz de Tenerife","location":"Tacoronte"},{"postal_code":38358,"place":"Puerto La Madera","province":"Santa Cruz de Tenerife","location":"Tacoronte"},{"postal_code":38359,"place":"Ravelo","province":"Santa Cruz de Tenerife","location":"Sauzal, El"},{"postal_code":38358,"place":"Guayonje","province":"Santa Cruz de Tenerife","location":"Tacoronte"},{"postal_code":38370,"place":"La Matanza De Acentejo","province":"Santa Cruz de Tenerife","location":"La Matanza de Acentejo"},{"postal_code":38360,"place":"El Puertito","province":"Santa Cruz de Tenerife","location":"Sauzal, El"},{"postal_code":38379,"place":"San Antonio","province":"Santa Cruz de Tenerife","location":"La Matanza de Acentejo"},{"postal_code":38379,"place":"Jagre","province":"Santa Cruz de Tenerife","location":"La Matanza de Acentejo"},{"postal_code":38390,"place":"Santa Ursula","province":"Santa Cruz de Tenerife","location":"Santa �rsula"},{"postal_code":38389,"place":"Resbala, La (La Victoria)","province":"Santa Cruz de Tenerife","location":"Victoria de Acentejo, La"},{"postal_code":38398,"place":"Tosca De Anamaria","province":"Santa Cruz de Tenerife","location":"Santa �rsula"},{"postal_code":38390,"place":"Lomo Roman","province":"Santa Cruz de Tenerife","location":"Santa �rsula"},{"postal_code":38400,"place":"Puerto De La Cruz","province":"Santa Cruz de Tenerife","location":"Puerto de la Cruz"},{"postal_code":38416,"place":"Tigaiga","province":"Santa Cruz de Tenerife","location":"Realejos, Los"},{"postal_code":38413,"place":"Cruz Santa","province":"Santa Cruz de Tenerife","location":"Realejos, Los"},{"postal_code":38410,"place":"Realejo Alto","province":"Santa Cruz de Tenerife","location":"Realejos, Los"},{"postal_code":38411,"place":"Horno, El (Los Realejos)","province":"Santa Cruz de Tenerife"},{"postal_code":38414,"place":"Icod El Alto","province":"Santa Cruz de Tenerife","location":"Realejos, Los"},{"postal_code":38399,"place":"Cantillo","province":"Santa Cruz de Tenerife","location":"Santa �rsula"},{"postal_code":38419,"place":"La Carrera","province":"Santa Cruz de Tenerife","location":"Realejos, Los"},{"postal_code":38430,"place":"San Felipe","province":"Santa Cruz de Tenerife","location":"Icod de los Vinos"},{"postal_code":38419,"place":"Grimona, La (Urbanizacion)","province":"Santa Cruz de Tenerife","location":"Realejos, Los"},{"postal_code":38419,"place":"La Monta�eta","province":"Santa Cruz de Tenerife","location":"Realejos, Los"},{"postal_code":38399,"place":"La Corujera","province":"Santa Cruz de Tenerife","location":"Santa �rsula"},{"postal_code":38434,"place":"Peniche","province":"Santa Cruz de Tenerife","location":"Icod de los Vinos"},{"postal_code":38428,"place":"San Jose","province":"Santa Cruz de Tenerife","location":"San Juan de la Rambla"},{"postal_code":38411,"place":"Mocan, El (Los Realejos)","province":"Santa Cruz de Tenerife"},{"postal_code":38428,"place":"Los Quevedos","province":"Santa Cruz de Tenerife","location":"San Juan de la Rambla"},{"postal_code":38419,"place":"Zamora Alta","province":"Santa Cruz de Tenerife","location":"Realejos, Los"},{"postal_code":38418,"place":"Longuera","province":"Santa Cruz de Tenerife","location":"Realejos, Los"},{"postal_code":38399,"place":"Tamaide (Santa Ursula)","province":"Santa Cruz de Tenerife","location":"Santa �rsula"},{"postal_code":38435,"place":"Ruigomez","province":"Santa Cruz de Tenerife","location":"Silos, Los"},{"postal_code":38434,"place":"Llanito Perera","province":"Santa Cruz de Tenerife","location":"Icod de los Vinos"},{"postal_code":38415,"place":"Llanadas","province":"Santa Cruz de Tenerife","location":"Realejos, Los"},{"postal_code":38435,"place":"El Tanque","province":"Santa Cruz de Tenerife","location":"Silos, Los"},{"postal_code":38410,"place":"Los Realejos","province":"Santa Cruz de Tenerife","location":"Realejos, Los"},{"postal_code":38434,"place":"Las Ca�as","province":"Santa Cruz de Tenerife","location":"Icod de los Vinos"},{"postal_code":38438,"place":"Pedregal","province":"Santa Cruz de Tenerife","location":"Icod de los Vinos"},{"postal_code":38434,"place":"Santa Barbara","province":"Santa Cruz de Tenerife","location":"Icod de los Vinos"},{"postal_code":38412,"place":"Realejo Bajo","province":"Santa Cruz de Tenerife","location":"Realejos, Los"},{"postal_code":38429,"place":"Las Aguas","province":"Santa Cruz de Tenerife","location":"San Juan de la Rambla"},{"postal_code":38439,"place":"La Vega Alta","province":"Santa Cruz de Tenerife","location":"Icod de los Vinos"},{"postal_code":38441,"place":"Santa Catalina (La Guancha)","province":"Santa Cruz de Tenerife","location":"La Guancha"},{"postal_code":38434,"place":"Buen Paso","province":"Santa Cruz de Tenerife","location":"Icod de los Vinos"},{"postal_code":38413,"place":"Ferruja, La (Realejos, Los)","province":"Santa Cruz de Tenerife","location":"Realejos, Los"},{"postal_code":38441,"place":"Crucitas, Las (La Guancha)","province":"Santa Cruz de Tenerife","location":"La Guancha"},{"postal_code":38439,"place":"Mirabal","province":"Santa Cruz de Tenerife","location":"Icod de los Vinos"},{"postal_code":38430,"place":"San Marcos, De (Playa)","province":"Santa Cruz de Tenerife","location":"Icod de los Vinos"},{"postal_code":38441,"place":"Tierra De Costa","province":"Santa Cruz de Tenerife","location":"La Guancha"},{"postal_code":38438,"place":"La Patita","province":"Santa Cruz de Tenerife","location":"Icod de los Vinos"},{"postal_code":38417,"place":"Toscal, El (Los Realejos)","province":"Santa Cruz de Tenerife","location":"Realejos, Los"},{"postal_code":38435,"place":"La Tierra Del Trigo","province":"Santa Cruz de Tenerife","location":"Silos, Los"},{"postal_code":38415,"place":"Palo Blanco (Los Realejos)","province":"Santa Cruz de Tenerife","location":"Realejos, Los"},{"postal_code":38439,"place":"Fuente La Vega","province":"Santa Cruz de Tenerife","location":"Icod de los Vinos"},{"postal_code":38428,"place":"Rosas","province":"Santa Cruz de Tenerife","location":"San Juan de la Rambla"},{"postal_code":38438,"place":"El Amparo","province":"Santa Cruz de Tenerife","location":"Icod de los Vinos"},{"postal_code":38449,"place":"La Sorriba","province":"Santa Cruz de Tenerife","location":"La Guancha"},{"postal_code":38419,"place":"Jardin, El (Los Realejos)","province":"Santa Cruz de Tenerife","location":"Realejos, Los"},{"postal_code":38441,"place":"Santo Domingo","province":"Santa Cruz de Tenerife","location":"La Guancha"},{"postal_code":38435,"place":"Erjos","province":"Santa Cruz de Tenerife","location":"Silos, Los"},{"postal_code":38434,"place":"Belmonte Bajo","province":"Santa Cruz de Tenerife","location":"Icod de los Vinos"},{"postal_code":38440,"place":"Lomo Blanco (Guancha, La)","province":"Santa Cruz de Tenerife","location":"La Guancha"},{"postal_code":38438,"place":"Cueva Del Viento","province":"Santa Cruz de Tenerife","location":"Icod de los Vinos"},{"postal_code":38450,"place":"Garachico","province":"Santa Cruz de Tenerife","location":"Garachico"},{"postal_code":38459,"place":"Genoves","province":"Santa Cruz de Tenerife","location":"Garachico"},{"postal_code":38460,"place":"Cruces, Las (Garachico)","province":"Santa Cruz de Tenerife","location":"Silos, Los"},{"postal_code":38439,"place":"Las Abiertas","province":"Santa Cruz de Tenerife","location":"Icod de los Vinos"},{"postal_code":38419,"place":"San Benito (Los Realejos)","province":"Santa Cruz de Tenerife","location":"Realejos, Los"},{"postal_code":38440,"place":"La Guancha","province":"Santa Cruz de Tenerife","location":"La Guancha"},{"postal_code":38459,"place":"Monta�eta, La (Garachico)","province":"Santa Cruz de Tenerife","location":"Garachico"},{"postal_code":38449,"place":"Hoya Pablos","province":"Santa Cruz de Tenerife","location":"La Guancha"},{"postal_code":38449,"place":"Llano Mendez","province":"Santa Cruz de Tenerife","location":"La Guancha"},{"postal_code":38441,"place":"Convento, El (La Guancha)","province":"Santa Cruz de Tenerife","location":"La Guancha"},{"postal_code":38441,"place":"Las Longueras","province":"Santa Cruz de Tenerife","location":"La Guancha"},{"postal_code":38460,"place":"Caleta De Silos","province":"Santa Cruz de Tenerife","location":"Silos, Los"},{"postal_code":38530,"place":"Las Caletillas","province":"Santa Cruz de Tenerife","location":"Candelaria"},{"postal_code":38460,"place":"Casa Amarilla","province":"Santa Cruz de Tenerife","location":"Silos, Los"},{"postal_code":38479,"place":"Sibora","province":"Santa Cruz de Tenerife","location":"Buenavista del Norte"},{"postal_code":38489,"place":"Las Portelas","province":"Santa Cruz de Tenerife","location":"Buenavista del Norte"},{"postal_code":38459,"place":"San Juan Del Reparo","province":"Santa Cruz de Tenerife","location":"Garachico"},{"postal_code":38509,"place":"Aroba","province":"Santa Cruz de Tenerife","location":"Candelaria"},{"postal_code":38434,"place":"La Mancha","province":"Santa Cruz de Tenerife","location":"Icod de los Vinos"},{"postal_code":38460,"place":"La Caleta De Interian","province":"Santa Cruz de Tenerife","location":"Silos, Los"},{"postal_code":38489,"place":"Masca","province":"Santa Cruz de Tenerife","location":"Buenavista del Norte"},{"postal_code":38479,"place":"Puertito De Los Silos","province":"Santa Cruz de Tenerife","location":"Buenavista del Norte"},{"postal_code":38430,"place":"Icod","province":"Santa Cruz de Tenerife","location":"Icod de los Vinos"},{"postal_code":38420,"place":"San Juan De La Rambla","province":"Santa Cruz de Tenerife","location":"San Juan de la Rambla"},{"postal_code":38489,"place":"Los Carrizales","province":"Santa Cruz de Tenerife","location":"Buenavista del Norte"},{"postal_code":38470,"place":"Los Silos","province":"Santa Cruz de Tenerife","location":"Silos, Los"},{"postal_code":38508,"place":"El Puertito De Guimar","province":"Santa Cruz de Tenerife","location":"G��mar"},{"postal_code":38434,"place":"Florida, La (Icod)","province":"Santa Cruz de Tenerife","location":"Icod de los Vinos"},{"postal_code":38435,"place":"San Jose De Los Llanos","province":"Santa Cruz de Tenerife","location":"Silos, Los"},{"postal_code":38509,"place":"Candelaria, Industrial (Paseo)","province":"Santa Cruz de Tenerife","location":"Candelaria"},{"postal_code":38479,"place":"Barrio De San Jose Bajo","province":"Santa Cruz de Tenerife","location":"Buenavista del Norte"},{"postal_code":38439,"place":"La Vega","province":"Santa Cruz de Tenerife","location":"Icod de los Vinos"},{"postal_code":38479,"place":"San Bernardo","province":"Santa Cruz de Tenerife","location":"Buenavista del Norte"},{"postal_code":38439,"place":"Cruz Del Camino","province":"Santa Cruz de Tenerife","location":"Icod de los Vinos"},{"postal_code":38489,"place":"Teno","province":"Santa Cruz de Tenerife","location":"Buenavista del Norte"},{"postal_code":38489,"place":"El Palmar","province":"Santa Cruz de Tenerife","location":"Buenavista del Norte"},{"postal_code":38441,"place":"Monta�etas, Las (La Guancha)","province":"Santa Cruz de Tenerife","location":"La Guancha"},{"postal_code":38500,"place":"Guimar","province":"Santa Cruz de Tenerife","location":"G��mar"},{"postal_code":38508,"place":"Socorro, El (Guimar)","province":"Santa Cruz de Tenerife","location":"G��mar"},{"postal_code":38449,"place":"El Pinalete","province":"Santa Cruz de Tenerife","location":"La Guancha"},{"postal_code":38509,"place":"Brillasol","province":"Santa Cruz de Tenerife","location":"Candelaria"},{"postal_code":38460,"place":"San Pedro De Daute","province":"Santa Cruz de Tenerife","location":"Silos, Los"},{"postal_code":38458,"place":"Guincho, El (Garachico)","province":"Santa Cruz de Tenerife","location":"Garachico"},{"postal_code":38510,"place":"Barranco Hondo","province":"Santa Cruz de Tenerife","location":"Rosario, El"},{"postal_code":38470,"place":"El Casco","province":"Santa Cruz de Tenerife","location":"Silos, Los"},{"postal_code":38480,"place":"Buenavista Del Norte","province":"Santa Cruz de Tenerife","location":"Buenavista del Norte"},{"postal_code":38509,"place":"La Viuda","province":"Santa Cruz de Tenerife","location":"Candelaria"},{"postal_code":38489,"place":"Lagunetas (Buenavista)","province":"Santa Cruz de Tenerife","location":"Buenavista del Norte"},{"postal_code":38520,"place":"Igueste De Candelaria","province":"Santa Cruz de Tenerife","location":"Candelaria"},{"postal_code":38540,"place":"Las Cuevecitas","province":"Santa Cruz de Tenerife","location":"Candelaria"},{"postal_code":38579,"place":"Sabina Alta (Fasnia)","province":"Santa Cruz de Tenerife","location":"Fasnia"},{"postal_code":38560,"place":"Pajara (Guimar)","province":"Santa Cruz de Tenerife","location":"G��mar"},{"postal_code":38550,"place":"Arafo","province":"Santa Cruz de Tenerife","location":"Arafo"},{"postal_code":38550,"place":"La Hidalga","province":"Santa Cruz de Tenerife","location":"Arafo"},{"postal_code":38570,"place":"Roque, Los (Fasnia)","province":"Santa Cruz de Tenerife","location":"Fasnia"},{"postal_code":38589,"place":"Degollada, La (Arico)","province":"Santa Cruz de Tenerife","location":"Arico"},{"postal_code":38588,"place":"La Jaca","province":"Santa Cruz de Tenerife","location":"Arico"},{"postal_code":38588,"place":"Faro De Abona","province":"Santa Cruz de Tenerife","location":"Arico"},{"postal_code":38580,"place":"Villa De Arico","province":"Santa Cruz de Tenerife","location":"Arico"},{"postal_code":38589,"place":"Arico El Nuevo","province":"Santa Cruz de Tenerife","location":"Arico"},{"postal_code":38540,"place":"Malpais (Araya)","province":"Santa Cruz de Tenerife","location":"Candelaria"},{"postal_code":38589,"place":"La Cisnera","province":"Santa Cruz de Tenerife","location":"Arico"},{"postal_code":38612,"place":"El Medano","province":"Santa Cruz de Tenerife","location":"Granadilla de Abona"},{"postal_code":38614,"place":"La Escalona","province":"Santa Cruz de Tenerife","location":"Vilaflor"},{"postal_code":38530,"place":"Candelaria","province":"Santa Cruz de Tenerife","location":"Candelaria"},{"postal_code":38592,"place":"Icor","province":"Santa Cruz de Tenerife","location":"Arico"},{"postal_code":38611,"place":"Chuchurumbache","province":"Santa Cruz de Tenerife","location":"Granadilla de Abona"},{"postal_code":38591,"place":"El Tablado","province":"Santa Cruz de Tenerife","location":"G��mar"},{"postal_code":38616,"place":"Vicacaro","province":"Santa Cruz de Tenerife","location":"Granadilla de Abona"},{"postal_code":38610,"place":"Aeropuerto Reina Sofia (Santa Cruz De Tenerife)","province":"Santa Cruz de Tenerife"},{"postal_code":38540,"place":"Araya","province":"Santa Cruz de Tenerife","location":"Candelaria"},{"postal_code":38611,"place":"Casablanca (Granadilla)","province":"Santa Cruz de Tenerife","location":"Granadilla de Abona"},{"postal_code":38594,"place":"Chimiche","province":"Santa Cruz de Tenerife","location":"Granadilla de Abona"},{"postal_code":38591,"place":"El Escobonal","province":"Santa Cruz de Tenerife","location":"G��mar"},{"postal_code":38595,"place":"Charco Del Pino","province":"Santa Cruz de Tenerife","location":"Granadilla de Abona"},{"postal_code":38616,"place":"Los Blanquitos","province":"Santa Cruz de Tenerife","location":"Granadilla de Abona"},{"postal_code":38617,"place":"Yaco","province":"Santa Cruz de Tenerife","location":"Granadilla de Abona"},{"postal_code":38616,"place":"Cruz De Tea (Granadilla)","province":"Santa Cruz de Tenerife","location":"Granadilla de Abona"},{"postal_code":38560,"place":"La Medida","province":"Santa Cruz de Tenerife","location":"G��mar"},{"postal_code":38617,"place":"Llanos, Los (Granadilla)","province":"Santa Cruz de Tenerife","location":"Granadilla de Abona"},{"postal_code":38616,"place":"El Desierto","province":"Santa Cruz de Tenerife","location":"Granadilla de Abona"},{"postal_code":38619,"place":"Granadilla (Poligono Industrial)","province":"Santa Cruz de Tenerife"},{"postal_code":38560,"place":"Punta Prieta","province":"Santa Cruz de Tenerife","location":"G��mar"},{"postal_code":38550,"place":"El Carreton","province":"Santa Cruz de Tenerife","location":"Arafo"},{"postal_code":38570,"place":"Fasnia","province":"Santa Cruz de Tenerife","location":"Fasnia"},{"postal_code":38629,"place":"El Roque","province":"Santa Cruz de Tenerife","location":"San Miguel de Abona"},{"postal_code":38628,"place":"Las Zocas","province":"Santa Cruz de Tenerife","location":"San Miguel de Abona"},{"postal_code":38632,"place":"Guargacho","province":"Santa Cruz de Tenerife","location":"Arona"},{"postal_code":38628,"place":"Aldea Blanca","province":"Santa Cruz de Tenerife","location":"San Miguel de Abona"},{"postal_code":38627,"place":"Buzanada","province":"Santa Cruz de Tenerife","location":"Arona"},{"postal_code":38631,"place":"Las Galletas","province":"Santa Cruz de Tenerife","location":"Arona"},{"postal_code":38627,"place":"Cabo Blanco","province":"Santa Cruz de Tenerife","location":"Arona"},{"postal_code":38626,"place":"Los Toscales","province":"Santa Cruz de Tenerife","location":"Arona"},{"postal_code":38629,"place":"El Fronton","province":"Santa Cruz de Tenerife","location":"San Miguel de Abona"},{"postal_code":38579,"place":"La Zarza","province":"Santa Cruz de Tenerife","location":"Fasnia"},{"postal_code":38632,"place":"Fraile","province":"Santa Cruz de Tenerife","location":"Arona"},{"postal_code":38570,"place":"Eras, Las (Fasnia)","province":"Santa Cruz de Tenerife","location":"Fasnia"},{"postal_code":38632,"place":"Palm-Mar","province":"Santa Cruz de Tenerife","location":"Arona"},{"postal_code":38588,"place":"Poris De Abona","province":"Santa Cruz de Tenerife","location":"Arico"},{"postal_code":38579,"place":"Sombrera, La (Fasnia)","province":"Santa Cruz de Tenerife","location":"Fasnia"},{"postal_code":38588,"place":"Casablanca (Poris)","province":"Santa Cruz de Tenerife","location":"Arico"},{"postal_code":38588,"place":"San Miguel De Tajao","province":"Santa Cruz de Tenerife","location":"Arico"},{"postal_code":38589,"place":"Los Gavilanes","province":"Santa Cruz de Tenerife","location":"Arico"},{"postal_code":38588,"place":"Punta De Abona","province":"Santa Cruz de Tenerife","location":"Arico"},{"postal_code":38589,"place":"Teguedite","province":"Santa Cruz de Tenerife","location":"Arico"},{"postal_code":38589,"place":"Arico El Viejo","province":"Santa Cruz de Tenerife","location":"Arico"},{"postal_code":38589,"place":"La Sabinita","province":"Santa Cruz de Tenerife","location":"Arico"},{"postal_code":38591,"place":"Chimaje","province":"Santa Cruz de Tenerife","location":"G��mar"},{"postal_code":38590,"place":"Lomo De Mena","province":"Santa Cruz de Tenerife","location":"G��mar"},{"postal_code":38591,"place":"Aguerche","province":"Santa Cruz de Tenerife","location":"G��mar"},{"postal_code":38594,"place":"Rosas, Las (Granadilla)","province":"Santa Cruz de Tenerife","location":"Granadilla de Abona"},{"postal_code":38592,"place":"Eras, Las (Arico)","province":"Santa Cruz de Tenerife","location":"Arico"},{"postal_code":38593,"place":"El Rio De Arico","province":"Santa Cruz de Tenerife","location":"Arico"},{"postal_code":38611,"place":"San Isidro De Abona","province":"Santa Cruz de Tenerife","location":"Granadilla de Abona"},{"postal_code":38600,"place":"Granadilla","province":"Santa Cruz de Tenerife","location":"Granadilla de Abona"},{"postal_code":38594,"place":"Vegas, Las (Granadilla)","province":"Santa Cruz de Tenerife","location":"Granadilla de Abona"},{"postal_code":38611,"place":"Castro","province":"Santa Cruz de Tenerife","location":"Granadilla de Abona"},{"postal_code":38611,"place":"Vistas De Yaco","province":"Santa Cruz de Tenerife","location":"Granadilla de Abona"},{"postal_code":38613,"place":"Vilaflor","province":"Santa Cruz de Tenerife","location":"Vilaflor"},{"postal_code":38611,"place":"Atogo","province":"Santa Cruz de Tenerife","location":"Granadilla de Abona"},{"postal_code":38611,"place":"Monta�a De Yaco","province":"Santa Cruz de Tenerife","location":"Granadilla de Abona"},{"postal_code":38615,"place":"Ifonche","province":"Santa Cruz de Tenerife","location":"Adeje"},{"postal_code":38615,"place":"Trevejos","province":"Santa Cruz de Tenerife","location":"Adeje"},{"postal_code":38616,"place":"Los Barrancos","province":"Santa Cruz de Tenerife","location":"Granadilla de Abona"},{"postal_code":38616,"place":"Higuera, La (Granadilla)","province":"Santa Cruz de Tenerife","location":"Granadilla de Abona"},{"postal_code":38616,"place":"Chavez","province":"Santa Cruz de Tenerife","location":"Granadilla de Abona"},{"postal_code":38617,"place":"Las Palomas","province":"Santa Cruz de Tenerife","location":"Granadilla de Abona"},{"postal_code":38616,"place":"Cruz De Las Animas","province":"Santa Cruz de Tenerife","location":"Granadilla de Abona"},{"postal_code":38617,"place":"El Salto","province":"Santa Cruz de Tenerife","location":"Granadilla de Abona"},{"postal_code":38617,"place":"El Draguito","province":"Santa Cruz de Tenerife","location":"Granadilla de Abona"},{"postal_code":38617,"place":"Vista Gorda","province":"Santa Cruz de Tenerife","location":"Granadilla de Abona"},{"postal_code":38618,"place":"Los Abrigos","province":"Santa Cruz de Tenerife","location":"Granadilla de Abona"},{"postal_code":38626,"place":"Valle De San Lorenzo","province":"Santa Cruz de Tenerife","location":"Arona"},{"postal_code":38620,"place":"San Miguel De Abona","province":"Santa Cruz de Tenerife","location":"San Miguel de Abona"},{"postal_code":38627,"place":"La Camella","province":"Santa Cruz de Tenerife","location":"Arona"},{"postal_code":38627,"place":"Barranco Oscuro","province":"Santa Cruz de Tenerife","location":"Arona"},{"postal_code":38626,"place":"Cruz De Guanche","province":"Santa Cruz de Tenerife","location":"Arona"},{"postal_code":38627,"place":"Los Bebederos","province":"Santa Cruz de Tenerife","location":"Arona"},{"postal_code":38628,"place":"Asomada","province":"Santa Cruz de Tenerife","location":"San Miguel de Abona"},{"postal_code":38628,"place":"Tamaide (San Miguel)","province":"Santa Cruz de Tenerife","location":"San Miguel de Abona"},{"postal_code":38629,"place":"Jama","province":"Santa Cruz de Tenerife","location":"San Miguel de Abona"},{"postal_code":38630,"place":"Costa Del Silencio","province":"Santa Cruz de Tenerife","location":"Arona"},{"postal_code":38630,"place":"Ten-Bel (Urbanizacion)","province":"Santa Cruz de Tenerife","location":"Arona"},{"postal_code":38629,"place":"Asomada Alta","province":"Santa Cruz de Tenerife","location":"San Miguel de Abona"},{"postal_code":38631,"place":"Rosas, Las (Las Galletas)","province":"Santa Cruz de Tenerife","location":"Arona"},{"postal_code":38632,"place":"Guaza","province":"Santa Cruz de Tenerife","location":"Arona"},{"postal_code":38632,"place":"Reina, La (Parque)","province":"Santa Cruz de Tenerife","location":"Arona"},{"postal_code":38639,"place":"Golf Del Sur","province":"Santa Cruz de Tenerife","location":"Arona"},{"postal_code":38632,"place":"Cho","province":"Santa Cruz de Tenerife","location":"Arona"},{"postal_code":38649,"place":"Vento","province":"Santa Cruz de Tenerife","location":"Arona"},{"postal_code":38649,"place":"Tunez","province":"Santa Cruz de Tenerife","location":"Arona"},{"postal_code":38660,"place":"La Caldera","province":"Santa Cruz de Tenerife","location":"Adeje"},{"postal_code":38660,"place":"Costa Adeje-San Eugenio","province":"Santa Cruz de Tenerife","location":"Adeje"},{"postal_code":38640,"place":"Arona","province":"Santa Cruz de Tenerife","location":"Arona"},{"postal_code":38650,"place":"Playa De Los Cristianos","province":"Santa Cruz de Tenerife","location":"Arona"},{"postal_code":38639,"place":"Guincho, El (San Miguel)","province":"Santa Cruz de Tenerife","location":"Arona"},{"postal_code":38677,"place":"La Concepcion","province":"Santa Cruz de Tenerife","location":"Adeje"},{"postal_code":38678,"place":"El Puertito De Adeje","province":"Santa Cruz de Tenerife","location":"Adeje"},{"postal_code":38677,"place":"Tijoco Bajo","province":"Santa Cruz de Tenerife","location":"Adeje"},{"postal_code":38639,"place":"Amarilla Golf","province":"Santa Cruz de Tenerife","location":"Arona"},{"postal_code":38686,"place":"Cueva Del Polvo","province":"Santa Cruz de Tenerife","location":"Gu�a de Isora"},{"postal_code":38687,"place":"Aguadulce","province":"Santa Cruz de Tenerife","location":"Gu�a de Isora"},{"postal_code":38678,"place":"Marazul","province":"Santa Cruz de Tenerife","location":"Adeje"},{"postal_code":38688,"place":"Pozo, El (Guia De Isora)","province":"Santa Cruz de Tenerife","location":"Gu�a de Isora"},{"postal_code":38683,"place":"Acantilados De Los Gigantes","province":"Santa Cruz de Tenerife","location":"Santiago del Teide"},{"postal_code":38677,"place":"Tijoco Alto","province":"Santa Cruz de Tenerife","location":"Adeje"},{"postal_code":38652,"place":"Chayofa","province":"Santa Cruz de Tenerife","location":"Arona"},{"postal_code":38670,"place":"Las Torres","province":"Santa Cruz de Tenerife","location":"Adeje"},{"postal_code":38639,"place":"Chafiras, Las (San Miguel De Abona)","province":"Santa Cruz de Tenerife","location":"Arona"},{"postal_code":38684,"place":"Tamaimo (Santiago Del Teide)","province":"Santa Cruz de Tenerife","location":"Santiago del Teide"},{"postal_code":38649,"place":"Casas, Las (Arona)","province":"Santa Cruz de Tenerife","location":"Arona"},{"postal_code":38677,"place":"Quinta, La (Adeje)","province":"Santa Cruz de Tenerife","location":"Adeje"},{"postal_code":38688,"place":"Lomo Del Balo (Guia I.)","province":"Santa Cruz de Tenerife","location":"Gu�a de Isora"},{"postal_code":38649,"place":"Monta�a Fria","province":"Santa Cruz de Tenerife","location":"Arona"},{"postal_code":38690,"place":"Santiago Del Teide","province":"Santa Cruz de Tenerife","location":"Santiago del Teide"},{"postal_code":38677,"place":"Taucho","province":"Santa Cruz de Tenerife","location":"Adeje"},{"postal_code":38679,"place":"Fa�abe","province":"Santa Cruz de Tenerife","location":"Adeje"},{"postal_code":38687,"place":"Playa San Juan","province":"Santa Cruz de Tenerife","location":"Gu�a de Isora"},{"postal_code":38678,"place":"Callao Salvaje","province":"Santa Cruz de Tenerife","location":"Adeje"},{"postal_code":38649,"place":"Sabinita Alta","province":"Santa Cruz de Tenerife","location":"Arona"},{"postal_code":38710,"place":"Bre�a Alta","province":"Santa Cruz de Tenerife","location":"Bre�a Alta"},{"postal_code":38688,"place":"Acojeja","province":"Santa Cruz de Tenerife","location":"Gu�a de Isora"},{"postal_code":38660,"place":"Costa Adeje","province":"Santa Cruz de Tenerife","location":"Adeje"},{"postal_code":38660,"place":"Costa Adeje-Playas De Fa�abe","province":"Santa Cruz de Tenerife","location":"Adeje"},{"postal_code":38714,"place":"Lomo Pi�edo","province":"Santa Cruz de Tenerife","location":"Puntallana"},{"postal_code":38712,"place":"Los Cancajos","province":"Santa Cruz de Tenerife","location":"Bre�a Alta"},{"postal_code":38688,"place":"Chirche","province":"Santa Cruz de Tenerife","location":"Gu�a de Isora"},{"postal_code":38687,"place":"Piedra Hincada","province":"Santa Cruz de Tenerife","location":"Gu�a de Isora"},{"postal_code":38713,"place":"Cuesta, La (Bre�a Alta)","province":"Santa Cruz de Tenerife","location":"Bre�a Alta"},{"postal_code":38714,"place":"San Bartolome (Puntallana)","province":"Santa Cruz de Tenerife","location":"Puntallana"},{"postal_code":38685,"place":"Tejina De Isora","province":"Santa Cruz de Tenerife","location":"Gu�a de Isora"},{"postal_code":38690,"place":"Molledo","province":"Santa Cruz de Tenerife","location":"Santiago del Teide"},{"postal_code":38670,"place":"Adeje Casco","province":"Santa Cruz de Tenerife","location":"Adeje"},{"postal_code":38713,"place":"Belhoco","province":"Santa Cruz de Tenerife","location":"Bre�a Alta"},{"postal_code":38687,"place":"Abama","province":"Santa Cruz de Tenerife","location":"Gu�a de Isora"},{"postal_code":38688,"place":"El Jaral","province":"Santa Cruz de Tenerife","location":"Gu�a de Isora"},{"postal_code":38715,"place":"La Camacha","province":"Santa Cruz de Tenerife","location":"Puntallana"},{"postal_code":38677,"place":"Moraditas, Las (Adeje)","province":"Santa Cruz de Tenerife","location":"Adeje"},{"postal_code":38726,"place":"Lomo Machin","province":"Santa Cruz de Tenerife","location":"Barlovento"},{"postal_code":38670,"place":"Las Nieves","province":"Santa Cruz de Tenerife","location":"Adeje"},{"postal_code":38678,"place":"Arme�ime","province":"Santa Cruz de Tenerife","location":"Adeje"},{"postal_code":38680,"place":"Guia De Isora","province":"Santa Cruz de Tenerife","location":"Gu�a de Isora"},{"postal_code":38690,"place":"Manchas, Las (Santiago Del Teide)","province":"Santa Cruz de Tenerife","location":"Santiago del Teide"},{"postal_code":38688,"place":"Vera De Erques","province":"Santa Cruz de Tenerife","location":"Gu�a de Isora"},{"postal_code":38689,"place":"Chio","province":"Santa Cruz de Tenerife","location":"Gu�a de Isora"},{"postal_code":38688,"place":"Aripe","province":"Santa Cruz de Tenerife","location":"Gu�a de Isora"},{"postal_code":38686,"place":"Alcala","province":"Santa Cruz de Tenerife","location":"Gu�a de Isora"},{"postal_code":38687,"place":"Fonsalia","province":"Santa Cruz de Tenerife","location":"Gu�a de Isora"},{"postal_code":38711,"place":"La Polvacera","province":"Santa Cruz de Tenerife","location":"Bre�a Baja"},{"postal_code":38690,"place":"Arguayo","province":"Santa Cruz de Tenerife","location":"Santiago del Teide"},{"postal_code":38677,"place":"Los Menores","province":"Santa Cruz de Tenerife","location":"Adeje"},{"postal_code":38711,"place":"San Antonio De Bre�a","province":"Santa Cruz de Tenerife","location":"Bre�a Baja"},{"postal_code":38713,"place":"Alamos, Los (Santa Cruz De La Palma)","province":"Santa Cruz de Tenerife","location":"Bre�a Alta"},{"postal_code":38700,"place":"Santa Cruz De La Palma","province":"Santa Cruz de Tenerife","location":"Santa Cruz de la Palma"},{"postal_code":38713,"place":"Buenavista De Abajo","province":"Santa Cruz de Tenerife","location":"Bre�a Alta"},{"postal_code":38714,"place":"Galga, La (Puntallana)","province":"Santa Cruz de Tenerife","location":"Puntallana"},{"postal_code":38715,"place":"Puntallana","province":"Santa Cruz de Tenerife","location":"Puntallana"},{"postal_code":38712,"place":"Monta�a La Bre�a","province":"Santa Cruz de Tenerife","location":"Bre�a Alta"},{"postal_code":38678,"place":"Las Cancelas","province":"Santa Cruz de Tenerife","location":"Adeje"},{"postal_code":38690,"place":"Retamar, El (Santiago Del Teide)","province":"Santa Cruz de Tenerife","location":"Santiago del Teide"},{"postal_code":38715,"place":"Candelaria (Santa Cruz De La Palma)","province":"Santa Cruz de Tenerife","location":"Puntallana"},{"postal_code":38712,"place":"Las Ledas","province":"Santa Cruz de Tenerife","location":"Bre�a Alta"},{"postal_code":38712,"place":"El Fuerte","province":"Santa Cruz de Tenerife","location":"Bre�a Alta"},{"postal_code":38683,"place":"Puerto De Santiago","province":"Santa Cruz de Tenerife","location":"Santiago del Teide"},{"postal_code":38713,"place":"Nieves, Las (Santa Cruz De La Palma)","province":"Santa Cruz de Tenerife","location":"Bre�a Alta"},{"postal_code":38686,"place":"El Varadero","province":"Santa Cruz de Tenerife","location":"Gu�a de Isora"},{"postal_code":38688,"place":"Chiguergue","province":"Santa Cruz de Tenerife","location":"Gu�a de Isora"},{"postal_code":38687,"place":"Aponte","province":"Santa Cruz de Tenerife","location":"Gu�a de Isora"},{"postal_code":38712,"place":"El Socorro","province":"Santa Cruz de Tenerife","location":"Bre�a Alta"},{"postal_code":38713,"place":"Buenavista De Arriba","province":"Santa Cruz de Tenerife","location":"Bre�a Alta"},{"postal_code":38714,"place":"Lomo El Corcho","province":"Santa Cruz de Tenerife","location":"Puntallana"},{"postal_code":38714,"place":"El Posito","province":"Santa Cruz de Tenerife","location":"Puntallana"},{"postal_code":38714,"place":"Llano Molino","province":"Santa Cruz de Tenerife","location":"Puntallana"},{"postal_code":38712,"place":"San Jose De Bre�a Baja","province":"Santa Cruz de Tenerife","location":"Bre�a Alta"},{"postal_code":38688,"place":"La Gambueza","province":"Santa Cruz de Tenerife","location":"Gu�a de Isora"},{"postal_code":38715,"place":"Lomadilla","province":"Santa Cruz de Tenerife","location":"Puntallana"},{"postal_code":38714,"place":"Lomo Estrecho","province":"Santa Cruz de Tenerife","location":"Puntallana"},{"postal_code":38690,"place":"Valle De Arriba","province":"Santa Cruz de Tenerife","location":"Santiago del Teide"},{"postal_code":38713,"place":"Barranco Del Rio","province":"Santa Cruz de Tenerife","location":"Bre�a Alta"},{"postal_code":38713,"place":"Las Tierritas","province":"Santa Cruz de Tenerife","location":"Bre�a Alta"},{"postal_code":38713,"place":"Botazo","province":"Santa Cruz de Tenerife","location":"Bre�a Alta"},{"postal_code":38714,"place":"Cercado Pe�on (Puntallana)","province":"Santa Cruz de Tenerife","location":"Puntallana"},{"postal_code":38700,"place":"Morro, El (Santa Cruz De La Palma)","province":"Santa Cruz de Tenerife","location":"Santa Cruz de la Palma"},{"postal_code":38714,"place":"El Granel","province":"Santa Cruz de Tenerife","location":"Puntallana"},{"postal_code":38715,"place":"El Taboco","province":"Santa Cruz de Tenerife","location":"Puntallana"},{"postal_code":38715,"place":"Lomo De Los Gomeros","province":"Santa Cruz de Tenerife","location":"Puntallana"},{"postal_code":38726,"place":"Barlovento","province":"Santa Cruz de Tenerife","location":"Barlovento"},{"postal_code":38715,"place":"Toscas, Las (Santa Cruz De La Palma)","province":"Santa Cruz de Tenerife","location":"Puntallana"},{"postal_code":38720,"place":"San Andres Y Sauces","province":"Santa Cruz de Tenerife","location":"San Andr�s y Sauces"},{"postal_code":38727,"place":"Marantes","province":"Santa Cruz de Tenerife","location":"Barlovento"},{"postal_code":38727,"place":"Gallegos","province":"Santa Cruz de Tenerife","location":"Barlovento"},{"postal_code":38727,"place":"Lomo Quinto","province":"Santa Cruz de Tenerife","location":"Barlovento"},{"postal_code":38727,"place":"Lomo Romero","province":"Santa Cruz de Tenerife","location":"Barlovento"},{"postal_code":38727,"place":"Topaciegas","province":"Santa Cruz de Tenerife","location":"Barlovento"},{"postal_code":38728,"place":"Roque Faro","province":"Santa Cruz de Tenerife","location":"Garaf�a"},{"postal_code":38729,"place":"San Juan (San Andres Y Sauces)","province":"Santa Cruz de Tenerife","location":"San Andr�s y Sauces"},{"postal_code":38727,"place":"Tosca, La (Barlovento)","province":"Santa Cruz de Tenerife","location":"Barlovento"},{"postal_code":38738,"place":"Monte De Luna","province":"Santa Cruz de Tenerife","location":"Villa de Mazo"},{"postal_code":38726,"place":"Las Paredes","province":"Santa Cruz de Tenerife","location":"Barlovento"},{"postal_code":38729,"place":"Bermudez","province":"Santa Cruz de Tenerife","location":"San Andr�s y Sauces"},{"postal_code":38738,"place":"San Simon","province":"Santa Cruz de Tenerife","location":"Villa de Mazo"},{"postal_code":38726,"place":"Lomo Machin Alto","province":"Santa Cruz de Tenerife","location":"Barlovento"},{"postal_code":38749,"place":"Caletas, Las (Fuencalite)","province":"Santa Cruz de Tenerife","location":"Fuencaliente de la Palma"},{"postal_code":38739,"place":"Monte Pueblo","province":"Santa Cruz de Tenerife","location":"Villa de Mazo"},{"postal_code":38729,"place":"Verada De Lomadas","province":"Santa Cruz de Tenerife","location":"San Andr�s y Sauces"},{"postal_code":38738,"place":"Malpaises","province":"Santa Cruz de Tenerife","location":"Villa de Mazo"},{"postal_code":38727,"place":"Oropesa","province":"Santa Cruz de Tenerife","location":"Barlovento"},{"postal_code":38729,"place":"Llano Del Pino","province":"Santa Cruz de Tenerife","location":"San Andr�s y Sauces"},{"postal_code":38729,"place":"Verada De Bajamar","province":"Santa Cruz de Tenerife","location":"San Andr�s y Sauces"},{"postal_code":38729,"place":"Roque, El (San Andres Y Sauces)","province":"Santa Cruz de Tenerife","location":"San Andr�s y Sauces"},{"postal_code":38727,"place":"Palmita, La (Barlovento)","province":"Santa Cruz de Tenerife","location":"Barlovento"},{"postal_code":38738,"place":"Aeropuerto De La Palma","province":"Santa Cruz de Tenerife","location":"Villa de Mazo"},{"postal_code":38740,"place":"Fuencaliente","province":"Santa Cruz de Tenerife","location":"Fuencaliente de la Palma"},{"postal_code":38758,"place":"Rosa, La (El Paso)","province":"Santa Cruz de Tenerife","location":"Paso, El"},{"postal_code":38759,"place":"Manchas, Las (El Paso)","province":"Santa Cruz de Tenerife","location":"Llanos de Aridane, Los"},{"postal_code":38727,"place":"Cuesta, La (Barlovento)","province":"Santa Cruz de Tenerife","location":"Barlovento"},{"postal_code":38767,"place":"Rosas, Las (Los Llanos)","province":"Santa Cruz de Tenerife","location":"Llanos de Aridane, Los"},{"postal_code":38738,"place":"Tiguerorte","province":"Santa Cruz de Tenerife","location":"Villa de Mazo"},{"postal_code":38730,"place":"Mazo","province":"Santa Cruz de Tenerife","location":"Villa de Mazo"},{"postal_code":38739,"place":"Rosa, La (Mazo)","province":"Santa Cruz de Tenerife","location":"Villa de Mazo"},{"postal_code":38759,"place":"Malpais (El Paso)","province":"Santa Cruz de Tenerife","location":"Llanos de Aridane, Los"},{"postal_code":38769,"place":"Puerto De Naos","province":"Santa Cruz de Tenerife","location":"Llanos de Aridane, Los"},{"postal_code":38750,"place":"El Paso","province":"Santa Cruz de Tenerife","location":"Paso, El"},{"postal_code":38779,"place":"El Puerto De Tazacorte","province":"Santa Cruz de Tenerife","location":"Tazacorte"},{"postal_code":38760,"place":"Retamar (Los Llanos)","province":"Santa Cruz de Tenerife","location":"Llanos de Aridane, Los"},{"postal_code":38727,"place":"Cabezadas Bajas","province":"Santa Cruz de Tenerife","location":"Barlovento"},{"postal_code":38780,"place":"El Jesus","province":"Santa Cruz de Tenerife","location":"Tijarafe"},{"postal_code":38769,"place":"La Condesa","province":"Santa Cruz de Tenerife","location":"Llanos de Aridane, Los"},{"postal_code":38788,"place":"Las Tricias","province":"Santa Cruz de Tenerife","location":"Garaf�a"},{"postal_code":38769,"place":"Casa De La Bombilla","province":"Santa Cruz de Tenerife","location":"Llanos de Aridane, Los"},{"postal_code":38739,"place":"Monte Bre�as","province":"Santa Cruz de Tenerife","location":"Villa de Mazo"},{"postal_code":38758,"place":"Barrial De Arriba","province":"Santa Cruz de Tenerife","location":"Paso, El"},{"postal_code":38727,"place":"Lomo De Los Castros","province":"Santa Cruz de Tenerife","location":"Barlovento"},{"postal_code":38768,"place":"Barros, Los (Los Llanos De Aridane)","province":"Santa Cruz de Tenerife","location":"Llanos de Aridane, Los"},{"postal_code":38779,"place":"Marina","province":"Santa Cruz de Tenerife","location":"Tazacorte"},{"postal_code":38780,"place":"Punta, La (Tijarafe)","province":"Santa Cruz de Tenerife","location":"Tijarafe"},{"postal_code":38769,"place":"El Remo","province":"Santa Cruz de Tenerife","location":"Llanos de Aridane, Los"},{"postal_code":38759,"place":"Paso De Abajo","province":"Santa Cruz de Tenerife","location":"Llanos de Aridane, Los"},{"postal_code":38789,"place":"Puntagorda","province":"Santa Cruz de Tenerife","location":"Tijarafe"},{"postal_code":38729,"place":"Quinta Zoca","province":"Santa Cruz de Tenerife","location":"San Andr�s y Sauces"},{"postal_code":38749,"place":"Quemados, Los (Fuencaliente)","province":"Santa Cruz de Tenerife","location":"Fuencaliente de la Palma"},{"postal_code":38787,"place":"Garafia","province":"Santa Cruz de Tenerife","location":"Garaf�a"},{"postal_code":38780,"place":"Aguatavar","province":"Santa Cruz de Tenerife","location":"Tijarafe"},{"postal_code":38729,"place":"San Andres De La Palma","province":"Santa Cruz de Tenerife","location":"San Andr�s y Sauces"},{"postal_code":38738,"place":"Sabina, La (Mazo)","province":"Santa Cruz de Tenerife","location":"Villa de Mazo"},{"postal_code":38729,"place":"Ramirez","province":"Santa Cruz de Tenerife","location":"San Andr�s y Sauces"},{"postal_code":38788,"place":"Hoya Grande (Garafia)","province":"Santa Cruz de Tenerife","location":"Garaf�a"},{"postal_code":38738,"place":"Lomo Oscuro","province":"Santa Cruz de Tenerife","location":"Villa de Mazo"},{"postal_code":38758,"place":"Tacande De Arriba (El Paso)","province":"Santa Cruz de Tenerife","location":"Paso, El"},{"postal_code":38800,"place":"San Sebastian Gomera","province":"Santa Cruz de Tenerife","location":"San Sebasti�n de la Gomera"},{"postal_code":38739,"place":"Lodero","province":"Santa Cruz de Tenerife","location":"Villa de Mazo"},{"postal_code":38729,"place":"La Fuente Nueva","province":"Santa Cruz de Tenerife","location":"San Andr�s y Sauces"},{"postal_code":38758,"place":"Barrial De Abajo","province":"Santa Cruz de Tenerife","location":"Paso, El"},{"postal_code":38759,"place":"Cuatro Caminos (Llanos)","province":"Santa Cruz de Tenerife","location":"Llanos de Aridane, Los"},{"postal_code":38749,"place":"Las Indias","province":"Santa Cruz de Tenerife","location":"Fuencaliente de la Palma"},{"postal_code":38759,"place":"Tacande Abajo (El Paso)","province":"Santa Cruz de Tenerife","location":"Llanos de Aridane, Los"},{"postal_code":38780,"place":"Pueblo, El (Tijarafe)","province":"Santa Cruz de Tenerife","location":"Tijarafe"},{"postal_code":38768,"place":"Hermosilla","province":"Santa Cruz de Tenerife","location":"Llanos de Aridane, Los"},{"postal_code":38738,"place":"Tigalate Abajo","province":"Santa Cruz de Tenerife","location":"Villa de Mazo"},{"postal_code":38769,"place":"Tajuya","province":"Santa Cruz de Tenerife","location":"Llanos de Aridane, Los"},{"postal_code":38770,"place":"Tazacorte","province":"Santa Cruz de Tenerife","location":"Tazacorte"},{"postal_code":38759,"place":"Jedey (El Paso)","province":"Santa Cruz de Tenerife","location":"Llanos de Aridane, Los"},{"postal_code":38788,"place":"Castillo, El (Garafia)","province":"Santa Cruz de Tenerife","location":"Garaf�a"},{"postal_code":38759,"place":"Manchas De Abajo","province":"Santa Cruz de Tenerife","location":"Llanos de Aridane, Los"},{"postal_code":38738,"place":"Callejones De Abajo","province":"Santa Cruz de Tenerife","location":"Villa de Mazo"},{"postal_code":38760,"place":"Argual","province":"Santa Cruz de Tenerife","location":"Llanos de Aridane, Los"},{"postal_code":38780,"place":"Tijarafe","province":"Santa Cruz de Tenerife","location":"Tijarafe"},{"postal_code":38789,"place":"Pinar, El (Puntagorda)","province":"Santa Cruz de Tenerife","location":"Tijarafe"},{"postal_code":38760,"place":"Llanos De Aridane","province":"Santa Cruz de Tenerife","location":"Llanos de Aridane, Los"},{"postal_code":38739,"place":"El Poleal","province":"Santa Cruz de Tenerife","location":"Villa de Mazo"},{"postal_code":38768,"place":"Pedregales, Los (Los Llanos De Aridane)","province":"Santa Cruz de Tenerife","location":"Llanos de Aridane, Los"},{"postal_code":38749,"place":"El Charco","province":"Santa Cruz de Tenerife","location":"Fuencaliente de la Palma"},{"postal_code":38769,"place":"Dos Pinos","province":"Santa Cruz de Tenerife","location":"Llanos de Aridane, Los"},{"postal_code":38779,"place":"San Borondon","province":"Santa Cruz de Tenerife","location":"Tazacorte"},{"postal_code":38758,"place":"Barrial De Enmedio","province":"Santa Cruz de Tenerife","location":"Paso, El"},{"postal_code":38780,"place":"Arecida","province":"Santa Cruz de Tenerife","location":"Tijarafe"},{"postal_code":38759,"place":"El Paraiso","province":"Santa Cruz de Tenerife","location":"Llanos de Aridane, Los"},{"postal_code":38789,"place":"Roque, El (Puntagorda)","province":"Santa Cruz de Tenerife","location":"Tijarafe"},{"postal_code":38780,"place":"Amagar","province":"Santa Cruz de Tenerife","location":"Tijarafe"},{"postal_code":38759,"place":"San Nicolas (El Paso)","province":"Santa Cruz de Tenerife","location":"Llanos de Aridane, Los"},{"postal_code":38788,"place":"Llano Negro","province":"Santa Cruz de Tenerife","location":"Garaf�a"},{"postal_code":38767,"place":"Triana","province":"Santa Cruz de Tenerife","location":"Llanos de Aridane, Los"},{"postal_code":38769,"place":"Todoque","province":"Santa Cruz de Tenerife","location":"Llanos de Aridane, Los"},{"postal_code":38779,"place":"Costa, La (Tazacorte)","province":"Santa Cruz de Tenerife","location":"Tazacorte"},{"postal_code":38769,"place":"El Pedregal","province":"Santa Cruz de Tenerife","location":"Llanos de Aridane, Los"},{"postal_code":38780,"place":"Bellido","province":"Santa Cruz de Tenerife","location":"Tijarafe"},{"postal_code":38780,"place":"Tinizara","province":"Santa Cruz de Tenerife","location":"Tijarafe"},{"postal_code":38788,"place":"Cueva Del Agua","province":"Santa Cruz de Tenerife","location":"Garaf�a"},{"postal_code":38789,"place":"Fagundo","province":"Santa Cruz de Tenerife","location":"Tijarafe"},{"postal_code":38801,"place":"El Jorado","province":"Santa Cruz de Tenerife","location":"San Sebasti�n de la Gomera"},{"postal_code":38801,"place":"San Antonio Y Pilar","province":"Santa Cruz de Tenerife","location":"San Sebasti�n de la Gomera"},{"postal_code":38811,"place":"Benchijigua","province":"Santa Cruz de Tenerife","location":"Alajer�"},{"postal_code":38801,"place":"Inchereda","province":"Santa Cruz de Tenerife","location":"San Sebasti�n de la Gomera"},{"postal_code":38801,"place":"El Atajo","province":"Santa Cruz de Tenerife","location":"San Sebasti�n de la Gomera"},{"postal_code":38811,"place":"Tapahuga","province":"Santa Cruz de Tenerife","location":"Alajer�"},{"postal_code":38801,"place":"Chejelipes","province":"Santa Cruz de Tenerife","location":"San Sebasti�n de la Gomera"},{"postal_code":38801,"place":"Lomito Fragoso Y Honduras","province":"Santa Cruz de Tenerife","location":"San Sebasti�n de la Gomera"},{"postal_code":38811,"place":"Las Toscas","province":"Santa Cruz de Tenerife","location":"Alajer�"},{"postal_code":38801,"place":"La Laja","province":"Santa Cruz de Tenerife","location":"San Sebasti�n de la Gomera"},{"postal_code":38811,"place":"Tecina","province":"Santa Cruz de Tenerife","location":"Alajer�"},{"postal_code":38820,"place":"El Tabaibal","province":"Santa Cruz de Tenerife","location":"Hermigua"},{"postal_code":38811,"place":"Tejiade","province":"Santa Cruz de Tenerife","location":"Alajer�"},{"postal_code":38812,"place":"Arguayoda","province":"Santa Cruz de Tenerife","location":"Alajer�"},{"postal_code":38812,"place":"Alajero","province":"Santa Cruz de Tenerife","location":"Alajer�"},{"postal_code":38811,"place":"Jerdu�e","province":"Santa Cruz de Tenerife","location":"Alajer�"},{"postal_code":38813,"place":"Targa","province":"Santa Cruz de Tenerife","location":"Alajer�"},{"postal_code":38812,"place":"Quise","province":"Santa Cruz de Tenerife","location":"Alajer�"},{"postal_code":38812,"place":"Almacigos","province":"Santa Cruz de Tenerife","location":"Alajer�"},{"postal_code":38829,"place":"Corralete","province":"Santa Cruz de Tenerife","location":"Hermigua"},{"postal_code":38801,"place":"El Molinito","province":"Santa Cruz de Tenerife","location":"San Sebasti�n de la Gomera"},{"postal_code":38849,"place":"Los Bellos","province":"Santa Cruz de Tenerife","location":"Vallehermoso"},{"postal_code":38829,"place":"Cabezadas, Las (Hermigua)","province":"Santa Cruz de Tenerife","location":"Hermigua"},{"postal_code":38820,"place":"Llano Campos","province":"Santa Cruz de Tenerife","location":"Hermigua"},{"postal_code":38820,"place":"Hermigua","province":"Santa Cruz de Tenerife","location":"Hermigua"},{"postal_code":38810,"place":"Santiago, De (Playa)","province":"Santa Cruz de Tenerife","location":"Alajer�"},{"postal_code":38840,"place":"Vallehermoso","province":"Santa Cruz de Tenerife","location":"Vallehermoso"},{"postal_code":38820,"place":"Palmarejo","province":"Santa Cruz de Tenerife","location":"Hermigua"},{"postal_code":38811,"place":"Ayamosna","province":"Santa Cruz de Tenerife","location":"Alajer�"},{"postal_code":38852,"place":"Taguluche","province":"Santa Cruz de Tenerife","location":"Valle Gran Rey"},{"postal_code":38811,"place":"Lo Del Gato","province":"Santa Cruz de Tenerife","location":"Alajer�"},{"postal_code":38869,"place":"Pavon","province":"Santa Cruz de Tenerife","location":"Vallehermoso"},{"postal_code":38820,"place":"Callejon De Ordaiz","province":"Santa Cruz de Tenerife","location":"Hermigua"},{"postal_code":38849,"place":"Rosa De Las Piedras","province":"Santa Cruz de Tenerife","location":"Vallehermoso"},{"postal_code":38829,"place":"Casas, Las (Hermigua)","province":"Santa Cruz de Tenerife","location":"Hermigua"},{"postal_code":38849,"place":"Los Loros","province":"Santa Cruz de Tenerife","location":"Vallehermoso"},{"postal_code":38811,"place":"Pastrana","province":"Santa Cruz de Tenerife","location":"Alajer�"},{"postal_code":38829,"place":"Hoyetas","province":"Santa Cruz de Tenerife","location":"Hermigua"},{"postal_code":38869,"place":"Igualero","province":"Santa Cruz de Tenerife","location":"Vallehermoso"},{"postal_code":38829,"place":"Las Poyatas","province":"Santa Cruz de Tenerife","location":"Hermigua"},{"postal_code":38870,"place":"Valle Gran Rey","province":"Santa Cruz de Tenerife","location":"Valle Gran Rey"},{"postal_code":38830,"place":"Lepe","province":"Santa Cruz de Tenerife","location":"Agulo"},{"postal_code":38879,"place":"El Retamal","province":"Santa Cruz de Tenerife","location":"Valle Gran Rey"},{"postal_code":38870,"place":"Borbalan","province":"Santa Cruz de Tenerife","location":"Valle Gran Rey"},{"postal_code":38852,"place":"Tazo","province":"Santa Cruz de Tenerife","location":"Valle Gran Rey"},{"postal_code":38879,"place":"Chele","province":"Santa Cruz de Tenerife","location":"Valle Gran Rey"},{"postal_code":38890,"place":"Cruz Del Tierno","province":"Santa Cruz de Tenerife","location":"Agulo"},{"postal_code":38879,"place":"Los Descansaderos","province":"Santa Cruz de Tenerife","location":"Valle Gran Rey"},{"postal_code":38811,"place":"Vegaipala","province":"Santa Cruz de Tenerife","location":"Alajer�"},{"postal_code":38852,"place":"Alojera","province":"Santa Cruz de Tenerife","location":"Valle Gran Rey"},{"postal_code":38869,"place":"Erquito","province":"Santa Cruz de Tenerife","location":"Vallehermoso"},{"postal_code":38849,"place":"Macayo","province":"Santa Cruz de Tenerife","location":"Vallehermoso"},{"postal_code":38869,"place":"Erque","province":"Santa Cruz de Tenerife","location":"Vallehermoso"},{"postal_code":38891,"place":"Valle Abajo","province":"Santa Cruz de Tenerife","location":"Vallehermoso"},{"postal_code":38879,"place":"Lomo Del Balo (Valle Gran Rey)","province":"Santa Cruz de Tenerife","location":"Valle Gran Rey"},{"postal_code":38811,"place":"Barranco De Santiago","province":"Santa Cruz de Tenerife","location":"Alajer�"},{"postal_code":38910,"place":"Tamaduste","province":"Santa Cruz de Tenerife","location":"Valverde"},{"postal_code":38812,"place":"Imada","province":"Santa Cruz de Tenerife","location":"Alajer�"},{"postal_code":38900,"place":"Valverde Del Hierro","province":"Santa Cruz de Tenerife","location":"Valverde"},{"postal_code":38869,"place":"Cercado, El (Vallehermoso)","province":"Santa Cruz de Tenerife","location":"Vallehermoso"},{"postal_code":38891,"place":"Tamargada","province":"Santa Cruz de Tenerife","location":"Vallehermoso"},{"postal_code":38811,"place":"Laguna De Santiago","province":"Santa Cruz de Tenerife","location":"Alajer�"},{"postal_code":38890,"place":"Palmita, La (Agulo)","province":"Santa Cruz de Tenerife","location":"Agulo"},{"postal_code":38812,"place":"Guarimiar","province":"Santa Cruz de Tenerife","location":"Alajer�"},{"postal_code":38813,"place":"Antoncojo","province":"Santa Cruz de Tenerife","location":"Alajer�"},{"postal_code":38870,"place":"Vueltas","province":"Santa Cruz de Tenerife","location":"Valle Gran Rey"},{"postal_code":38879,"place":"Lomo Del Moral","province":"Santa Cruz de Tenerife","location":"Valle Gran Rey"},{"postal_code":38820,"place":"Las Nuevitas","province":"Santa Cruz de Tenerife","location":"Hermigua"},{"postal_code":38820,"place":"Piedra Romana","province":"Santa Cruz de Tenerife","location":"Hermigua"},{"postal_code":38879,"place":"El Guro","province":"Santa Cruz de Tenerife","location":"Valle Gran Rey"},{"postal_code":38829,"place":"Monteforte","province":"Santa Cruz de Tenerife","location":"Hermigua"},{"postal_code":38820,"place":"El Curato","province":"Santa Cruz de Tenerife","location":"Hermigua"},{"postal_code":38829,"place":"Estanquillo","province":"Santa Cruz de Tenerife","location":"Hermigua"},{"postal_code":38829,"place":"Ibo Alfaro","province":"Santa Cruz de Tenerife","location":"Hermigua"},{"postal_code":38890,"place":"Los Acevi�os","province":"Santa Cruz de Tenerife","location":"Agulo"},{"postal_code":38890,"place":"Rosas, Las (Agulo)","province":"Santa Cruz de Tenerife","location":"Agulo"},{"postal_code":38830,"place":"Agulo","province":"Santa Cruz de Tenerife","location":"Agulo"},{"postal_code":38849,"place":"Banda De Las Rosas","province":"Santa Cruz de Tenerife","location":"Vallehermoso"},{"postal_code":38892,"place":"Acardece","province":"Santa Cruz de Tenerife","location":"Valle Gran Rey"},{"postal_code":38849,"place":"Los Chapines","province":"Santa Cruz de Tenerife","location":"Vallehermoso"},{"postal_code":38849,"place":"La Quilla","province":"Santa Cruz de Tenerife","location":"Vallehermoso"},{"postal_code":38852,"place":"Epina","province":"Santa Cruz de Tenerife","location":"Valle Gran Rey"},{"postal_code":38910,"place":"Aeropuerto De Hierro","province":"Santa Cruz de Tenerife","location":"Valverde"},{"postal_code":38850,"place":"Arguamul","province":"Santa Cruz de Tenerife","location":"Vallehermoso"},{"postal_code":38869,"place":"Temocoda","province":"Santa Cruz de Tenerife","location":"Vallehermoso"},{"postal_code":38860,"place":"La Rajita","province":"Santa Cruz de Tenerife","location":"Vallehermoso"},{"postal_code":38870,"place":"La Calera","province":"Santa Cruz de Tenerife","location":"Valle Gran Rey"},{"postal_code":38869,"place":"Chipude (Vallehermoso)","province":"Santa Cruz de Tenerife","location":"Vallehermoso"},{"postal_code":38869,"place":"La Dama","province":"Santa Cruz de Tenerife","location":"Vallehermoso"},{"postal_code":38879,"place":"Los Granados","province":"Santa Cruz de Tenerife","location":"Valle Gran Rey"},{"postal_code":38870,"place":"La Puntilla","province":"Santa Cruz de Tenerife","location":"Valle Gran Rey"},{"postal_code":38879,"place":"Vizcaina, La (Valle Gran Rey)","province":"Santa Cruz de Tenerife","location":"Valle Gran Rey"},{"postal_code":38879,"place":"Hornillo, El (Valle Gran Rey)","province":"Santa Cruz de Tenerife","location":"Valle Gran Rey"},{"postal_code":38879,"place":"Casa De La Seda","province":"Santa Cruz de Tenerife","location":"Valle Gran Rey"},{"postal_code":38890,"place":"Vega, La (Agulo)","province":"Santa Cruz de Tenerife","location":"Agulo"},{"postal_code":38890,"place":"Pajar De Bento","province":"Santa Cruz de Tenerife","location":"Agulo"},{"postal_code":38890,"place":"Serpa","province":"Santa Cruz de Tenerife","location":"Agulo"},{"postal_code":38892,"place":"Arure","province":"Santa Cruz de Tenerife","location":"Valle Gran Rey"},{"postal_code":38910,"place":"Puerto De La Estaca","province":"Santa Cruz de Tenerife","location":"Valverde"},{"postal_code":38892,"place":"Las Hayas","province":"Santa Cruz de Tenerife","location":"Valle Gran Rey"},{"postal_code":38911,"place":"Puntas, Las (V. Hierro)","province":"Santa Cruz de Tenerife","location":"Frontera"},{"postal_code":38911,"place":"Los Mocanes","province":"Santa Cruz de Tenerife","location":"Frontera"},{"postal_code":38914,"place":"Pinar, El (V. Hierro)","province":"Santa Cruz de Tenerife","location":"El Pinar de El Hierro"},{"postal_code":38914,"place":"Taibique","province":"Santa Cruz de Tenerife","location":"El Pinar de El Hierro"},{"postal_code":38916,"place":"Mocanal","province":"Santa Cruz de Tenerife","location":"Valverde"},{"postal_code":38915,"place":"Isora","province":"Santa Cruz de Tenerife","location":"Valverde"},{"postal_code":38910,"place":"Caleta, De La (Playa)","province":"Santa Cruz de Tenerife","location":"Valverde"},{"postal_code":38910,"place":"Temijiraque","province":"Santa Cruz de Tenerife","location":"Valverde"},{"postal_code":38911,"place":"Frontera","province":"Santa Cruz de Tenerife","location":"Frontera"},{"postal_code":38911,"place":"Luchon","province":"Santa Cruz de Tenerife","location":"Frontera"},{"postal_code":38912,"place":"Sabinosa","province":"Santa Cruz de Tenerife","location":"Frontera"},{"postal_code":38913,"place":"Tigaday","province":"Santa Cruz de Tenerife","location":"Frontera"},{"postal_code":38914,"place":"Las Casas","province":"Santa Cruz de Tenerife","location":"El Pinar de El Hierro"},{"postal_code":38915,"place":"San Andres (V. Hierro)","province":"Santa Cruz de Tenerife","location":"Valverde"},{"postal_code":38915,"place":"Ti�or","province":"Santa Cruz de Tenerife","location":"Valverde"},{"postal_code":38917,"place":"La Restinga","province":"Santa Cruz de Tenerife","location":"El Pinar de El Hierro"},{"postal_code":38916,"place":"Erese","province":"Santa Cruz de Tenerife","location":"Valverde"},{"postal_code":38916,"place":"Guarazoca","province":"Santa Cruz de Tenerife","location":"Valverde"}]}